{"type":"Feature","properties":{"GID_1":"MDA.9_1","GID_0":"MDA","country":"Moldova","province":"Causeni","VARNAME_1":"NA","NL_NAME_1":"NA","TYPE_1":"Raion","ENGTYPE_1":"District","CC_1":"NA","HASC_1":"MD.CU","ISO_1":"MD-CS","name":"Causeni.province"},
"geometry":{"type": "MultiPolygon","coordinates": [[[[29.2383,46.7641,195.4838],[29.2361,46.7619,190.3302],[29.2344,46.7551,171.0125],[29.2359,46.7258,143.5119],[29.2347,46.7175,142.7309],[29.2208,46.7121,85.8804],[29.1834,46.7265,132.2336],[29.1675,46.7438,107.7118],[29.133,46.7582,111.3007],[29.1099,46.7597,124.4107],[29.0927,46.7553,100.0714],[29.0524,46.7294,55.1409],[29.0293,46.7121,77.444],[29.0092,46.7006,104.6504],[28.9847,46.6949,86.4417],[28.9094,46.6938,234.8167],[28.9202,46.6802,248.8301],[28.9202,46.6771,242.7984],[28.9137,46.6735,174.4574],[28.9068,46.6731,209.5175],[28.9005,46.6674,170.7484],[28.9003,46.6646,160.2396],[28.9068,46.6577,213.31],[28.9076,46.6487,190.0586],[28.894,46.6362,123.0129],[28.878,46.6311,174.1776],[28.8686,46.6307,246.8164],[28.8524,46.623,157.3346],[28.8681,46.6115,174.1976],[28.9137,46.608,111.4535],[28.9376,46.6094,156.9567],[28.9451,46.612,164.702],[28.9688,46.6299,230.0903],[28.9753,46.6368,199.8847],[28.9848,46.6378,212.9893],[28.9871,46.6343,180.4188],[28.9873,46.6273,157.0097],[28.9775,46.6072,178.0749],[28.9745,46.5766,162.6455],[28.9746,46.558,149.5214],[29.0047,46.5523,239.5021],[29.0221,46.5508,149.1804],[29.034,46.5547,143.0492],[29.0601,46.5555,147.3971],[29.0664,46.5539,153.4395],[29.0672,46.5484,120.6676],[29.0593,46.531,227.5873],[29.0597,46.5196,217.8691],[29.0715,46.5204,161.0097],[29.0895,46.5279,219.2575],[29.0982,46.5284,167.7857],[29.1333,46.5245,95.891],[29.1506,46.5255,72.2584],[29.1591,46.532,95.0905],[29.1674,46.5443,92.0879],[29.1755,46.5624,170.1163],[29.1827,46.5645,154.3541],[29.1882,46.5504,161.2475],[29.1951,46.5492,197.0603],[29.2422,46.5633,114.7416],[29.2442,46.5518,167.8336],[29.2374,46.5246,153.4836],[29.2371,46.5156,127.2637],[29.2392,46.5089,105.8441],[29.2476,46.5071,144.5573],[29.25,46.5096,115.9383],[29.2548,46.5103,114.9507],[29.2594,46.5045,96.8371],[29.2626,46.4921,101.5514],[29.2588,46.4863,128.7615],[29.2418,46.4759,139.4976],[29.2475,46.4684,114.9749],[29.2485,46.4617,100.8045],[29.2447,46.4568,123.0212],[29.2362,46.4504,112.0059],[29.2342,46.4265,54.0621],[29.2229,46.4093,136.1678],[29.2167,46.4028,145.0857],[29.2166,46.397,171.395],[29.2259,46.3903,163.8198],[29.2424,46.3851,151.1977],[29.2519,46.3833,169.7125],[29.2579,46.384,163.9958],[29.2683,46.4119,88.4084],[29.2745,46.4168,58.0019],[29.2997,46.4213,121.3972],[29.3125,46.4112,143.0709],[29.3234,46.4185,119.5995],[29.3191,46.4309,165.0922],[29.3216,46.4358,172.0221],[29.3147,46.4434,175.5883],[29.3076,46.4451,160.6178],[29.3101,46.4492,169.3745],[29.3187,46.4557,179.1427],[29.319,46.4639,169.6504],[29.3145,46.4714,81.6145],[29.3206,46.4746,85.6961],[29.3313,46.4745,142.2648],[29.3387,46.481,131.3109],[29.3273,46.4968,116.5262],[29.3275,46.5026,127.2947],[29.3503,46.5063,124.2117],[29.3665,46.4896,197.7281],[29.3735,46.4845,192.3152],[29.3757,46.4795,187.2704],[29.3753,46.468,187.9138],[29.3774,46.4605,183.416],[29.4087,46.4328,173.1031],[29.4159,46.4351,162.5626],[29.4115,46.4459,152.7532],[29.4046,46.4526,146.0069],[29.4013,46.4609,172.858],[29.4479,46.4948,111.0208],[29.4539,46.4967,80.7418],[29.4555,46.5026,77.1936],[29.4548,46.5069,72.5806],[29.4496,46.513,75.2873],[29.4261,46.537,99.3285],[29.416,46.5444,122.2941],[29.4147,46.5485,140.5806],[29.4163,46.5621,143.3331],[29.4272,46.5746,142.424],[29.4295,46.5805,183.6491],[29.43,46.585,191.0955],[29.4246,46.5965,201.3531],[29.4258,46.6029,195.5453],[29.4436,46.6144,172.9265],[29.4655,46.6238,191.3973],[29.4838,46.6355,67.1072],[29.4949,46.6349,131.1072],[29.5109,46.6297,144.1122],[29.5181,46.6298,115.9504],[29.5302,46.6423,99.5262],[29.5391,46.66,140.029],[29.5422,46.6626,148.7805],[29.5533,46.664,139.6787],[29.5695,46.6609,140.7179],[29.5764,46.6722,26.3488],[29.5775,46.6929,111.464],[29.5756,46.7062,148.4646],[29.5701,46.7238,145.7044],[29.5661,46.7248,84.8842],[29.563,46.7285,68.285],[29.562,46.7541,7.925],[29.553,46.7709,7.7619],[29.5407,46.789,25.0736],[29.5329,46.7956,8.5748],[29.5272,46.7981,11.8638],[29.5139,46.7957,9.0294],[29.5086,46.7918,10.715],[29.4967,46.7872,11.4336],[29.4873,46.7894,19.436],[29.4773,46.7732,56.6742],[29.4697,46.7732,126.7726],[29.465,46.7703,116.6859],[29.4574,46.7691,138.7099],[29.4539,46.7644,136.5144],[29.4475,46.765,141.0153],[29.4457,46.7691,133.7008],[29.4399,46.7703,114.4986],[29.42,46.7691,92.473],[29.4066,46.7773,110.2971],[29.4066,46.7872,37.5816],[29.4101,46.7919,59.1925],[29.4229,46.7942,99.2281],[29.4229,46.7966,95.2931],[29.4177,46.8042,103.3548],[29.4177,46.8088,69.3823],[29.4247,46.8164,83.0074],[29.4257,46.8212,107.7834],[29.404,46.8174,117.8621],[29.3882,46.8223,95.2697],[29.3725,46.8189,89.9451],[29.3475,46.8164,120.3066],[29.3419,46.8113,126.8653],[29.3334,46.7944,93.4223],[29.3254,46.7852,155.3034],[29.3152,46.7871,164.0857],[29.3046,46.7961,96.3608],[29.2993,46.7983,92.4215],[29.2913,46.798,35.9711],[29.2879,46.7953,37.4391],[29.2876,46.792,53.403],[29.3022,46.7704,155.9651],[29.3022,46.7667,151.3633],[29.2993,46.7634,127.6532],[29.2876,46.7631,117.2678],[29.2771,46.7691,138.2993],[29.2708,46.7703,146.1507],[29.2582,46.7703,140.6674],[29.2477,46.7649,175.6797],[29.2383,46.7641,195.4838]]]]}}