{"type": "Feature","id": "1649","bbox": [28.97123,46.35712,29.57817,46.85197],"geometry": {"type": "Polygon","coordinates": [[[29.19339,46.7679,131.8189],[29.17282,46.77415,146.5535],[29.16776,46.80006,218.5445],[29.10502,46.81151,172.7247],[29.09335,46.82102,211.9509],[29.09552,46.83063,132.3067],[29.10172,46.8451,159.3014],[29.08802,46.85197,183.0936],[29.05826,46.8335,137.6705],[29.02643,46.81776,118.5864],[28.99805,46.81249,131.5365],[28.97123,46.8036,121.6922],[28.9891,46.74246,44.1491],[29.01988,46.6941,75.3316],[29.07264,46.63694,189.5267],[29.1254,46.62375,126.9808],[29.1675,46.59814,134.8539],[29.18275,46.56447,154.3541],[29.18306,46.5383,155.4751],[29.18306,46.53804,155.4751],[29.18424,46.53804,154.6238],[29.20021,46.52398,165.4278],[29.20677,46.50251,172.8675],[29.2076,46.41789,180.3332],[29.20564,46.40611,177.5735],[29.19928,46.3965,108.0493],[29.19034,46.3872,179.4155],[29.18342,46.37761,145.8245],[29.18373,46.36717,131.9588],[29.20068,46.35712,159.9072],[29.2229,46.36647,96.5102],[29.25917,46.39435,99.1558],[29.27137,46.39743,51.1323],[29.27819,46.39588,57.9025],[29.28326,46.39743,88.8617],[29.29008,46.41024,91.9374],[29.2907,46.41926,87.0545],[29.28594,46.43949,117.3729],[29.28915,46.45164,75.5997],[29.30672,46.472,108.4622],[29.32077,46.46874,146.9569],[29.34423,46.43417,179.3536],[29.36211,46.41593,181.701],[29.37472,46.41619,178.0516],[29.41823,46.46249,130.748],[29.43684,46.4767,89.2513],[29.45672,46.48437,110.8442],[29.45663,46.48476,110.8442],[29.45384,46.49665,80.7418],[29.44351,46.52137,81.656],[29.42108,46.54067,124.6306],[29.41674,46.55923,167.6953],[29.42836,46.57752,168.749],[29.42805,46.59189,199.7296],[29.42986,46.60584,156.521],[29.45544,46.62299,151.3721],[29.48376,46.63545,67.1072],[29.50118,46.63193,155.0583],[29.51807,46.62982,115.9504],[29.53115,46.64609,132.2864],[29.54221,46.66263,148.7805],[29.55864,46.66284,142.2454],[29.57332,46.6663,100.0014],[29.57817,46.69457,121.0297],[29.57011,46.72382,145.7044],[29.55332,46.76709,7.6111],[29.54164,46.77652,28.4436],[29.53228,46.78386,9.2877],[29.53187,46.78417,9.2877],[29.53048,46.7828,9.1204],[29.51186,46.78711,7.2013],[29.51162,46.78717,7.2013],[29.50288,46.79627,6.9408],[29.49508,46.79017,11.6413],[29.48252,46.79291,20.2339],[29.4695,46.81218,30.8921],[29.45043,46.82417,63.6532],[29.42444,46.82004,111.7677],[29.39896,46.81911,133.2639],[29.37736,46.82138,48.2992],[29.35597,46.8174,135.3218],[29.32858,46.78758,122.8227],[29.31452,46.78854,164.0857],[29.30191,46.79714,102.1969],[29.29519,46.78531,99.5818],[29.29085,46.76324,102.4921],[29.26522,46.76498,154.0987],[29.23835,46.76412,195.4838],[29.21706,46.78247,194.5415],[29.19339,46.7679,131.8189]]]}
,"properties": {"ISO3166-1-Alpha-3": "MDA","country": "Moldova","fill": "#00F","name": "Causeni","area_km2": 1235.0047,"hist_schema_id": "Elevation0-9000","hist_area_km2": {"0": 50.48,"25": 86.3519,"50": 111.565,"75": 154.2916,"100": 221.0321,"125": 222.5702,"150": 205.3346,"175": 133.056,"200": 48.0743,"225": 2.2489}}}