{"type": "Feature","id": "1623","bbox": [27.58872,47.01548,28.2258,47.46796],"geometry": {"type": "Polygon","coordinates": [[[27.97584,47.46305,135.2021],[27.9515,47.46796,195.1505],[27.92706,47.46664,167.955],[27.9143,47.46077,109.3566],[27.91559,47.43772,145.6389],[27.90262,47.43214,106.9765],[27.83337,47.42667,143.4532],[27.76599,47.42765,135.9341],[27.7002,47.41979,137.8251],[27.68206,47.40357,170.245],[27.62258,47.38793,159.2209],[27.59659,47.37163,41.0],[27.58872,47.36739,57.1411],[27.59995,47.36073,47.9349],[27.62403,47.32143,55.6438],[27.63695,47.30667,42.0496],[27.6447,47.30399,40.6731],[27.67173,47.29985,42.1047],[27.68232,47.29525,45.5464],[27.68986,47.29089,42.7994],[27.69782,47.2875,41.6957],[27.72283,47.28332,38.3174],[27.73327,47.27562,40.6285],[27.75363,47.25143,43.1173],[27.75239,47.23893,44.3118],[27.76304,47.22632,37.9944],[27.78831,47.20428,37.2992],[27.80035,47.17697,37.407],[27.80211,47.17635,38.0822],[27.80479,47.16849,45.2203],[27.80769,47.16247,37.9311],[27.80588,47.15823,43.4246],[27.79466,47.15583,36.1884],[27.80655,47.14462,49.4225],[27.84986,47.12852,47.9632],[27.84986,47.12172,49.7199],[27.84376,47.11439,42.3321],[27.8482,47.11141,36.4799],[27.85771,47.10932,51.2073],[27.86701,47.10465,36.5972],[27.8976,47.08142,33.6473],[27.92592,47.06876,31.5231],[27.93843,47.06106,32.3187],[27.93874,47.04664,29.7364],[27.96313,47.04338,33.2291],[27.98659,47.03323,30.1655],[28.0083,47.0263,33.866],[28.02804,47.03297,70.6814],[28.03703,47.01646,26.4146],[28.03815,47.01548,20.2314],[28.05155,47.02462,44.1618],[28.06478,47.04204,73.7226],[28.04695,47.04979,104.9872],[28.02085,47.05212,47.9843],[28.01114,47.07346,79.9391],[28.01047,47.08718,75.9516],[28.00752,47.10048,113.4277],[27.99982,47.10374,162.1653],[27.99197,47.10508,199.3728],[27.97651,47.11749,71.1648],[27.96918,47.13935,119.9223],[27.9776,47.19151,121.877],[28.00044,47.23683,84.9154],[28.02762,47.24099,253.6582],[28.05698,47.24182,296.5409],[28.09103,47.25091,226.0846],[28.12255,47.2797,310.6356],[28.15769,47.29365,122.64],[28.11594,47.30151,136.5016],[28.08669,47.32789,145.3355],[28.1239,47.34068,372.7369],[28.18105,47.37323,193.1211],[28.20699,47.37863,234.4556],[28.22472,47.39313,167.3918],[28.2258,47.41935,87.2019],[28.18746,47.43679,164.455],[28.15134,47.45796,204.5862],[28.10483,47.4601,288.0121],[28.06612,47.44447,112.4556],[28.04788,47.44139,190.6442],[28.02866,47.45638,147.9836],[27.97584,47.46305,135.2021]]]}
,"properties": {"ISO3166-1-Alpha-3": "MDA","country": "Moldova","fill": "#00F","name": "Ungheni","area_km2": 1091.568,"hist_schema_id": "Elevation0-9000","hist_area_km2": {"0": 0.0289,"25": 16.9874,"50": 113.4564,"75": 128.5742,"100": 182.3105,"125": 195.857,"150": 136.1078,"175": 75.9385,"200": 58.5833,"225": 47.7664,"250": 37.7038,"275": 29.6995,"300": 22.3016,"325": 18.006,"350": 11.7138,"375": 9.7901,"400": 5.6935,"425": 1.0493}}}