{"type": "Feature","bbox": [27.5825,47.0207,28.2258,47.4677],"geometry": {"type": "MultiPolygon","coordinates": [[[[28.2258,47.4194,87.2019],[28.1611,47.4502,248.0866],[28.1504,47.4586,194.2849],[28.1408,47.4608,205.2938],[28.1266,47.4604,158.099],[28.1057,47.4549,203.2418],[28.0942,47.4536,160.37],[28.0875,47.4534,173.0139],[28.0795,47.4575,121.3915],[28.0754,47.4565,157.0465],[28.0676,47.4479,95.1905],[28.0621,47.4381,158.7359],[28.0538,47.4375,135.1126],[28.0495,47.4395,181.8966],[28.0434,47.4463,175.6625],[28.0232,47.4589,157.3453],[27.9892,47.4601,211.9005],[27.9516,47.4677,195.1505],[27.9126,47.4662,129.7866],[27.9107,47.4567,114.2559],[27.9177,47.4457,158.3022],[27.9173,47.4372,136.8816],[27.9144,47.4338,120.3234],[27.9064,47.4321,84.7227],[27.8755,47.4331,128.4439],[27.856,47.4317,143.9776],[27.8456,47.4278,142.4394],[27.8211,47.4255,119.7827],[27.7753,47.4273,165.3722],[27.7002,47.4198,137.8251],[27.6934,47.4153,78.7779],[27.682,47.4036,170.245],[27.6653,47.3986,157.5229],[27.654,47.397,131.7516],[27.6351,47.3882,159.4252],[27.6117,47.3834,109.4915],[27.5999,47.3777,58.3889],[27.5967,47.3718,41.0],[27.6028,47.3676,54.9124],[27.5962,47.3485,53.2467],[27.5984,47.3467,43.0129],[27.6069,47.3499,51.0364],[27.6085,47.3459,46.6166],[27.6063,47.3419,51.4333],[27.6069,47.3401,50.9873],[27.6117,47.3397,42.4723],[27.6148,47.3422,57.3828],[27.6167,47.3391,66.5105],[27.6022,47.3291,43.8442],[27.5961,47.3322,46.0382],[27.5905,47.3325,43.3326],[27.5845,47.3312,48.3233],[27.5825,47.3291,53.0958],[27.5845,47.3274,54.2595],[27.5944,47.3282,46.4674],[27.597,47.3271,60.0485],[27.5977,47.3251,57.2041],[27.5943,47.3213,45.5257],[27.5977,47.3182,49.1802],[27.6012,47.3174,51.2112],[27.6032,47.3191,40.2298],[27.601,47.3232,40.2871],[27.6062,47.3291,49.3153],[27.6099,47.3285,47.32],[27.6125,47.325,43.8929],[27.6071,47.319,41.3539],[27.6072,47.3174,50.8016],[27.6177,47.3196,42.9618],[27.6236,47.3263,54.2679],[27.6287,47.3191,54.818],[27.6293,47.3107,46.4505],[27.6314,47.31,40.0796],[27.6373,47.3131,44.7681],[27.64,47.3116,55.3358],[27.6342,47.3036,40.3244],[27.6477,47.2999,44.1139],[27.6497,47.3001,48.2903],[27.6503,47.3019,56.0073],[27.6479,47.3071,50.2062],[27.653199999999998,47.3083,43.673],[27.6593,47.3054,39.5857],[27.663,47.3082,41.1391],[27.666,47.308,42.2545],[27.6713,47.3007,47.401],[27.6748,47.3001,44.3998],[27.6782,47.3043,49.1855],[27.6765,47.3095,46.7079],[27.6804,47.3099,49.7766],[27.6821,47.3065,55.8742],[27.6815,47.2989,41.8712],[27.686,47.2972,55.9526],[27.6844,47.2887,48.2087],[27.687,47.2848,40.1832],[27.6897,47.2859,37.541],[27.6913,47.2915,38.6723],[27.6932,47.2922,52.8235],[27.7075,47.2897,38.9212],[27.7044,47.298,38.8173],[27.7066,47.3003,39.1598],[27.7134,47.2993,41.0079],[27.7206,47.2941,48.1816],[27.7292,47.2959,62.014],[27.7329,47.294,50.7907],[27.7395,47.2853,43.9057],[27.7393,47.2759,43.0219],[27.7474,47.2778,44.3065],[27.7498,47.2764,54.2095],[27.7458,47.2671,39.6515],[27.7465,47.2646,44.5437],[27.7599,47.2585,35.5213],[27.7577,47.2565,39.2636],[27.7481,47.2581,38.9279],[27.7439,47.257,45.8072],[27.7459,47.2517,36.956],[27.753,47.2551,40.6213],[27.7582,47.2514,41.0415],[27.7573,47.2475,37.1699],[27.7511,47.2489,37.0133],[27.7475,47.247,45.7261],[27.7471,47.2426,42.7689],[27.7523,47.2384,38.2312],[27.7604,47.24,38.7678],[27.7557,47.233,44.3932],[27.7573,47.2306,39.8527],[27.7711,47.2321,39.9136],[27.7761,47.2312,39.6397],[27.7764,47.2282,38.1801],[27.7711,47.222,45.1306],[27.7841,47.2208,42.4361],[27.7882,47.2179,42.5355],[27.7872,47.2145,51.9638],[27.7807,47.209,42.6613],[27.7787,47.2044,44.7827],[27.7813,47.2042,36.6156],[27.7883,47.2082,36.0042],[27.7913,47.2082,50.9075],[27.7923,47.2067,52.3253],[27.7881,47.1988,35.4493],[27.7885,47.1905,36.8167],[27.7939,47.1882,39.0068],[27.8021,47.1911,42.8684],[27.8052,47.1892,39.3733],[27.8,47.1805,40.3752],[27.7978,47.1714,36.5968],[27.806,47.1667,37.5696],[27.8114,47.1669,40.0421],[27.8128,47.1642,45.0612],[27.8034,47.1567,40.1493],[27.8029,47.1522,36.2899],[27.7913,47.1541,37.5635],[27.7861,47.1505,38.8548],[27.788,47.1473,48.0978],[27.7971,47.149,35.9762],[27.8015,47.1447,38.9822],[27.8011,47.1425,37.1182],[27.7853,47.1449,35.6035],[27.7827,47.1442,38.5737],[27.7833,47.1425,44.537],[27.8022,47.1383,36.0686],[27.8173,47.1383,35.6365],[27.8235,47.1356,43.0747],[27.831,47.1393,43.6763],[27.8312,47.135,39.9132],[27.8339,47.1336,38.2953],[27.8441,47.1358,50.0308],[27.8527,47.129,40.0637],[27.8514,47.1243,47.0325],[27.8468,47.1229,37.1275],[27.8438,47.1285,33.0532],[27.840699999999998,47.1296,33.004],[27.8371,47.1261,39.4132],[27.8281,47.1237,57.5693],[27.8276,47.1219,39.5889],[27.8349,47.1159,50.7378],[27.858,47.1127,38.8232],[27.8564,47.108,39.9934],[27.8605,47.1042,48.3782],[27.8641,47.1047,37.3989],[27.8663,47.1083,34.5271],[27.8768,47.1077,37.775],[27.8748,47.1053,39.0521],[27.8685,47.1033,41.8201],[27.875,47.1035,33.3288],[27.8855,47.0993,39.6544],[27.8813,47.0921,37.688],[27.8849,47.0903,33.0765],[27.8903,47.091,58.1834],[27.8951,47.087,38.1688],[27.8977,47.0827,34.9527],[27.8991,47.0739,40.622],[27.9071,47.077,31.6115],[27.9172,47.0674,41.8651],[27.9246,47.068,30.729],[27.9323,47.0627,33.2818],[27.9357,47.0622,40.2821],[27.9391,47.0634,38.7174],[27.9397,47.0659,30.2005],[27.9411,47.0661,31.0175],[27.9467,47.0608,42.4046],[27.9597,47.058,30.961],[27.9616,47.0562,30.2326],[27.9591,47.0541,40.1692],[27.9535,47.0547,34.2325],[27.946,47.0514,41.4553],[27.9535,47.0473,43.8213],[27.9653,47.0497,30.9756],[27.9649,47.0478,30.8936],[27.9603,47.0463,36.0795],[27.9608,47.0419,34.251],[27.9672,47.0444,32.9351],[27.9744,47.0449,30.4654],[27.9794,47.0379,37.9165],[27.9841,47.0351,34.3848],[27.9881,47.0348,28.9197],[27.9915,47.0383,33.2025],[27.9944,47.0377,36.8512],[27.9975,47.0352,30.7014],[27.9966,47.0293,35.5378],[28.0188,47.0234,39.2309],[28.0245,47.0239,34.2478],[28.025,47.0275,29.5636],[28.0281,47.0303,31.1539],[28.0361,47.0305,59.3545],[28.0402,47.028,35.9094],[28.042,47.0218,36.5281],[28.0441,47.0207,28.4124],[28.0475,47.0247,33.8709],[28.0515,47.0246,44.1618],[28.0591,47.031,52.5146],[28.0648,47.0405,73.7226],[28.0654,47.0483,72.3781],[28.0575,47.0498,118.2066],[28.0239,47.05,53.0013],[28.0171,47.0515,71.1274],[28.0129,47.0563,93.3397],[28.0107,47.0889,74.4654],[28.0089,47.0984,123.2719],[28.0062,47.1026,129.4971],[28.0009,47.1046,152.5048],[27.9853,47.1053,132.7839],[27.9805,47.1076,86.1436],[27.9733,47.118,52.7394],[27.9672,47.1508,122.5412],[27.9734,47.1727,99.5221],[27.9829,47.1886,83.9984],[27.9876,47.2058,90.4259],[27.99,47.2229,89.0401],[27.9962,47.2328,93.6807],[28.0004,47.2368,84.9154],[28.0057,47.2386,122.3949],[28.0415,47.2381,367.1839],[28.091,47.2509,226.0846],[28.0915,47.2692,237.6409],[28.093,47.2746,287.6247],[28.0988,47.2789,325.024],[28.1073,47.2798,373.9484],[28.137,47.278,358.4702],[28.1433,47.2792,297.2971],[28.1498,47.2834,220.2846],[28.1568,47.291,136.5146],[28.1565,47.2961,135.6338],[28.1529,47.2981,135.9161],[28.135,47.2974,187.136],[28.1127,47.3009,135.1627],[28.0913,47.3123,236.7995],[28.084,47.3197,236.228],[28.0867,47.3279,145.3355],[28.0921,47.3319,147.7466],[28.0968,47.3329,153.772],[28.1071,47.3386,255.0692],[28.1419,47.3391,298.7188],[28.1517,47.3429,205.8628],[28.1568,47.3472,205.6938],[28.1602,47.3637,289.5179],[28.1625,47.3658,251.5553],[28.1758,47.3708,170.9316],[28.1985,47.3736,240.0364],[28.204,47.3777,244.9758],[28.2184,47.3815,175.8527],[28.2237,47.385,124.5506],[28.2253,47.3897,183.5623],[28.2258,47.4194,87.2019]]]]}
,"properties": {"GID_1": "MDA.37_1","GID_0": "MDA","country": "Moldova","province": "Ungheni","VARNAME_1": "NA","NL_NAME_1": "NA","TYPE_1": "Raion","ENGTYPE_1": "District","CC_1": "NA","HASC_1": "MD.UG","ISO_1": "MD-UN","name": "Ungheni.province","area_km2": 1084.0264,"hist_schema_id": "Elevation0-9000","hist_area_km2": {"25": 12.0527,"50": 110.7403,"75": 128.6459,"100": 182.755,"125": 196.517,"150": 135.6901,"175": 75.7363,"200": 58.1658,"225": 47.68,"250": 37.3445,"275": 29.6421,"300": 22.4163,"325": 18.207,"350": 11.4835,"375": 10.0489,"400": 5.8518,"425": 1.0493}}}