{"type":"Feature","properties":{"ISO3166-1-Alpha-3":"MDA","country":"Moldova","fill":"#000","id":"1647","name":"Străşeni"},
"geometry":{"type": "Polygon","coordinates": [[[28.70753,47.24138,100.5132],[28.68836,47.26107,90.2569],[28.67544,47.28598,154.6008],[28.66681,47.31003,270.48],[28.65513,47.33117,128.4926],[28.63394,47.33238,192.5259],[28.61575,47.32057,295.7473],[28.59736,47.32254,256.9375],[28.57958,47.33189,174.1262],[28.56067,47.32236,199.2634],[28.51566,47.31887,257.4261],[28.45556,47.28156,232.6291],[28.46444,47.26699,279.5232],[28.48067,47.25448,199.3899],[28.48511,47.22968,266.8272],[28.46641,47.21353,164.2172],[28.41602,47.18159,261.0423],[28.3906,47.17355,110.3849],[28.34238,47.1704,253.8081],[28.32693,47.15717,107.7871],[28.33959,47.14725,170.7682],[28.35169,47.13237,225.6769],[28.34435,47.118,314.1466],[28.33391,47.1055,267.9969],[28.349,47.07914,353.5112],[28.37975,47.07645,367.9015],[28.39876,47.08369,370.6102],[28.41866,47.08555,262.1377],[28.43447,47.07708,236.2707],[28.45271,47.07338,255.8297],[28.48238,47.08188,210.3726],[28.5046,47.06369,159.5963],[28.53679,47.06142,284.0189],[28.56542,47.06227,191.2928],[28.59017,47.02902,171.6405],[28.62779,47.01227,175.8055],[28.64185,47.02442,148.007],[28.65942,47.0332,163.3097],[28.68448,47.02623,165.0075],[28.70846,47.01504,129.8184],[28.74965,47.01651,228.0489],[28.77182,47.0532,80.0445],[28.73554,47.06343,85.5596],[28.66262,47.11007,153.6261],[28.66185,47.13924,59.8087],[28.70939,47.1201,108.3473],[28.75275,47.08674,143.5424],[28.79853,47.08069,124.1913],[28.84251,47.09529,98.4837],[28.8191,47.1211,201.9166],[28.78473,47.13857,210.348],[28.77874,47.1688,83.8503],[28.7899,47.20255,137.7455],[28.77445,47.22306,121.0928],[28.7621,47.24634,146.6224],[28.73859,47.24841,243.192],[28.70753,47.24138,100.5132]]]}}