{"type":"Feature","properties":{"GID_1":"MDA.33_1","GID_0":"MDA","country":"Moldova","province":"Străşeni","VARNAME_1":"NA","NL_NAME_1":"NA","TYPE_1":"Raion","ENGTYPE_1":"District","CC_1":"NA","HASC_1":"MD.ST","ISO_1":"NA","name":"Străşeni.province"},
"geometry":{"type": "MultiPolygon","coordinates": [[[[28.3269,47.1572,107.7871],[28.3258,47.152,233.5433],[28.3438,47.1471,123.3891],[28.3517,47.1323,225.6769],[28.3509,47.1215,252.3576],[28.3371,47.1109,346.4946],[28.3339,47.1055,267.9969],[28.3337,47.0964,332.4822],[28.348,47.0794,338.3417],[28.3627,47.072,285.5152],[28.3721,47.071,337.5751],[28.3864,47.0799,314.8001],[28.4098,47.0883,322.7677],[28.4186,47.0856,262.1377],[28.4368,47.072,293.692],[28.4466,47.0712,201.5863],[28.4805,47.0854,224.1206],[28.4884,47.0822,194.7069],[28.4993,47.0739,215.7937],[28.5046,47.0637,159.5963],[28.5182,47.0566,235.1878],[28.5287,47.0542,300.0887],[28.5485,47.0651,179.8147],[28.5553,47.0655,188.195],[28.5654,47.0623,191.2928],[28.5703,47.0562,137.61],[28.58,47.0356,237.3368],[28.5909,47.0259,148.945],[28.6095,47.0154,124.4815],[28.6261,47.0118,157.0214],[28.6295,47.0128,183.4558],[28.6444,47.0297,115.2492],[28.6529,47.0334,125.1775],[28.6659,47.033,121.8724],[28.6723,47.0307,155.4493],[28.6723,47.0389,197.6816],[28.6571,47.0599,248.49],[28.6571,47.081,248.4236],[28.6628,47.0981,129.5106],[28.6714,47.1029,137.8704],[28.6731,47.1012,129.9903],[28.6952,47.1039,104.5103],[28.719,47.1114,85.9612],[28.7119,47.1172,111.0151],[28.7506,47.1191,146.1733],[28.7621,47.1306,232.7638],[28.764,47.1459,224.3718],[28.7766,47.1528,131.2577],[28.7899,47.2026,137.7455],[28.7846,47.2152,106.3939],[28.7819,47.2181,125.9749],[28.7637,47.2263,129.7896],[28.7622,47.23,124.2737],[28.762,47.2492,157.4778],[28.759,47.2526,144.9769],[28.7423,47.2534,182.7884],[28.7319,47.2447,205.1959],[28.7265,47.2378,107.8317],[28.7196,47.2361,111.2947],[28.7108,47.2393,113.018],[28.6984,47.2472,77.2331],[28.6927,47.2535,91.5489],[28.6811,47.2742,152.4613],[28.6678,47.2993,219.4739],[28.6629,47.3168,257.5082],[28.6572,47.3296,152.9102],[28.653,47.3328,156.2732],[28.6331,47.3325,192.5259],[28.6254,47.3303,197.7057],[28.619,47.3227,256.5349],[28.6124,47.3185,319.9278],[28.6048,47.3187,277.3663],[28.5814,47.3325,184.8412],[28.5675,47.325,180.9212],[28.5608,47.3191,247.5529],[28.5507,47.3184,295.546],[28.5261,47.324,251.8623],[28.5185,47.324,274.4991],[28.5059,47.3198,228.5794],[28.4936,47.3058,156.2338],[28.4796,47.294,241.0518],[28.4686,47.287,239.4691],[28.4612,47.2852,203.1364],[28.4556,47.2815,232.6291],[28.4538,47.2771,182.4655],[28.4583,47.2717,166.0044],[28.4733,47.2619,257.6266],[28.4807,47.2545,199.3899],[28.4856,47.2434,190.1343],[28.4853,47.2239,217.3449],[28.4505,47.2056,137.1124],[28.4399,47.1962,153.3263],[28.4215,47.1834,224.031],[28.4106,47.1797,227.2874],[28.3971,47.1719,102.9722],[28.3678,47.1714,282.5983],[28.3499,47.1727,241.9965],[28.3401,47.1705,195.3471],[28.3342,47.1663,143.8242],[28.3269,47.1572,107.7871]]]]}}