{"type": "Feature","bbox": [28.5682,46.4174,28.9873,46.7861],"geometry": {"type": "MultiPolygon","coordinates": [[[[28.9746,46.558,149.5214],[28.9745,46.5766,162.6455],[28.9775,46.6072,178.0749],[28.9873,46.6273,157.0097],[28.9871,46.6343,180.4188],[28.9848,46.6378,212.9893],[28.9753,46.6368,199.8847],[28.9688,46.6299,230.0903],[28.9451,46.612,164.702],[28.9376,46.6094,156.9567],[28.9137,46.608,111.4535],[28.8912,46.6088,212.205],[28.8681,46.6115,174.1976],[28.8606,46.6162,176.0654],[28.8524,46.623,157.3346],[28.8686,46.6307,246.8164],[28.878,46.6311,174.1776],[28.894,46.6362,123.0129],[28.9041,46.6447,168.244],[28.9076,46.6487,190.0586],[28.9068,46.6577,213.31],[28.9003,46.6646,160.2396],[28.9005,46.6674,170.7484],[28.9068,46.6731,209.5175],[28.9175,46.6749,213.8076],[28.9202,46.6771,242.7984],[28.9202,46.6802,248.8301],[28.9006,46.707,238.9199],[28.8923,46.7125,150.667],[28.8738,46.7166,227.9891],[28.8481,46.717,255.3161],[28.8412,46.7184,241.9056],[28.8266,46.7277,204.7618],[28.8199,46.7356,257.4974],[28.8156,46.7446,213.5637],[28.8143,46.7516,170.6529],[28.8102,46.7556,144.7337],[28.7948,46.7558,180.9886],[28.7794,46.7526,258.5166],[28.7652,46.7536,297.7469],[28.7589,46.757,266.3858],[28.7324,46.7861,169.731],[28.7099,46.7817,208.3241],[28.6854,46.773,125.9085],[28.6716,46.765,211.621],[28.6548,46.7485,108.4629],[28.6487,46.7469,120.1039],[28.6361,46.7469,216.663],[28.6162,46.7427,138.4398],[28.6073,46.7365,207.742],[28.6067,46.6711,216.8268],[28.6015,46.6691,201.9495],[28.5831,46.6685,178.0662],[28.5802,46.6611,194.7431],[28.5802,46.6511,193.0797],[28.5841,46.6443,159.8138],[28.6022,46.6363,221.3082],[28.6025,46.633,222.3648],[28.6012,46.6282,206.9525],[28.5951,46.6208,153.8434],[28.5878,46.6078,122.0804],[28.5868,46.5768,175.5867],[28.5814,46.5717,177.6147],[28.5691,46.5659,157.9384],[28.5682,46.5623,171.794],[28.5875,46.5511,190.2769],[28.586,46.5358,175.2236],[28.5873,46.509,202.9897],[28.5856,46.5026,163.0138],[28.6099,46.4875,142.0139],[28.6428,46.4708,82.5921],[28.6763,46.458,90.3923],[28.7138,46.4393,160.2861],[28.7554,46.4232,125.7466],[28.7634,46.4174,145.5544],[28.7661,46.4211,159.1171],[28.772,46.4223,141.5655],[28.8112,46.4221,207.5564],[28.8146,46.4233,193.7754],[28.8144,46.4288,175.8831],[28.8014,46.4497,227.7099],[28.801,46.4568,171.4571],[28.8026,46.4611,147.7889],[28.8317,46.4774,72.0353],[28.8662,46.4816,107.5139],[28.8707,46.4859,128.0897],[28.8849,46.5131,187.382],[28.9048,46.5207,126.5296],[28.914,46.5227,136.8737],[28.9241,46.5318,132.2464],[28.9282,46.5422,96.9296],[28.9347,46.5495,119.197],[28.9428,46.5541,154.7104],[28.9714,46.5562,172.7881],[28.9746,46.5568,137.838],[28.9746,46.558,149.5214]]]]}
,"properties": {"GID_1": "MDA.11_1","GID_0": "MDA","country": "Moldova","province": "Cimişlia","VARNAME_1": "NA","NL_NAME_1": "NA","TYPE_1": "Raion","ENGTYPE_1": "District","CC_1": "NA","HASC_1": "MD.CS","ISO_1": "NA","name": "Cimişlia.province","area_km2": 797.0811,"hist_schema_id": "Elevation0-9000","hist_area_km2": {"75": 29.5825,"100": 80.0829,"125": 119.46,"150": 164.3314,"175": 174.2129,"200": 129.759,"225": 65.2207,"250": 25.8281,"275": 6.8894,"300": 1.7142}}}