{"type":"Feature","properties":{"ISO3166-1-Alpha-3":"MDA","country":"Moldova","fill":"#FF0","id":"1633","name":"Cimişlia"},
"geometry":{"type": "Polygon","coordinates": [[[28.82546,46.79482,162.528],[28.78014,46.7958,156.1568],[28.73559,46.82329,229.6382],[28.72737,46.80531,162.966],[28.73239,46.78609,169.731],[28.70278,46.77944,214.8832],[28.67518,46.76707,196.7163],[28.64986,46.75255,109.5111],[28.62133,46.74381,181.3218],[28.60707,46.69948,181.2648],[28.58371,46.66852,178.0662],[28.58619,46.64684,156.5522],[28.60247,46.63305,222.3648],[28.59741,46.62181,163.7308],[28.58971,46.61113,126.8426],[28.58743,46.59679,136.6448],[28.58754,46.58165,148.2474],[28.57343,46.56765,174.8197],[28.57896,46.55654,200.9503],[28.58852,46.5323,151.493],[28.58563,46.50259,163.0138],[28.63027,46.47877,103.6379],[28.72122,46.4398,191.408],[28.76339,46.4174,145.5544],[28.79729,46.4214,213.2979],[28.80938,46.43727,213.7781],[28.80876,46.46492,142.1017],[28.83827,46.47871,71.6962],[28.85956,46.48075,92.9926],[28.87439,46.49339,154.4548],[28.8838,46.50915,174.3329],[28.9177,46.52951,180.8599],[28.9315,46.54589,98.3309],[28.95232,46.55494,186.5744],[28.97459,46.55799,149.5214],[29.04586,46.5555,175.0302],[29.06461,46.5461,152.7206],[29.05965,46.51954,217.8691],[29.05598,46.49913,207.9999],[29.05591,46.49874,205.9831],[29.07495,46.50367,162.1426],[29.16275,46.53809,93.4377],[29.18306,46.53804,155.4751],[29.18306,46.5383,155.4751],[29.18275,46.56447,154.3541],[29.1675,46.59814,134.8539],[29.1254,46.62375,126.9808],[29.07264,46.63694,189.5267],[29.01988,46.6941,75.3316],[28.9891,46.74246,44.1491],[28.97123,46.8036,121.6922],[28.95268,46.78921,79.0629],[28.94617,46.78934,69.6292],[28.93987,46.79218,65.7039],[28.907,46.812,58.0146],[28.89026,46.80451,125.7665],[28.8732,46.79363,147.9841],[28.84923,46.79624,112.1416],[28.82546,46.79482,162.528]]]}}