{"type": "Feature","id": "1646","bbox": [28.42744,47.71704,28.96302,47.98281],"geometry": {"type": "Polygon","coordinates": [[[28.94214,47.88323,26.5],[28.86096,47.89971,60.6279],[28.84092,47.91055,130.0859],[28.82887,47.91708,46.5843],[28.83026,47.94105,49.8711],[28.81285,47.96539,58.4165],[28.78513,47.98259,37.0878],[28.78479,47.98281,37.0878],[28.78449,47.98252,40.271],[28.776,47.9741,150.9272],[28.77026,47.97077,166.8508],[28.75559,47.95723,166.8715],[28.73828,47.95299,140.2077],[28.7204,47.95273,170.3477],[28.68324,47.93392,249.9077],[28.65792,47.89865,242.8646],[28.65684,47.87716,251.4072],[28.66919,47.85811,268.9371],[28.63704,47.84214,218.7486],[28.60077,47.86302,217.3592],[28.56919,47.8871,225.3782],[28.53054,47.89294,260.4157],[28.50398,47.88333,271.8252],[28.47798,47.88855,233.9098],[28.42744,47.84615,167.5204],[28.43902,47.80592,144.6651],[28.44724,47.8107,168.9021],[28.45468,47.81757,185.1587],[28.46956,47.81522,169.706],[28.48429,47.80682,285.7805],[28.51943,47.79378,246.1272],[28.5341,47.75559,228.3274],[28.58289,47.73104,125.3823],[28.63704,47.71704,262.4501],[28.69296,47.74484,294.8098],[28.76639,47.73554,238.0148],[28.79161,47.78649,255.8096],[28.81538,47.79548,264.8604],[28.84034,47.80199,227.354],[28.83967,47.81078,216.9997],[28.82401,47.81501,223.3734],[28.84148,47.83207,220.7041],[28.91181,47.82429,244.6555],[28.91641,47.8392,180.5784],[28.92829,47.84935,202.1946],[28.94596,47.84618,172.1135],[28.96302,47.84173,161.3452],[28.95537,47.86493,192.1366],[28.94226,47.88306,26.5],[28.94214,47.88323,26.5]]]}
,"properties": {"ISO3166-1-Alpha-3": "MDA","country": "Moldova","fill": "#FF0","name": "Şoldăneşti","area_km2": 550.4062,"hist_schema_id": "Elevation0-9000","hist_area_km2": {"25": 7.2742,"50": 7.7867,"75": 5.0443,"100": 2.9564,"125": 10.9467,"150": 32.0482,"175": 64.3474,"200": 101.1865,"225": 92.8307,"250": 92.1322,"275": 79.2813,"300": 42.6502,"325": 11.7933,"350": 0.1282}}}