{"type":"Feature","properties":{"GID_1":"MDA.30_1","GID_0":"MDA","country":"Moldova","province":"Şoldăneşti","VARNAME_1":"NA","NL_NAME_1":"NA","TYPE_1":"Raion","ENGTYPE_1":"District","CC_1":"NA","HASC_1":"MD.SD","ISO_1":"NA","name":"Şoldăneşti.province"},
"geometry":{"type": "MultiPolygon","coordinates": [[[[28.5341,47.7556,228.3274],[28.5347,47.7537,227.6444],[28.5702,47.7361,161.7566],[28.5934,47.7312,155.7035],[28.628,47.7189,275.0247],[28.637,47.717,262.4501],[28.6403,47.7304,310.2449],[28.6464,47.744,314.5548],[28.6516,47.749,315.2629],[28.6699,47.7515,251.5177],[28.7174,47.7394,262.4887],[28.7282,47.7342,229.6054],[28.7376,47.727,238.1588],[28.7454,47.725,297.634],[28.7564,47.7339,242.381],[28.7747,47.7386,213.0713],[28.7786,47.7441,182.8938],[28.7805,47.7599,273.3869],[28.7766,47.766,249.5567],[28.7764,47.771,238.8217],[28.7791,47.7774,250.3988],[28.7841,47.7818,277.3312],[28.7916,47.7865,255.8096],[28.8043,47.7912,274.0545],[28.8436,47.8034,212.0105],[28.8453,47.8084,214.6325],[28.8425,47.8108,225.7339],[28.8071,47.8203,141.9937],[28.8038,47.8247,136.397],[28.8079,47.8335,162.1463],[28.8176,47.8374,169.4203],[28.8398,47.838,234.9303],[28.8848,47.8217,195.8306],[28.905,47.8208,221.3372],[28.9106,47.8222,238.906],[28.913,47.8264,240.2481],[28.915,47.8413,180.756],[28.9225,47.8477,207.3149],[28.9283,47.8494,202.1946],[28.9416,47.848,182.457],[28.954,47.8422,157.0697],[28.9607,47.8413,152.9247],[28.9654,47.8422,162.6586],[28.967,47.8505,173.5195],[28.9643,47.8577,174.2477],[28.9549,47.8676,175.7527],[28.9396,47.8795,63.9007],[28.9343,47.8861,39.3099],[28.9172,47.8872,53.7734],[28.8756,47.899,179.1765],[28.8435,47.9007,57.9781],[28.8339,47.9063,72.4948],[28.8311,47.9148,55.4312],[28.8356,47.9227,127.6989],[28.8468,47.9356,202.9749],[28.8463,47.9418,114.9363],[28.8159,47.9604,42.2761],[28.7995,47.9835,187.2248],[28.7933,47.9874,98.9185],[28.786,47.9874,33.9263],[28.7712,47.9759,141.343],[28.7764,47.9754,150.9272],[28.7556,47.9572,166.8715],[28.7495,47.9536,133.4468],[28.7319,47.9515,155.1172],[28.7085,47.9523,198.0945],[28.6954,47.9491,244.2995],[28.6852,47.9413,236.1839],[28.6655,47.9069,199.8887],[28.6553,47.8958,262.5659],[28.6499,47.8847,283.6174],[28.6503,47.8786,251.4043],[28.654,47.8749,227.6912],[28.6708,47.8737,256.9764],[28.6733,47.8716,244.8596],[28.6692,47.8581,268.9371],[28.6569,47.843,227.434],[28.6503,47.8401,187.0991],[28.6405,47.8401,194.3669],[28.6311,47.843,208.8084],[28.5879,47.8714,201.1219],[28.5789,47.8829,252.0324],[28.5707,47.8886,225.3782],[28.5584,47.8931,272.8289],[28.535,47.894,240.3228],[28.5141,47.8878,316.9616],[28.5039,47.8817,263.8937],[28.4953,47.88,287.8549],[28.478,47.8886,233.9098],[28.4737,47.8882,221.8965],[28.4639,47.8853,206.8161],[28.4514,47.8789,133.7757],[28.4393,47.868,146.7633],[28.4276,47.8551,200.3491],[28.4204,47.8406,165.567],[28.4196,47.8282,112.1847],[28.4245,47.8088,87.1104],[28.4279,47.8067,70.1056],[28.439,47.8059,144.6651],[28.4429,47.8075,151.6528],[28.4574,47.8194,178.6466],[28.4641,47.8186,138.3451],[28.4789,47.8077,260.1593],[28.4897,47.8059,274.2252],[28.505,47.807,300.9289],[28.5156,47.8046,261.7746],[28.5215,47.7984,278.3209],[28.5262,47.7865,256.2696],[28.5341,47.7556,228.3274]]]]}}