{"type": "Feature","id": 129179.0,"bbox": [29.070323112896233,47.285223699994077,29.175791862896233,47.437323309369077],"geometry": {"type": "Polygon","coordinates": [[[29.152354362896233,47.378973699994077,26.5],[29.148692253521233,47.387091375775327,78.9449],[29.139292839458733,47.395331121869077,102.5801],[29.123789909771233,47.391363836712827,28.8937],[29.113291862896233,47.398504949994077,42.4838],[29.101328972271233,47.411139227337827,54.8814],[29.090098503521233,47.437323309369077,26.5],[29.081553581646233,47.434515692181577,39.3573],[29.072276237896233,47.423895574994077,53.9156],[29.075450066021233,47.402594305462827,139.4929],[29.111582878521233,47.380438543744077,109.1736],[29.140635612896233,47.365301824994077,38.2859],[29.146494987896233,47.351629949994077,34.9674],[29.132823112896233,47.341864324994077,83.1444],[29.111704948833733,47.356146551556577,95.208],[29.087412956646233,47.371954657025327,123.9187],[29.070323112896233,47.364020086712827,138.0602],[29.070323112896233,47.338812567181577,31.3108],[29.082163933208733,47.312994696087827,26.5],[29.093760612896233,47.296942449994077,26.5],[29.115489128521233,47.285223699994077,26.5],[29.112315300396233,47.305365301556577,92.5345],[29.096202019146233,47.323004461712827,97.0392],[29.103526237896233,47.334051824994077,108.7147],[29.126963737896233,47.318426824994077,120.1601],[29.152354362896233,47.324286199994077,130.6159],[29.175791862896233,47.343817449994077,146.6842],[29.166270378521233,47.361578680462827,113.742],[29.152354362896233,47.378973699994077,26.5]]]}
,"properties": {"fillOpacity": 1,"fill": "#F0F","name": "null-70","title": "null-70","lge_id": null,"pfafstette": 311.0,"lke_type": "N","altitude": 104,"objectid": 78997,"scalerank": 11,"featurecla": "Lake","note": "_untitled_78997","funkyname": 0,"min_zoom": 6.7,"min_label": 7.7,"area_km2": 52.18011,"hist_schema_id": "Elevation0-9000","hist_area_km2": {"25": 30.13444,"50": 10.43932,"75": 4.74039,"100": 4.26662,"125": 2.32661,"150": 0.27272}}}