{"type": "Feature","id": "1643","bbox": [28.52072,47.20255,29.1105,47.59906],"geometry": {"type": "Polygon","coordinates": [[[29.02674,47.52948,56.0852],[28.98782,47.54519,217.8173],[28.95496,47.57984,257.9601],[28.92984,47.59446,156.0842],[28.90488,47.59906,224.4841],[28.8978,47.58717,224.7446],[28.88561,47.57823,279.9149],[28.86096,47.57524,291.5926],[28.82122,47.54082,181.3302],[28.793,47.53302,270.0488],[28.7683,47.53707,153.864],[28.74804,47.55061,64.7165],[28.72898,47.5541,137.545],[28.70929,47.55462,234.4391],[28.62536,47.51384,73.9518],[28.60278,47.50563,45.7123],[28.58242,47.49405,37.8954],[28.58004,47.48398,37.4447],[28.57999,47.47374,46.8935],[28.57162,47.46473,121.4508],[28.57028,47.45542,81.7542],[28.57772,47.44615,78.9544],[28.5772,47.43462,108.7948],[28.52072,47.4176,105.6204],[28.53286,47.38031,57.4673],[28.58795,47.35592,241.0489],[28.57958,47.33189,174.1262],[28.59736,47.32254,256.9375],[28.61575,47.32057,295.7473],[28.63394,47.33238,192.5259],[28.65513,47.33117,128.4926],[28.66681,47.31003,270.48],[28.67544,47.28598,154.6008],[28.68836,47.26107,90.2569],[28.70753,47.24138,100.5132],[28.73859,47.24841,243.192],[28.7621,47.24634,146.6224],[28.77445,47.22306,121.0928],[28.7899,47.20255,137.7455],[28.80603,47.2104,167.3318],[28.80184,47.23882,207.7669],[28.82701,47.26476,269.7944],[28.8655,47.2605,232.2567],[28.90643,47.27582,235.7353],[28.94431,47.29877,201.5927],[28.98653,47.30952,24.5477],[29.02167,47.33313,169.3273],[29.00312,47.35104,157.1656],[28.98188,47.36334,217.3444],[28.99945,47.37662,161.685],[29.00839,47.39638,186.2433],[29.02544,47.40088,210.3465],[29.05138,47.39039,195.7546],[29.06549,47.40212,154.4589],[29.08239,47.40641,26.5],[29.09014,47.43729,26.5],[29.10709,47.45416,47.5247],[29.1105,47.46398,48.4055],[29.10797,47.46943,35.5374],[29.10384,47.47824,26.5],[29.09298,47.48722,26.5],[29.09278,47.48739,26.5],[29.0489,47.50607,26.5],[29.04859,47.5062,26.5],[29.03304,47.51865,32.7916],[29.02674,47.52948,56.0852]]]}
,"properties": {"ISO3166-1-Alpha-3": "MDA","country": "Moldova","fill": "#FF0","name": "Orhei","area_km2": 1075.2665,"hist_schema_id": "Elevation0-9000","hist_area_km2": {"25": 98.1883,"50": 87.3356,"75": 81.7133,"100": 92.471,"125": 115.5521,"150": 136.2302,"175": 136.4944,"200": 126.2179,"225": 108.5737,"250": 71.1103,"275": 19.0162,"300": 2.3636}}}