{"type":"Feature","properties":{"GID_1":"MDA.26_1","GID_0":"MDA","country":"Moldova","province":"Orhei","VARNAME_1":"NA","NL_NAME_1":"NA","TYPE_1":"Raion","ENGTYPE_1":"District","CC_1":"NA","HASC_1":"MD.OH","ISO_1":"MD-OR","name":"Orhei.province"},
"geometry":{"type": "MultiPolygon","coordinates": [[[[28.5796,47.3319,174.1262],[28.5814,47.3325,184.8412],[28.6048,47.3187,277.3663],[28.6124,47.3185,319.9278],[28.619,47.3227,256.5349],[28.6254,47.3303,197.7057],[28.6331,47.3325,192.5259],[28.653,47.3328,156.2732],[28.6572,47.3296,152.9102],[28.6629,47.3168,257.5082],[28.6678,47.2993,219.4739],[28.6811,47.2742,152.4613],[28.6927,47.2535,91.5489],[28.6984,47.2472,77.2331],[28.7108,47.2393,113.018],[28.7196,47.2361,111.2947],[28.7265,47.2378,107.8317],[28.7319,47.2447,205.1959],[28.7423,47.2534,182.7884],[28.759,47.2526,144.9769],[28.762,47.2492,157.4778],[28.7622,47.23,124.2737],[28.7637,47.2263,129.7896],[28.7819,47.2181,125.9749],[28.7846,47.2152,106.3939],[28.7893,47.2031,137.7455],[28.7925,47.2002,91.0093],[28.7977,47.1987,139.4928],[28.8033,47.1992,190.7966],[28.8068,47.2031,193.1416],[28.8083,47.2181,189.1226],[28.8018,47.2342,193.2306],[28.8018,47.2388,207.7669],[28.8102,47.2546,250.519],[28.8222,47.2665,256.1461],[28.8414,47.2668,267.5076],[28.8613,47.2604,244.0002],[28.8778,47.2616,225.1927],[28.8854,47.2638,207.9637],[28.9138,47.2796,222.3126],[28.9339,47.2946,184.2164],[28.948,47.3003,187.2966],[28.9551,47.3052,163.5041],[28.9736,47.306399999999996,50.3179],[28.9903,47.3101,31.0752],[28.9994,47.3155,99.4309],[29.0071,47.3177,113.7181],[29.0149,47.3241,131.1057],[29.0217,47.3331,169.3273],[29.012,47.3414,162.1384],[29.0063,47.3524,149.3676],[28.9987,47.3581,180.7661],[28.985,47.36,220.4347],[28.9819,47.3633,217.3444],[28.9832,47.3661,239.666],[28.9897,47.369,209.3208],[29.0036,47.3791,206.1459],[29.0071,47.3842,193.0248],[29.0086,47.4016,192.2475],[29.0122,47.4056,190.7608],[29.0206,47.405,179.0806],[29.0358,47.3928,238.2157],[29.0402,47.3909,238.4941],[29.0652,47.3918,150.9826],[29.068,47.3951,157.5601],[29.0678,47.4006,153.1287],[29.0617,47.4103,158.1161],[29.0623,47.4208,93.6222],[29.0709,47.4305,68.1975],[29.1,47.4541,48.7866],[29.1052,47.4656,48.7054],[29.1108,47.4699,26.5],[29.1074,47.4835,89.5751],[29.0992,47.4905,135.2187],[29.0828,47.4934,26.5],[29.0577,47.508,34.7974],[29.0419,47.5139,35.5482],[29.0291,47.5295,61.5999],[29.0138,47.5277,114.4549],[28.9944,47.5348,211.842],[28.9877,47.5401,233.1379],[28.9809,47.5521,217.3093],[28.9801,47.5626,204.4611],[28.9775,47.5688,185.9974],[28.9715,47.5733,207.4624],[28.945,47.5835,257.2756],[28.9151,47.6008,184.2562],[28.9065,47.6004,224.406],[28.9033,47.5978,216.3489],[28.8993,47.5824,265.9731],[28.895,47.5792,255.7469],[28.8856,47.5782,279.9149],[28.8646,47.5812,291.9865],[28.8584,47.581,288.0979],[28.8515,47.5778,250.6664],[28.8348,47.5452,221.0824],[28.7994,47.534,251.9813],[28.7866,47.5321,223.3131],[28.7676,47.5335,141.8573],[28.748,47.5506,64.7165],[28.7398,47.5531,81.7068],[28.7048,47.5544,209.4184],[28.6917,47.5449,159.8119],[28.6718,47.5377,170.3067],[28.6399,47.5197,116.4999],[28.5881,47.4984,37.7785],[28.5824,47.494,37.8954],[28.5796,47.4858,38.0649],[28.58,47.4737,46.8935],[28.5683,47.4602,114.3392],[28.5683,47.4572,110.6733],[28.5781,47.447,78.9544],[28.578,47.4362,89.8764],[28.5763,47.433,133.7151],[28.5235,47.4235,122.4672],[28.5201,47.4135,130.1579],[28.5273,47.4003,123.1344],[28.5275,47.378,87.7318],[28.5335,47.3725,70.8564],[28.5544,47.3649,226.6733],[28.587,47.3645,214.7383],[28.590699999999998,47.3623,212.6962],[28.5915,47.3542,232.3575],[28.5804,47.3414,239.5681],[28.5796,47.3319,174.1262]]]]}}