{"type": "Feature","bbox": [28.0845,46.6106,28.7356,47.0495],"geometry": {"type": "MultiPolygon","coordinates": [[[[28.7324,46.7861,169.731],[28.7295,46.7913,238.5814],[28.7265,46.8057,136.7244],[28.733,46.8209,248.6855],[28.7356,46.8233,229.6382],[28.7354,46.8356,123.6131],[28.7299,46.8526,171.9066],[28.7181,46.8657,230.4994],[28.7155,46.8706,175.2701],[28.7132,46.885,113.629],[28.7083,46.8876,125.6117],[28.6946,46.8859,136.5991],[28.6854,46.8784,242.3739],[28.672,46.8627,249.3037],[28.6681,46.8604,202.4801],[28.6609,46.8618,177.2155],[28.6576,46.8647,183.3048],[28.6554,46.8706,229.2701],[28.6521,46.9019,162.5481],[28.6482,46.9078,202.7416],[28.6299,46.9167,224.7895],[28.6155,46.9284,185.3118],[28.584,46.939,159.8057],[28.567,46.9593,239.312],[28.5438,46.975,227.1354],[28.5408,46.9792,183.7085],[28.5408,46.9838,199.8833],[28.5457,46.9907,142.4054],[28.5588,46.9995,131.1393],[28.5604,47.005,181.633],[28.5595,47.0083,185.1254],[28.5425,47.0126,135.4589],[28.5307,47.0178,168.8736],[28.5075,47.0315,172.1707],[28.4915,47.0469,153.7665],[28.4859,47.0495,158.2092],[28.4686,47.0407,297.5302],[28.4614,47.0322,322.3166],[28.4624,47.0292,331.4311],[28.4676,47.0273,351.7981],[28.4849,47.0237,330.7294],[28.4912,47.0171,271.0784],[28.4928,47.0119,298.1054],[28.4918,47.0086,314.0906],[28.449,46.9665,270.8095],[28.4399,46.9498,211.5573],[28.4175,46.931,117.3465],[28.4041,46.9307,131.0894],[28.4002,46.9353,83.6969],[28.4008,46.9686,173.8745],[28.4106,46.9751,182.3945],[28.4132,46.9794,196.6493],[28.4116,46.9879,261.4079],[28.4057,46.9912,244.9881],[28.3894,46.9915,184.2285],[28.3832,46.9941,194.1088],[28.3698,47.0081,231.0117],[28.3554,47.0425,298.5508],[28.3518,47.0444,273.4509],[28.3453,47.0444,285.2495],[28.3374,47.0425,325.2745],[28.3266,47.0264,159.9947],[28.3266,47.0222,133.0869],[28.3302,47.0166,116.5597],[28.343,47.0036,169.8335],[28.3453,46.999,164.3909],[28.3387,46.9866,152.3231],[28.3348,46.9823,216.4472],[28.3172,46.9732,205.9265],[28.2962,46.9732,252.9657],[28.2869,46.9753,304.4715],[28.2791,46.9737,211.8336],[28.2696,46.9668,127.8619],[28.2585,46.9557,172.6465],[28.2415,46.923,181.5731],[28.2281,46.9057,178.0523],[28.2,46.9044,121.5479],[28.1843,46.9054,41.8781],[28.166,46.9139,151.6548],[28.1539,46.9175,138.3708],[28.114,46.9186,76.0765],[28.1142,46.9219,58.018],[28.1055,46.9104,29.0853],[28.0963,46.9105,28.7627],[28.0953,46.9098,26.2501],[28.0973,46.9053,27.884],[28.0934,46.9054,32.8142],[28.089,46.9078,33.5797],[28.0845,46.9032,29.6608],[28.0859,46.9013,32.5778],[28.0904,46.9,42.6992],[28.0871,46.8955,25.7983],[28.0949,46.8966,28.6126],[28.0984,46.8923,24.8212],[28.105,46.8962,34.0598],[28.11,46.8894,25.1228],[28.1114,46.8918,24.0624],[28.1111,46.8956,25.5475],[28.1153,46.8927,28.1226],[28.114,46.8825,26.5066],[28.1203,46.8779,26.1546],[28.1152,46.8772,24.6623],[28.11,46.8734,26.4429],[28.1019,46.8734,34.9198],[28.0998,46.8704,33.3765],[28.1134,46.8698,24.508],[28.1087,46.8663,28.8949],[28.1162,46.8609,26.6382],[28.1247,46.8574,27.9878],[28.1245,46.8562,31.74],[28.1189,46.8553,24.698],[28.1188,46.8539,24.698],[28.1281,46.8531,25.762],[28.125,46.8474,28.0403],[28.121,46.8502,23.4744],[28.1177,46.8484,26.5377],[28.1144,46.8411,36.3338],[28.1113,46.8446,31.7947],[28.1091,46.843,33.1223],[28.1169,46.8369,33.9193],[28.1175,46.8284,28.9496],[28.1156,46.8225,29.1824],[28.1206,46.8189,25.0214],[28.1269,46.8231,31.1914],[28.125,46.8141,25.651],[28.132,46.8133,27.1657],[28.1293,46.8089,22.941],[28.1302,46.8067,27.948],[28.1369,46.8022,28.9535],[28.1446,46.8027,24.7308],[28.1493,46.7993,27.1964],[28.1537,46.8003,25.76],[28.1545,46.7986,27.5841],[28.1505,46.7945,28.5282],[28.1571,46.7917,22.8887],[28.1623,46.7846,22.1784],[28.164,46.7861,23.624],[28.1627,46.7915,21.8762],[28.1665,46.7915,26.0461],[28.168,46.7902,23.5093],[28.1671,46.7843,33.2095],[28.1741,46.7819,25.5682],[28.1776,46.779,25.6339],[28.1774,46.7775,24.7763],[28.1661,46.7785,29.5711],[28.162,46.7774,24.5919],[28.1666,46.7743,23.6391],[28.1741,46.7758,25.6968],[28.1694,46.7721,21.6395],[28.1691,46.7702,21.9987],[28.1729,46.7687,21.9092],[28.1793,46.771,26.1277],[28.1804,46.7666,23.569],[28.1792,46.7589,26.5285],[28.1863,46.7604,28.2294],[28.1833,46.7553,25.0614],[28.1771,46.7562,21.9807],[28.1748,46.7509,26.3937],[28.1785,46.7513,24.6147],[28.1793,46.7475,30.457],[28.1832,46.7479,23.0251],[28.1851,46.7465,25.249],[28.1853,46.7431,27.8154],[28.1801,46.7431,28.9515],[28.1817,46.7382,23.1325],[28.1851,46.7345,34.0437],[28.1872,46.7339,28.6995],[28.1934,46.7361,22.83],[28.1967,46.7329,23.1859],[28.1964,46.73,22.728],[28.1909,46.7291,21.814],[28.1878,46.7255,22.8705],[28.1885,46.7237,23.2202],[28.1941,46.7236,22.5083],[28.1957,46.7221,28.2393],[28.1903,46.7193,28.572],[28.1976,46.7157,20.9982],[28.1992,46.7167,21.4495],[28.1959,46.7204,20.952],[28.2036,46.7218,25.6424],[28.2029,46.7163,27.346],[28.2073,46.7152,21.298],[28.2105,46.7124,22.0494],[28.2113,46.7042,22.4592],[28.2037,46.7003,24.389],[28.2139,46.6977,23.3664],[28.2163,46.6944,20.4814],[28.2143,46.6882,22.5741],[28.2099,46.6878,20.848],[28.2093,46.6864,22.7045],[28.2159,46.6834,22.605],[28.217,46.6887,23.6385],[28.2225,46.6906,21.6322],[28.2265,46.6799,25.4546],[28.2253,46.6764,25.5906],[28.2299,46.674,26.3711],[28.2333,46.6751,22.2455],[28.2317,46.6818,22.044],[28.2377,46.6799,32.6961],[28.2367,46.6749,22.7687],[28.2414,46.6679,20.5971],[28.2404,46.6664,24.6592],[28.2366,46.6672,21.2969],[28.2395,46.6562,19.8748],[28.2389,46.6523,25.9896],[28.2475,46.6456,23.0118],[28.2415,46.646,21.6774],[28.2396,46.6439,23.5614],[28.2456,46.6398,20.5043],[28.2454,46.6343,24.9993],[28.2679,46.6366,99.335],[28.2835,46.6436,103.5247],[28.2993,46.6436,32.2741],[28.3045,46.6405,29.2683],[28.3061,46.6345,56.9236],[28.3061,46.6285,48.4206],[28.3012,46.6155,29.0629],[28.3025,46.6116,45.3623],[28.3053,46.6108,102.9868],[28.3168,46.6106,66.2456],[28.3207,46.6116,57.5324],[28.3269,46.6163,100.7011],[28.35,46.6153,158.7065],[28.3661,46.622,144.1472],[28.3856,46.6225,173.3823],[28.3872,46.6257,207.447],[28.3846,46.6327,161.0885],[28.3737,46.6483,202.5301],[28.3742,46.6516,206.9767],[28.3828,46.654,223.9869],[28.3859,46.6581,213.1033],[28.3838,46.668,160.156],[28.3794,46.675,227.1165],[28.3625,46.6854,189.3567],[28.3596,46.6906,165.0492],[28.3602,46.694,147.2804],[28.3625,46.6953,162.2493],[28.3687,46.6971,209.405],[28.3871,46.6978,249.7342],[28.3917,46.7017,247.7834],[28.393,46.7162,244.3051],[28.3954,46.7227,232.7932],[28.412,46.7238,195.6188],[28.4216,46.7217,167.546],[28.45,46.7079,142.6373],[28.4715,46.6934,86.4242],[28.478,46.6902,142.9481],[28.4838,46.6897,184.4901],[28.4871,46.6908,181.0794],[28.5009,46.704,132.2691],[28.5326,46.717,130.9111],[28.5706,46.7183,218.4139],[28.5773,46.7168,213.1998],[28.5791,46.7116,231.457],[28.5791,46.6895,223.709],[28.581,46.6752,196.4786],[28.5837,46.6685,178.0662],[28.6015,46.6691,201.9495],[28.6067,46.6711,216.8268],[28.6073,46.7365,207.742],[28.6162,46.7427,138.4398],[28.6361,46.7469,216.663],[28.6487,46.7469,120.1039],[28.6548,46.7485,108.4629],[28.6716,46.765,211.621],[28.6854,46.773,125.9085],[28.7099,46.7817,208.3241],[28.7324,46.7861,169.731]]]]}
,"properties": {"GID_1": "MDA.21_1","GID_0": "MDA","country": "Moldova","province": "Hîncesti","VARNAME_1": "NA","NL_NAME_1": "NA","TYPE_1": "Raion","ENGTYPE_1": "District","CC_1": "NA","HASC_1": "MD.HI","ISO_1": "NA","name": "Hîncesti.province","area_km2": 1257.2276,"hist_schema_id": "Elevation0-9000","hist_area_km2": {"25": 89.3979,"50": 43.1478,"75": 70.8183,"100": 102.3143,"125": 150.7063,"150": 173.0055,"175": 170.5943,"200": 149.3597,"225": 117.1321,"250": 85.6771,"275": 53.1613,"300": 32.0149,"325": 14.1992,"350": 4.6145,"375": 1.0845}}}