{"type":"Feature","properties":{"ISO3166-1-Alpha-3":"MDA","country":"Moldova","fill":"#F0F","id":"1639","name":"Hîncesti"},
"geometry":{"type": "Polygon","coordinates": [[[28.66092,46.86174,177.2155],[28.65451,46.87401,215.4009],[28.65389,46.88871,211.8158],[28.64945,46.90308,178.269],[28.63802,46.91241,174.947],[28.58816,46.94179,155.9532],[28.54227,46.97708,198.4218],[28.5493,46.99318,149.7634],[28.55229,47.01093,175.4066],[28.5186,47.02597,204.5545],[28.48682,47.04907,157.4124],[28.47194,47.04287,303.0837],[28.46145,47.03217,322.3166],[28.49116,47.01713,271.0784],[28.46357,46.97602,184.882],[28.42403,46.93657,136.5029],[28.39788,46.94571,112.2579],[28.40801,46.97367,156.3645],[28.39494,46.99326,248.9799],[28.34249,47.0423,269.9021],[28.32662,47.02219,133.0869],[28.33639,47.00863,120.8282],[28.34331,46.99377,111.3212],[28.3259,46.97677,298.4769],[28.30115,46.97284,205.3056],[28.25608,46.94127,163.4794],[28.22322,46.90538,187.321],[28.11397,46.91853,76.0765],[28.10499,46.92018,26.7516],[28.10545,46.91768,29.6943],[28.09687,46.90262,26.8961],[28.11356,46.89476,26.0181],[28.11434,46.88339,26.5066],[28.11309,46.87143,25.917],[28.12426,46.86164,24.5614],[28.12426,46.8542,28.8865],[28.12262,46.84227,25.6669],[28.12152,46.8343,24.1558],[28.1378,46.80624,34.2093],[28.17816,46.75865,20.8581],[28.1781,46.73984,19.2332],[28.23412,46.66242,21.0135],[28.24425,46.63537,24.9993],[28.24509,46.63145,24.5268],[28.2628,46.63659,96.5916],[28.29489,46.64201,86.5407],[28.30332,46.62018,34.7883],[28.32554,46.61261,76.0032],[28.37659,46.62108,167.8454],[28.3859,46.62914,183.757],[28.3784,46.6416,215.521],[28.37618,46.65214,216.4037],[28.37959,46.67139,187.1474],[28.35964,46.69064,165.0492],[28.37148,46.6971,242.6112],[28.38703,46.69777,249.7342],[28.39256,46.71139,228.8265],[28.3985,46.7235,244.299],[28.4355,46.71679,115.5522],[28.46868,46.69519,94.3694],[28.50408,46.70051,120.7514],[28.54279,46.71751,169.258],[28.57653,46.70803,194.4728],[28.58371,46.66852,178.0662],[28.60707,46.69948,181.2648],[28.62133,46.74381,181.3218],[28.64986,46.75255,109.5111],[28.67518,46.76707,196.7163],[28.70278,46.77944,214.8832],[28.73239,46.78609,169.731],[28.72737,46.80531,162.966],[28.73559,46.82329,229.6382],[28.72396,46.86497,238.627],[28.69456,46.88592,136.5991],[28.6789,46.87001,213.4486],[28.66092,46.86174,177.2155]]]}}