{"type": "Feature","id": "1626","bbox": [28.27042,45.50198,28.9162,46.50259],"geometry": {"type": "MultiPolygon","coordinates": [[[[28.50005,45.55458,96.1873],[28.49798,45.55645,100.0222],[28.49824,45.55872,95.0115],[28.50374,45.5661,95.9052],[28.50315,45.56626,95.9052],[28.50124,45.56678,95.2275],[28.42584,45.56719,36.4051],[28.352,45.589,95.943],[28.28048,45.58528,51.9436],[28.27148,45.53216,48.3562],[28.27045,45.52174,108.5263],[28.27042,45.52147,108.5263],[28.2705,45.52151,108.5263],[28.34192,45.51764,107.7332],[28.41685,45.50379,2.5],[28.48093,45.50198,90.3448],[28.50201,45.50875,91.1961],[28.50646,45.52058,100.4276],[28.50005,45.55458,96.1873]]],
[[[28.46,45.69664,97.9416],[28.48759,45.72194,113.2136],[28.50046,45.75408,129.8933],[28.49896,45.78333,119.7089],[28.51493,45.80268,114.7782],[28.48248,45.82154,132.1105],[28.44222,45.82612,166.1973],[28.41959,45.84935,157.4568],[28.39168,45.86552,160.866],[28.37995,45.83643,101.8812],[28.32585,45.79183,149.9678],[28.30197,45.76057,113.8655],[28.29665,45.71008,134.2865],[28.33753,45.67055,147.2877],[28.40088,45.66223,77.6401],[28.46,45.69664,97.9416]]],
[[[28.70464,46.29986,88.2311],[28.71585,46.32795,131.7329],[28.7437,46.34505,148.9307],[28.75848,46.37973,98.9765],[28.76339,46.4174,145.5544],[28.72122,46.4398,191.408],[28.63027,46.47877,103.6379],[28.58563,46.50259,163.0138],[28.57555,46.48595,150.311],[28.55979,46.47616,172.8151],[28.54568,46.47473,212.2312],[28.53932,46.46391,160.7664],[28.47214,46.42637,175.4323],[28.47716,46.40549,194.4433],[28.45897,46.38965,156.6194],[28.46563,46.37159,172.4117],[28.51049,46.34792,101.4461],[28.51292,46.32635,75.3392],[28.50165,46.29738,87.1323],[28.49328,46.26674,142.1691],[28.50186,46.23666,108.2625],[28.49819,46.20814,116.6142],[28.4724,46.18648,124.9564],[28.44336,46.16871,96.2565],[28.42941,46.1514,234.0923],[28.443,46.13543,222.8438],[28.44636,46.11657,235.472],[28.44057,46.09688,230.2758],[28.44713,46.08866,218.11],[28.45866,46.08794,218.7196],[28.497,46.08892,83.4808],[28.53452,46.08148,42.5741],[28.57126,46.06437,41.9663],[28.60071,46.043,85.6154],[28.58733,46.02639,23.1177],[28.59028,46.01208,21.6978],[28.59699,45.999,21.1108],[28.62221,45.96665,70.1622],[28.66304,45.96779,24.5788],[28.8283,46.00965,175.3883],[28.88752,46.07665,175.2738],[28.9162,46.16664,142.7056],[28.91057,46.19103,102.422],[28.9148,46.21832,154.3488],[28.884,46.23589,151.6434],[28.84566,46.22844,175.67],[28.82484,46.2347,127.9296],[28.80918,46.24896,139.3895],[28.81047,46.26134,124.6916],[28.81393,46.27283,185.967],[28.80375,46.29614,143.8129],[28.77554,46.30146,135.0352],[28.76112,46.32095,86.3191],[28.73807,46.32322,141.5849],[28.72613,46.29932,107.987],[28.70464,46.29986,88.2311]]]]}
,"properties": {"ISO3166-1-Alpha-3": "MDA","country": "Moldova","fill": "#00F","name": "Comrat","area_km2": 1712.862,"hist_schema_id": "Elevation0-9000","hist_area_km2": {"0": 7.188,"25": 54.026,"50": 181.771,"75": 285.019,"100": 395.41,"125": 351.502,"150": 269.989,"175": 134.053,"200": 26.379,"225": 7.511,"250": 0.015}}}