{"type": "Feature","bbox": [28.9722,46.7631,29.4784,47.1381],"geometry": {"type": "MultiPolygon","coordinates": [[[[29.2988,47.1378,21.4783],[29.2957,47.1381,8.0],[29.2839,47.1327,12.5296],[29.2698,47.1317,12.5979],[29.256,47.1206,93.6077],[29.2493,47.0853,96.7787],[29.2488,47.0377,165.0967],[29.2505,47.0094,162.0752],[29.2548,47.0003,140.6359],[29.2548,46.9899,91.9713],[29.2521,46.9805,143.2437],[29.2461,46.9765,129.903],[29.2239,46.9771,78.5439],[29.2104,46.9818,157.9453],[29.1926,46.996,166.3554],[29.1818,47.0003,143.8385],[29.1711,47.0007,164.0949],[29.1623,46.9983,165.2632],[29.1435,46.9896,166.0671],[29.134,46.9869,173.2464],[29.1152,46.9869,172.8187],[29.1058,46.9916,175.8841],[29.1051,47.0111,134.1718],[29.0974,47.0313,88.8806],[29.0831,47.0395,40.6648],[29.0726,47.0422,49.0125],[29.0565,47.0432,72.5007],[29.0424,47.0382,169.4834],[29.0279,47.0305,93.7664],[29.0181,47.0224,181.6165],[29.008,47.0076,143.5868],[29.0017,47.0063,142.9466],[28.9988,46.9983,62.7673],[28.9817,46.9869,125.0605],[28.9722,46.966,115.1247],[28.9741,46.9399,61.6618],[29.0008,46.9317,26.4497],[29.016,46.9307,25.6452],[29.0462,46.925,25.7397],[29.0587,46.9189,23.0594],[29.0617,46.9146,65.6828],[29.062,46.8987,75.0606],[29.0429,46.8816,126.5871],[29.0338,46.8762,109.5674],[29.0318,46.8718,146.9018],[29.0335,46.8661,193.6254],[29.0407,46.8592,182.6432],[29.0575,46.8575,123.9517],[29.0821,46.8579,212.0485],[29.088,46.852,183.0936],[29.0984,46.8515,166.4371],[29.1038,46.8452,142.3554],[29.1038,46.8421,146.2075],[29.1007,46.8362,137.7069],[29.0912,46.8269,189.1713],[29.0888,46.8235,214.3569],[29.089,46.8212,205.2484],[29.0961,46.8155,191.366],[29.122,46.803,178.8309],[29.148,46.8048,124.9995],[29.1638,46.8036,195.9633],[29.1677,46.8001,218.5445],[29.1693,46.7961,211.8817],[29.1707,46.7728,142.5194],[29.1748,46.7659,159.9554],[29.1806,46.7638,156.157],[29.1877,46.7646,157.677],[29.1934,46.7679,131.8189],[29.2011,46.7744,162.1985],[29.2088,46.7843,190.8564],[29.2141,46.7865,203.4839],[29.2196,46.7857,167.5473],[29.2251,46.7819,196.0371],[29.2383,46.7641,195.4838],[29.2477,46.7649,175.6797],[29.2582,46.7703,140.6674],[29.2708,46.7703,146.1507],[29.2771,46.7691,138.2993],[29.2876,46.7631,117.2678],[29.2993,46.7634,127.6532],[29.3022,46.7667,151.3633],[29.3022,46.7704,155.9651],[29.2876,46.792,53.403],[29.2879,46.7953,37.4391],[29.2913,46.798,35.9711],[29.2993,46.7983,92.4215],[29.3046,46.7961,96.3608],[29.3152,46.7871,164.0857],[29.3254,46.7852,155.3034],[29.3334,46.7944,93.4223],[29.3419,46.8113,126.8653],[29.3475,46.8164,120.3066],[29.3725,46.8189,89.9451],[29.3882,46.8223,95.2697],[29.404,46.8174,117.8621],[29.4281,46.8218,103.9302],[29.4218,46.8281,118.4458],[29.4113,46.8456,134.7844],[29.413,46.8556,160.4064],[29.42,46.8591,159.9243],[29.4384,46.8585,151.8405],[29.4393,46.8618,140.0693],[29.4469,46.8685,143.3178],[29.4446,46.8865,83.1235],[29.437,46.8935,49.8157],[29.4276,46.8976,68.8974],[29.4235,46.9035,48.1591],[29.4235,46.9122,7.0],[29.4551,46.9204,9.6605],[29.4703,46.9204,15.2535],[29.4766,46.9176,9.4688],[29.4766,46.9433,43.3677],[29.4784,46.9595,64.1806],[29.4647,46.9679,67.3261],[29.4563,46.9763,68.9114],[29.4425,46.9769,61.7246],[29.4147,46.9631,9.9877],[29.4039,46.9548,10.1342],[29.3911,46.95,24.5765],[29.383,46.95,32.8556],[29.3689,46.9539,32.7825],[29.3554,46.9604,40.1026],[29.3483,46.9664,47.4193],[29.3296,46.9708,42.0451],[29.3119,46.9848,12.3408],[29.3092,46.9923,8.1799],[29.3104,47.0022,11.6055],[29.3134,47.0052,11.1953],[29.3245,47.0079,10.023],[29.3559,47.0094,11.514],[29.3771,47.016,29.7609],[29.3792,47.0195,27.0314],[29.3792,47.0246,10.1985],[29.3777,47.0294,12.9531],[29.3703,47.0381,12.7773],[29.37,47.0432,13.3475],[29.3732,47.0486,25.9687],[29.3798,47.0519,7.5],[29.3894,47.0764,31.8262],[29.3887,47.084,48.0935],[29.3818,47.0918,60.7094],[29.3713,47.0981,68.5084],[29.3507,47.1172,75.4545],[29.3079,47.1265,29.5505],[29.2988,47.1378,21.4783]]]]}
,"properties": {"GID_1": "MDA.1_1","GID_0": "MDA","country": "Moldova","province": "AneniiNoi","VARNAME_1": "NA","NL_NAME_1": "NA","TYPE_1": "Raion","ENGTYPE_1": "District","CC_1": "NA","HASC_1": "MD.AN","ISO_1": "MD-AN","name": "Anenii_Noi.province","area_km2": 800.6552,"hist_schema_id": "Elevation0-9000","hist_area_km2": {"0": 39.6777,"25": 103.176,"50": 100.4176,"75": 140.0556,"100": 113.063,"125": 107.1297,"150": 127.2791,"175": 53.775,"200": 13.775,"225": 2.3065}}}