{"type": "Feature","id": "1629","bbox": [28.90814,46.76324,29.47616,47.13578],"geometry": {"type": "Polygon","coordinates": [[[29.38056,47.02886,13.0942],[29.38057,47.02888,13.0942],[29.38206,47.04178,17.3021],[29.37751,47.07077,12.4271],[29.37135,47.07869,12.1156],[29.37131,47.07873,12.1156],[29.36376,47.08403,13.3359],[29.32933,47.10821,13.9275],[29.32915,47.10834,13.9275],[29.3047,47.11645,13.0479],[29.29864,47.1199,14.0013],[29.29499,47.12198,11.0483],[29.29096,47.12873,14.4796],[29.29235,47.13542,19.1209],[29.29225,47.13578,19.1209],[29.26972,47.12891,12.0299],[29.25354,47.10519,101.2044],[29.24889,47.06452,80.5594],[29.24931,47.02349,132.4581],[29.25447,46.99475,119.9208],[29.24037,46.97631,101.5412],[29.20977,46.98618,118.429],[29.18182,47.00034,143.8385],[29.14828,46.99124,161.4927],[29.11521,46.9869,172.8187],[29.08678,47.03741,60.7136],[29.0566,47.04248,72.5007],[29.02792,47.03046,93.7664],[29.00808,47.00757,143.5868],[28.99154,47.00773,82.11],[28.97444,47.01036,179.8295],[28.93377,46.99659,120.187],[28.90814,46.96111,90.194],[28.92256,46.92894,106.7267],[28.95051,46.91977,70.3297],[28.95961,46.93217,37.0874],[28.97118,46.94111,89.7928],[28.99278,46.93714,81.1042],[29.01593,46.9307,25.6452],[29.0412,46.92677,23.3394],[29.06172,46.91455,65.6828],[29.05826,46.89551,71.7872],[29.04286,46.88158,126.5871],[29.04963,46.86009,147.451],[29.08802,46.85197,183.0936],[29.10172,46.8451,159.3014],[29.09552,46.83063,132.3067],[29.09335,46.82102,211.9509],[29.10502,46.81151,172.7247],[29.16776,46.80006,218.5445],[29.17282,46.77415,146.5535],[29.19339,46.7679,131.8189],[29.21706,46.78247,194.5415],[29.23835,46.76412,195.4838],[29.26522,46.76498,154.0987],[29.29085,46.76324,102.4921],[29.29519,46.78531,99.5818],[29.30191,46.79714,102.1969],[29.31452,46.78854,164.0857],[29.32858,46.78758,122.8227],[29.35597,46.8174,135.3218],[29.37736,46.82138,48.2992],[29.39896,46.81911,133.2639],[29.42444,46.82004,111.7677],[29.45043,46.82417,63.6532],[29.44103,46.85928,143.6199],[29.47162,46.8774,73.0485],[29.47616,46.88975,9.598],[29.47374,46.89915,9.4939],[29.47374,46.92323,6.5],[29.47064,46.94163,9.6646],[29.4617,46.95104,7.9662],[29.45975,46.95308,10.0018],[29.45947,46.95336,8.816],[29.43555,46.9575,10.2935],[29.4157,46.95264,31.3309],[29.39669,46.94277,10.0675],[29.37565,46.93517,9.0409],[29.34961,46.93701,27.8974],[29.33532,46.94388,12.2713],[29.33209,46.94543,28.6326],[29.31592,46.95874,7.0],[29.303,46.97496,7.0],[29.29499,46.99225,12.6136],[29.30889,46.98837,7.5],[29.32455,46.98837,46.0044],[29.34093,46.99202,12.7639],[29.36646,47.00297,33.1153],[29.37018,47.00282,25.7136],[29.3724,47.00426,25.481],[29.37722,47.01225,27.0612],[29.37751,47.01274,28.5403],[29.37356,47.01164,25.831],[29.37333,47.01158,25.831],[29.36899,47.01809,22.3786],[29.36387,47.0332,12.5026],[29.37007,47.0332,11.9845],[29.37949,47.02931,13.0942],[29.38056,47.02886,13.0942]]]}
,"properties": {"ISO3166-1-Alpha-3": "MDA","country": "Moldova","fill": "#F0F","name": "Anenii Noi","area_km2": 827.4725,"hist_schema_id": "Elevation0-9000","hist_area_km2": {"0": 32.1306,"25": 98.2126,"50": 104.5626,"75": 145.2531,"100": 125.3152,"125": 115.9316,"150": 133.9974,"175": 55.7846,"200": 13.9782,"225": 2.3065}}}