{"type":"Feature","properties":{"featurecla":"River","scalerank":6,"rivernum":231,"dissolve":"231River","name":"Dniester6","name_alt":null,"note":null,"min_zoom":5.0,"strokeweig":0.3,"name_en":"Dniester","min_label":6.0},
"geometry":{"type": "LineString","coordinates": [[28.458886718750023,48.07477448124412,43.0866],[28.458886718750023,48.07477448124412,43.0866],[28.458886718750023,48.07477448124412,43.0866],[28.458886718750023,48.07477448124412,43.0866],[28.458886718750023,48.07477448124412,43.0866],[28.479101562500006,48.06525299686912,105.6054],[28.489501953125,48.06574127811912,36.5],[28.4931640625,48.075067449994116,40.4989],[28.49365234375,48.09210846561912,42.5152],[28.50048828125,48.11310455936912,43.3305],[28.5171875,48.120868231244117,35.0],[28.5375,48.120135809369117,34.5],[28.555078125000023,48.115741278119117,41.7573],[28.5830078125,48.10199616093162,41.6322],[28.608496093750006,48.09589264530662,36.4444],[28.620214843750006,48.095233465619117,34.9219],[28.62939453125,48.09198639530662,35.9137],[28.632226562500023,48.08454010624412,33.0],[28.630859375,48.07099030155662,32.5],[28.627050781250006,48.063251043744117,98.6523],[28.617919921875,48.06391022343162,32.5],[28.606640625000011,48.06732819218162,40.688],[28.5966796875,48.06732819218162,34.499],[28.58935546875,48.062616278119116,36.3088],[28.5625,48.04059479374412,37.6152],[28.543212890625,48.029169012494116,30.5],[28.532470703125,48.020038153119117,35.1757],[28.52783203125,48.009295965619117,29.75],[28.5375,47.994012762494116,43.7502],[28.559326171875,47.99848053593162,36.8865],[28.610058593750011,48.02948639530662,39.8144],[28.61875,48.032831121869116,34.1612],[28.630859375,48.03375885624412,46.9829],[28.6357421875,48.03021881718162,46.3854],[28.642675781250006,48.023553778119116,41.2971],[28.651464843750006,48.019403387494116,65.0186],[28.681396484375,48.03095123905662,44.9992],[28.697851562500006,48.02265045780662,36.3647],[28.718994140625,47.99896881718162,44.6449],[28.753662109375,47.979120184369116,45.5744],[28.78466796875,47.982782293744116,40.271],[28.812890625000023,47.96539948124412,58.4165],[28.830175781250006,47.941034246869116,49.8711],[28.828857421875,47.91705963749412,46.5843],[28.86083984375,47.89972565311912,56.9321],[28.980224609375,47.875506903119117,26.5],[29.01806640625,47.853534246869117,29.3152],[29.017480468750023,47.826922918744117,31.6673],[28.980224609375,47.765643621869117,43.6485],[28.975488281250023,47.74347565311912,29.3939],[28.980224609375,47.68744537968162,28.6664],[28.987890625,47.660760809369116,95.6502],[28.990234375,47.656366278119116,89.0676],[28.995361328125,47.65094635624412,26.5],[28.993554687500023,47.638934637494117,27.2475],[28.989013671875,47.62714264530662,32.1841],[28.986425781250006,47.62225983280662,30.7063],[28.992919921875,47.604754949994117,28.316],[29.015625,47.582049871869117,36.7901],[29.0205078125,47.571063543744117,70.609],[29.021240234375,47.55023834843162,29.9614],[29.024658203125,47.533075262494116,41.3624],[29.032958984375,47.51862213749412,32.7916],[29.048583984375,47.50617096561912,26.5],[29.0927734375,47.48737213749412,26.5],[29.103759765625,47.47821686405662,26.5],[29.110449218750006,47.463983465619116,48.4055],[29.10703125,47.45416901249412,47.5247],[29.090039062500011,47.43732330936912,26.5],[29.082421875000023,47.40643952030662,26.5],[29.105078125,47.39081452030662,41.8406],[29.138916015625,47.37604401249412,26.5],[29.164648437500006,47.347919012494117,26.5],[29.15390625,47.33624909061912,27.0045],[29.139062500000023,47.329364324994117,26.5],[29.12255859375,47.32929108280662,26.5],[29.087988281250006,47.351581121869117,28.6478],[29.07861328125,47.347919012494117,40.6938],[29.079980468750023,47.332538153119117,26.5],[29.09326171875,47.310663153119116,26.5],[29.163183593750006,47.23078034061912,9.5],[29.178955078125,47.19708893436912,37.4269],[29.1630859375,47.191913153119117,22.2199],[29.144433593750023,47.16290924686912,9.0],[29.111914062500006,47.149920965619117,9.0],[29.094140625000023,47.134881903119116,10.9562],[29.078320312500011,47.11688873905662,17.3015],[29.069042968750011,47.10150787968162,12.6483],[29.084375,47.098895574994117,16.4427],[29.098535156250023,47.09223053593162,16.2751],[29.124267578125,47.07416412968162,12.1713],[29.129980468750006,47.081805731244117,8.5],[29.147851562500023,47.096551824994116,16.3587],[29.156005859375,47.11359284061912,17.0061],[29.166748046875,47.112665106244116,38.4297],[29.179101562500023,47.10956452030662,16.1249],[29.189160156250011,47.11176178593162,45.9228],[29.19375,47.12384674686912,34.6512],[29.187597656250006,47.13483307499412,11.3069],[29.1796875,47.14533112186912,15.5703],[29.178955078125,47.156122137494116,16.2416],[29.187597656250006,47.162860418744117,27.7309],[29.2001953125,47.16315338749412,11.0914],[29.212646484375,47.15814850468162,14.9051],[29.220458984375,47.14923737186912,14.2537],[29.226660156250006,47.14923737186912,8.4748],[29.236425781250006,47.16242096561912,11.8438],[29.24951171875,47.15851471561912,32.4825],[29.263916015625,47.14826080936912,14.6959],[29.277929687500006,47.142450262494116,13.7876],[29.290722656250011,47.14044830936912,8.0],[29.292236328125,47.13544342655662,19.1209],[29.290917968750023,47.12872955936912,13.8519],[29.294921875,47.12201569218162,11.0483],[29.3046875,47.116473699994117,13.0479],[29.3291015625,47.10834381718162,13.9275],[29.371191406250006,47.078729559369116,12.2158],[29.37744140625,47.07074616093162,12.4271],[29.381933593750006,47.04181549686912,17.3021],[29.380615234375,47.02887604374412,13.0942],[29.370019531250023,47.033221746869117,11.9845],[29.36376953125,47.033221746869117,12.5026],[29.369042968750023,47.018085028119117,22.3786],[29.373242187500011,47.01154205936912,16.8588],[29.37744140625,47.01276276249412,28.5403],[29.372460937500023,47.004266668744116,25.481],[29.3701171875,47.002801824994116,25.7136],[29.366455078125,47.00299713749412,33.1153],[29.3408203125,46.99201080936912,12.7639],[29.324609375000023,46.98834869999412,46.0044],[29.308837890625,46.98834869999412,7.5],[29.294921875,46.99225494999412,12.6136],[29.302978515625,46.974969793744116,7.0],[29.31591796875,46.958758856244117,7.0],[29.33203125,46.945428778119116,28.6326],[29.349609375,46.937030340619117,27.8974],[29.375585937500006,46.935174871869116,9.0409],[29.396679687500011,46.942743231244116,10.0675],[29.415625,46.952655340619117,31.3309],[29.435546875,46.95746491093162,10.2935],[29.45947265625,46.953387762494117,8.816],[29.470605468750023,46.94159577030662,9.6646],[29.4736328125,46.923211981244116,6.5],[29.4736328125,46.89911530155662,9.4939],[29.476171875,46.88971588749412,9.598],[29.48828125,46.872674871869116,12.8062],[29.49365234375,46.86188385624412,9.2238],[29.4951171875,46.849237371869116,9.9329],[29.493896484375,46.83808014530662,9.6935],[29.494531250000023,46.828631903119117,7.7561],[29.501074218750006,46.820917059369116,9.5679],[29.49765625,46.801629949994116,14.8099],[29.511621093750023,46.78717682499412,7.2013],[29.530371093750006,46.78278229374412,9.1204],[29.5419921875,46.79364655155662,16.8545],[29.548828125,46.79364655155662,11.313],[29.562255859375,46.78717682499412,30.2765],[29.576416015625,46.802752996869117,8.8493],[29.589746093750023,46.82391998905662,18.2986],[29.600341796875,46.834588934369116,16.7678],[29.602929687500023,46.835565496869116,30.5114],[29.605078125,46.83771393436912,24.8308],[29.6083984375,46.839862371869117,17.7407],[29.614355468750006,46.840838934369117,28.5674],[29.617773437500006,46.83795807499412,19.774],[29.618359375000011,46.83209869999412,12.5983],[29.6162109375,46.827167059369117,8.9981],[29.6109375,46.827167059369117,12.7821],[29.614355468750006,46.82343170780662,7.5061],[29.616308593750006,46.81891510624412,8.0204],[29.619873046875,46.81513092655662,12.2585],[29.627685546875,46.813495184369117,31.2234],[29.646679687500011,46.81464264530662,12.4831],[29.65185546875,46.813495184369117,27.2311],[29.664306640625,46.80121491093162,24.1828],[29.679296875,46.76434967655662,35.2082],[29.689355468750023,46.74860260624412,32.6038],[29.697656250000023,46.727899481244116,9.4777],[29.689160156250011,46.707294012494117,6.2143],[29.666113281250006,46.67633698124412,12.4662],[29.685302734375,46.677020574994117,5.4135],[29.6953125,46.675897528119116,4.733],[29.699609375000023,46.673211981244116,6.4],[29.703027343750023,46.664911199994116,11.1684],[29.711035156250006,46.664911199994116,4.5296],[29.720458984375,46.66828034061912,6.6149],[29.727636718750006,46.67011139530662,26.9524],[29.748632812500006,46.66571686405662,26.3779],[29.75830078125,46.658807684369116,27.3027],[29.775390625,46.629169012494117,4.0591],[29.76171875,46.62470123905662,21.8516],[29.747460937500023,46.61762116093162,22.8044],[29.735058593750011,46.60761139530662,6.2973],[29.727636718750006,46.594354559369116,28.059],[29.742431640625,46.59320709843162,10.7742],[29.775390625,46.58075592655662,5.4564],[29.786376953125,46.583026434369117,2.9766],[29.823144531250023,46.60126373905662,2.4665],[29.830078125,46.58856842655662,5.6213],[29.83984375,46.582538153119117,3.4224],[29.852294921875,46.58075592655662,6.1957],[29.8671875,46.58075592655662,4.6169],[29.870214843750006,46.57672760624412,3.5763],[29.89013671875,46.55841705936912,12.5561],[29.898193359375,46.55341217655662,2.1739]]}}