{"type": "Feature","bbox": [28.1079,46.0762,28.589,46.4554],"geometry": {"type": "MultiPolygon","coordinates": [[[[28.4586,46.088,218.7196],[28.4979,46.0894,83.4808],[28.5076,46.0879,71.761],[28.5102,46.0976,91.3425],[28.5083,46.1341,78.2116],[28.4891,46.1533,125.6221],[28.4729,46.1877,116.0466],[28.4899,46.2002,75.4214],[28.5064,46.1975,91.7264],[28.5352,46.1975,174.7462],[28.5487,46.1994,157.1838],[28.5583,46.2109,177.4825],[28.5621,46.2301,168.919],[28.5679,46.2455,128.2578],[28.5678,46.2743,144.4055],[28.5544,46.2839,176.9232],[28.5314,46.2916,144.8815],[28.5028,46.3059,102.9179],[28.5129,46.3263,75.3392],[28.5173,46.3397,105.1891],[28.5169,46.3449,76.6841],[28.5112,46.3484,94.9326],[28.5256,46.3511,118.5998],[28.5736,46.353,188.9911],[28.5871,46.3626,147.027],[28.589,46.3914,163.3988],[28.5871,46.3991,166.0078],[28.5813,46.4087,170.3019],[28.5294,46.4413,119.0804],[28.5213,46.4554,168.6564],[28.5156,46.455,186.2993],[28.4757,46.4322,194.3737],[28.4722,46.4264,175.4323],[28.4355,46.4352,138.1784],[28.4202,46.4339,162.5805],[28.4155,46.4322,161.3727],[28.4118,46.4124,90.3167],[28.4087,46.4043,100.7731],[28.4004,46.3963,151.5987],[28.3889,46.39,82.2468],[28.3834,46.3888,81.4513],[28.3625,46.3897,102.0101],[28.3503,46.3966,160.7183],[28.3336,46.402,192.6683],[28.3334,46.4083,185.1628],[28.3388,46.4143,161.4868],[28.3394,46.4184,155.1121],[28.3365,46.4229,90.4146],[28.3258,46.4236,43.5573],[28.3147,46.423,31.2075],[28.3082,46.4183,22.9307],[28.302,46.417,39.0251],[28.2801,46.4163,76.6719],[28.2733,46.4089,69.3492],[28.2702,46.4003,49.9692],[28.2598,46.3904,33.3461],[28.252,46.3888,19.0634],[28.2309,46.3909,32.4479],[28.2193,46.3962,16.3408],[28.2175,46.392,19.1502],[28.2252,46.3888,38.368],[28.2194,46.3835,33.1262],[28.2234,46.382,43.8833],[28.2158,46.3818,20.1949],[28.2118,46.3783,31.7781],[28.2104,46.373,32.0015],[28.2025,46.3746,17.726],[28.1992,46.3708,28.5292],[28.2089,46.3695,20.3291],[28.2054,46.367,20.581],[28.2078,46.3649,17.734],[28.2006,46.3653,16.8371],[28.2021,46.3597,18.147],[28.2076,46.3609,15.5041],[28.2099,46.3594,19.4058],[28.2009,46.3568,18.9147],[28.1943,46.3577,15.8964],[28.1954,46.3597,16.0717],[28.1942,46.3598,16.0717],[28.1924,46.3577,14.9951],[28.1928,46.3554,16.8437],[28.1979,46.3505,16.5966],[28.1965,46.3496,16.7323],[28.1869,46.3518,14.543],[28.1901,46.3537,15.8156],[28.1845,46.3526,18.2603],[28.1898,46.3451,15.5699],[28.1958,46.3429,14.3864],[28.1958,46.3475,18.237],[28.2013,46.3435,16.2664],[28.1968,46.3393,18.9337],[28.1988,46.3344,17.4624],[28.1944,46.3345,14.3119],[28.19,46.3376,14.3674],[28.186,46.334,17.1404],[28.1861,46.3327,17.8464],[28.1938,46.3304,15.176],[28.1881,46.3268,16.1255],[28.1951,46.3232,19.2644],[28.1995,46.3283,15.0423],[28.2014,46.3269,15.3925],[28.2032,46.3205,16.5298],[28.2096,46.3212,34.5348],[28.2106,46.3197,30.9897],[28.1972,46.3035,18.2387],[28.1893,46.3029,16.6699],[28.184,46.2999,14.9214],[28.1799,46.3002,15.3982],[28.1811,46.296,17.2116],[28.1875,46.295,15.0454],[28.1887,46.2934,15.2947],[28.187,46.2907,14.3754],[28.1808,46.2908,15.4998],[28.1821,46.2858,15.8613],[28.1746,46.2904,14.0692],[28.1785,46.2953,15.1378],[28.1736,46.2984,14.9826],[28.1706,46.2945,17.5148],[28.1711,46.2829,14.5985],[28.1644,46.2821,14.5096],[28.1664,46.2866,14.7018],[28.1582,46.2866,18.3613],[28.1556,46.292,13.6516],[28.1533,46.293,13.5857],[28.1505,46.2917,19.8042],[28.1547,46.2829,16.2318],[28.1539,46.2789,16.1758],[28.1458,46.2788,15.0052],[28.1483,46.2865,17.7467],[28.1442,46.2866,18.3625],[28.1397,46.2835,14.2823],[28.1383,46.2803,14.7694],[28.138,46.2696,13.2304],[28.1361,46.267,15.4429],[28.1376,46.2647,14.2733],[28.128,46.2622,13.8773],[28.1318,46.2567,19.044],[28.1432,46.2577,17.0677],[28.1477,46.2537,17.1291],[28.1478,46.2519,17.8938],[28.1399,46.2481,14.7985],[28.1353,46.2513,13.2508],[28.1243,46.2419,13.4349],[28.1204,46.2432,13.0265],[28.1207,46.239,13.3237],[28.1177,46.2413,13.5226],[28.1157,46.2462,13.2797],[28.1115,46.2431,12.2366],[28.1133,46.2318,12.3541],[28.1119,46.227,12.9759],[28.1079,46.2218,12.9245],[28.1135,46.2199,12.7783],[28.1124,46.2165,13.3394],[28.1094,46.2148,14.363],[28.1164,46.2113,13.3882],[28.1113,46.205,15.4655],[28.1157,46.2022,13.6938],[28.1194,46.2057,16.845],[28.1184,46.2117,16.652],[28.1217,46.2125,15.1725],[28.125,46.2111,12.6864],[28.1275,46.2078,12.3386],[28.1272,46.204,13.0051],[28.1248,46.1997,12.741],[28.1192,46.1959,12.703],[28.1196,46.1925,12.8463],[28.1219,46.1917,14.0501],[28.136,46.1957,13.8444],[28.1392,46.1921,13.0416],[28.1427,46.1923,16.7845],[28.1429,46.1857,12.143],[28.1412,46.1832,14.4718],[28.1332,46.1862,13.1138],[28.1327,46.1835,12.7839],[28.135,46.1815,14.1594],[28.1456,46.1795,14.7312],[28.1425,46.1762,15.3042],[28.1316,46.1793,12.0527],[28.1296,46.178,12.2268],[28.1312,46.1748,13.4797],[28.14,46.1705,16.1484],[28.1443,46.1645,12.9685],[28.1379,46.1625,12.3533],[28.1336,46.1544,13.0697],[28.128,46.1554,15.513],[28.1252,46.1497,13.7742],[28.1254,46.1475,17.0797],[28.1307,46.1445,11.6051],[28.1265,46.1378,17.4855],[28.1296,46.1321,17.4923],[28.1358,46.1304,13.5882],[28.1308,46.1256,15.9168],[28.1259,46.126,14.8517],[28.1269,46.1207,18.6724],[28.1258,46.1119,18.662],[28.12,46.1128,11.9428],[28.1175,46.1102,18.7874],[28.1176,46.1079,17.8795],[28.1241,46.1056,18.2282],[28.1239,46.1045,16.7516],[28.1184,46.1023,12.8865],[28.1115,46.1039,12.0786],[28.1099,46.1015,19.4311],[28.1346,46.0913,8.3876],[28.173,46.0888,12.0323],[28.2153,46.0888,136.175],[28.2247,46.0837,107.6008],[28.2329,46.0762,73.4974],[28.2399,46.0762,146.9845],[28.2474,46.08,176.8751],[28.2594,46.0932,111.6749],[28.2664,46.1058,177.078],[28.2739,46.1128,209.7663],[28.2903,46.114,226.8585],[28.3029,46.1109,251.3874],[28.3244,46.0882,141.5175],[28.3805,46.0787,220.8392],[28.4406,46.0969,230.2758],[28.4406,46.0933,227.7512],[28.4467,46.0881,218.11],[28.4586,46.088,218.7196]]]]}
,"properties": {"GID_1": "MDA.8_1","GID_0": "MDA","country": "Moldova","province": "Cantemir","VARNAME_1": "NA","NL_NAME_1": "NA","TYPE_1": "Raion","ENGTYPE_1": "District","CC_1": "NA","HASC_1": "MD.CN","ISO_1": "MD-CT","name": "Cantemir.province","area_km2": 1053.5045,"hist_schema_id": "Elevation0-9000","hist_area_km2": {"0": 44.7781,"25": 55.8476,"50": 60.3122,"75": 97.2186,"100": 137.2491,"125": 157.8058,"150": 151.2146,"175": 125.2774,"200": 80.8412,"225": 66.2487,"250": 46.8008,"275": 18.6001,"300": 9.8171,"325": 1.4933}}}