{"type":"Feature","properties":{"ISO3166-1-Alpha-3":"MDA","country":"Moldova","fill":"#FF0","id":"1631","name":"Cantemir"},
"geometry":{"type": "Polygon","coordinates": [[[28.47214,46.42637,175.4323],[28.45085,46.43267,109.3463],[28.42915,46.4351,146.3918],[28.41489,46.42657,146.5742],[28.41024,46.4083,127.1012],[28.37649,46.38864,79.295],[28.3383,46.3997,164.2513],[28.33716,46.41071,166.5305],[28.33794,46.42063,93.3235],[28.32047,46.42368,24.19],[28.30202,46.41699,39.0251],[28.28089,46.41205,69.08],[28.2674,46.39696,39.0736],[28.24895,46.38869,17.1732],[28.22937,46.39334,22.4911],[28.2268,46.39555,16.2897],[28.21955,46.39335,36.4273],[28.21293,46.38869,16.2771],[28.20715,46.35815,15.6395],[28.20239,46.35392,18.1108],[28.19035,46.35107,15.7006],[28.18792,46.34379,16.8656],[28.19195,46.3235,15.8823],[28.19288,46.31123,13.7296],[28.19133,46.30777,13.6819],[28.17779,46.28705,13.6835],[28.16575,46.27883,14.6655],[28.1563,46.27537,13.6589],[28.14493,46.27294,14.1985],[28.13521,46.26932,14.6348],[28.13108,46.2624,13.9898],[28.13449,46.24534,12.9939],[28.13211,46.23992,12.5207],[28.12085,46.23785,14.4461],[28.10896,46.23413,13.0019],[28.11098,46.2256,11.8865],[28.12932,46.20467,11.7732],[28.13563,46.19883,9.9503],[28.14152,46.19196,14.7313],[28.14472,46.18323,11.9953],[28.13325,46.15997,12.1099],[28.12736,46.13532,13.1139],[28.11051,46.10149,19.4311],[28.15454,46.09057,8.9968],[28.20172,46.08879,111.2175],[28.23986,46.07618,146.9845],[28.25521,46.08913,141.3012],[28.26637,46.10582,177.078],[28.30611,46.10633,242.0686],[28.34517,46.08564,231.581],[28.39344,46.08486,110.8319],[28.44057,46.09688,230.2758],[28.44636,46.11657,235.472],[28.443,46.13543,222.8438],[28.42941,46.1514,234.0923],[28.44336,46.16871,96.2565],[28.4724,46.18648,124.9564],[28.49819,46.20814,116.6142],[28.50186,46.23666,108.2625],[28.49328,46.26674,142.1691],[28.50165,46.29738,87.1323],[28.51292,46.32635,75.3392],[28.51049,46.34792,101.4461],[28.46563,46.37159,172.4117],[28.45897,46.38965,156.6194],[28.47716,46.40549,194.4433],[28.47214,46.42637,175.4323]]]}}