{"type":"Feature","properties":{"GID_1":"MDA.20_1","GID_0":"MDA","country":"Moldova","province":"Glodeni","VARNAME_1":"NA","NL_NAME_1":"NA","TYPE_1":"Raion","ENGTYPE_1":"District","CC_1":"NA","HASC_1":"MD.GL","ISO_1":"MD-GL","name":"Glodeni.province"},
"geometry":{"type": "MultiPolygon","coordinates": [[[[27.8484,47.7846,154.3236],[27.8345,47.7874,185.8557],[27.8257,47.7923,143.7889],[27.8088,47.7967,100.5],[27.8004,47.8012,105.0479],[27.7827,47.8251,173.4716],[27.7747,47.8326,187.2088],[27.7534,47.8397,142.5581],[27.7251,47.8375,144.7966],[27.7104,47.8313,116.093],[27.7073,47.826,125.5427],[27.702,47.8224,166.111],[27.6763,47.8211,186.9569],[27.6457,47.83,183.5361],[27.6165,47.8455,199.993],[27.5846,47.8579,197.1283],[27.5527,47.8632,157.5453],[27.5212,47.8636,153.6309],[27.5021,47.8667,165.8691],[27.4875,47.8667,197.0984],[27.4795,47.8623,197.3149],[27.4625,47.8435,171.8742],[27.451,47.8355,173.7348],[27.4354,47.8382,154.9075],[27.4102,47.8492,213.3696],[27.4035,47.8479,193.3939],[27.3911,47.8422,118.1886],[27.376,47.8328,135.9018],[27.3619,47.8204,116.9044],[27.3503,47.8142,110.3792],[27.345,47.8067,122.1398],[27.3428,47.7823,89.6885],[27.3384,47.7766,120.5857],[27.3291,47.769,81.4829],[27.3215,47.7668,94.3477],[27.2992,47.7541,83.2202],[27.3001,47.76,103.1253],[27.2856,47.7592,72.4249],[27.2873,47.756,70.5501],[27.2818,47.7532,64.7743],[27.2817,47.7504,65.1214],[27.2882,47.7487,60.1207],[27.2961,47.7534,59.0673],[27.2985,47.7523,72.7363],[27.2998,47.7489,65.7419],[27.2968,47.7465,58.9037],[27.2881,47.7452,65.2751],[27.2824,47.737,68.6486],[27.2862,47.7311,64.1881],[27.2961,47.7287,61.9529],[27.2959,47.7245,63.3656],[27.2922,47.723,66.1904],[27.2876,47.7236,66.8484],[27.2788,47.729,64.7333],[27.2703,47.7267,83.2815],[27.2689,47.7279,74.3719],[27.2695,47.7317,65.5037],[27.2671,47.733,62.2717],[27.2618,47.731,60.514],[27.2566,47.7219,73.5411],[27.2516,47.7197,62.565],[27.2547,47.7169,61.6274],[27.2681,47.7127,61.7716],[27.2705,47.7085,73.3193],[27.2695,47.7041,61.4321],[27.2728,47.6999,55.6388],[27.2769,47.6995,56.2045],[27.282,47.7018,57.6777],[27.2842,47.701,71.6309],[27.2801,47.6928,59.1606],[27.275,47.6911,60.5221],[27.2752,47.6895,78.1624],[27.2838,47.6835,63.317],[27.2981,47.6806,63.2715],[27.2971,47.6764,69.6804],[27.2983,47.6732,61.8753],[27.2956,47.6685,71.9809],[27.2964,47.6626,58.2803],[27.3012,47.6616,57.9283],[27.3062,47.6626,61.9677],[27.3089,47.6613,62.2355],[27.3164,47.65,71.8652],[27.3162,47.6436,69.6282],[27.3242,47.6389,58.5272],[27.3334,47.6289,69.1922],[27.3631,47.6196,67.7809],[27.366,47.6111,69.3537],[27.3703,47.6051,63.8558],[27.3763,47.6025,66.138],[27.3726,47.6008,55.2015],[27.3747,47.5971,63.1855],[27.4059,47.5832,54.0878],[27.425,47.5845,55.5869],[27.4294,47.5833,64.4526],[27.4302,47.5808,67.9341],[27.428,47.5773,58.5675],[27.4332,47.5823,66.9306],[27.437,47.5824,64.8685],[27.4847,47.608,97.251],[27.5098,47.6199,106.9691],[27.5187,47.6221,182.2728],[27.5355,47.6317,150.4791],[27.5497,47.6374,148.665],[27.5579,47.6385,123.909],[27.606,47.6378,136.1482],[27.6184,47.6388,121.5679],[27.6377,47.6449,91.9873],[27.642,47.6502,93.8663],[27.6457,47.6679,129.1687],[27.6699,47.681,153.1044],[27.6767,47.6878,180.6743],[27.6792,47.696,118.1295],[27.7041,47.7209,169.0569],[27.7137,47.7209,146.4826],[27.733,47.7141,188.4425],[27.7379,47.7141,184.0876],[27.7597,47.7245,161.448],[27.7743,47.738,197.7602],[27.7857,47.7462,147.9792],[27.791,47.7558,196.5989],[27.7924,47.7658,156.0699],[27.802,47.7793,162.7023],[27.8085,47.7786,184.4901],[27.8191,47.7654,130.0462],[27.8311,47.757,173.34],[27.8602,47.7507,132.8153],[27.8607,47.7604,155.4117],[27.8567,47.7759,176.8776],[27.8505,47.7839,160.2011],[27.8484,47.7846,154.3236]]]]}}