{"type": "Feature","id": "1621","bbox": [27.27201,47.57813,27.86014,47.86736],"geometry": {"type": "Polygon","coordinates": [[[27.6648,47.82406,158.7492],[27.57334,47.85974,167.9803],[27.52755,47.86736,185.8364],[27.48352,47.86452,198.8341],[27.45541,47.84282,174.0641],[27.42167,47.84463,211.6801],[27.3812,47.83796,113.7634],[27.34772,47.81047,110.3018],[27.34245,47.79101,124.1387],[27.33371,47.77279,91.8599],[27.31712,47.76256,105.5643],[27.29914,47.75409,83.2202],[27.28811,47.75068,75.5084],[27.29113,47.74241,63.8124],[27.28958,47.73169,70.9907],[27.29506,47.72443,63.3656],[27.29506,47.71817,65.3322],[27.27201,47.71497,65.6746],[27.2811,47.69301,66.1198],[27.30405,47.66655,73.0552],[27.36916,47.60831,71.3222],[27.39707,47.58909,59.6546],[27.42838,47.58102,61.8029],[27.4294,47.57813,62.9819],[27.49189,47.61611,111.2945],[27.56197,47.63828,103.1995],[27.60093,47.63627,137.2326],[27.63767,47.6449,91.9873],[27.65137,47.67141,113.4515],[27.66449,47.679,130.2333],[27.67669,47.68779,180.6743],[27.7016,47.71822,198.679],[27.717,47.71957,169.0507],[27.73296,47.71414,188.4425],[27.76221,47.72541,151.3699],[27.78567,47.74621,147.9792],[27.7956,47.77021,151.7881],[27.81239,47.77362,175.4545],[27.83363,47.75729,148.3613],[27.86014,47.75073,132.8153],[27.85859,47.76941,191.4752],[27.84841,47.78458,154.3236],[27.8158,47.79465,107.2734],[27.76268,47.83636,205.7654],[27.72816,47.83791,137.1424],[27.69886,47.82636,131.1068],[27.6648,47.82406,158.7492]]]}
,"properties": {"ISO3166-1-Alpha-3": "MDA","country": "Moldova","fill": "#00F","name": "Glodeni","area_km2": 793.2505,"hist_schema_id": "Elevation0-9000","hist_area_km2": {"50": 49.7098,"75": 65.5489,"100": 82.476,"125": 127.6357,"150": 173.0763,"175": 180.4334,"200": 92.3136,"225": 18.8779,"250": 2.4661,"275": 0.7127}}}