{"type":"Feature","properties":{"ISO3166-1-Alpha-3":"MDA","country":"Moldova","fill":"#F00","id":"1648","name":"Teleneşti"},
"geometry":{"type": "Polygon","coordinates": [[[28.63704,47.71704,262.4501],[28.58289,47.73104,125.3823],[28.5341,47.75559,228.3274],[28.50496,47.72032,133.4285],[28.47555,47.69135,95.2432],[28.45845,47.69773,102.9995],[28.44119,47.70634,117.7207],[28.42129,47.69988,114.3423],[28.40533,47.68794,182.23],[28.4076,47.65802,109.8232],[28.41669,47.6295,240.9563],[28.41266,47.61035,166.347],[28.3892,47.60764,231.3118],[28.37504,47.60164,104.0636],[28.36383,47.58996,78.5874],[28.36001,47.57857,65.5357],[28.3552,47.56862,54.0588],[28.32052,47.56361,207.7484],[28.22503,47.57128,242.7418],[28.17092,47.55379,93.9348],[28.16059,47.53369,139.7656],[28.17113,47.5126,135.2798],[28.16875,47.48255,73.0079],[28.15134,47.45796,204.5862],[28.18746,47.43679,164.455],[28.2258,47.41935,87.2019],[28.26513,47.43385,141.7869],[28.30678,47.41447,172.9297],[28.3227,47.41215,126.4987],[28.33887,47.41246,129.286],[28.36616,47.4201,169.9283],[28.37535,47.41979,137.9017],[28.38615,47.41525,232.7008],[28.42114,47.42145,193.0343],[28.45643,47.4376,188.2343],[28.49245,47.44049,104.7102],[28.52072,47.4176,105.6204],[28.5772,47.43462,108.7948],[28.57772,47.44615,78.9544],[28.57028,47.45542,81.7542],[28.57162,47.46473,121.4508],[28.57999,47.47374,46.8935],[28.58004,47.48398,37.4447],[28.58242,47.49405,37.8954],[28.60278,47.50563,45.7123],[28.62536,47.51384,73.9518],[28.70929,47.55462,234.4391],[28.71084,47.58226,109.4933],[28.71849,47.60459,172.888],[28.68996,47.62009,225.052],[28.68061,47.63544,142.3713],[28.66733,47.64531,98.0691],[28.6112,47.6666,258.7936],[28.63704,47.71704,262.4501]]]}}