{"type": "Feature","bbox": [28.1514,47.4115,28.7191,47.7556],"geometry": {"type": "MultiPolygon","coordinates": [[[[28.5207,47.4176,105.6204],[28.5235,47.4235,122.4672],[28.5307,47.4255,152.7174],[28.5434,47.4263,158.9805],[28.5763,47.433,133.7151],[28.578,47.4362,89.8764],[28.5781,47.447,78.9544],[28.5683,47.4572,110.6733],[28.5683,47.4602,114.3392],[28.58,47.4737,46.8935],[28.5804,47.491,37.4623],[28.5881,47.4984,37.7785],[28.6399,47.5197,116.4999],[28.6718,47.5377,170.3067],[28.6917,47.5449,159.8119],[28.7048,47.5544,209.4184],[28.7093,47.5546,234.4391],[28.7036,47.5714,202.3844],[28.7063,47.5775,116.4094],[28.7077,47.5869,116.9592],[28.7191,47.5999,163.3746],[28.7185,47.6046,172.888],[28.7141,47.6074,157.1328],[28.7069,47.6082,144.1986],[28.6972,47.6123,195.9384],[28.682,47.6315,197.2437],[28.6788,47.6399,147.9775],[28.6705,47.6452,94.5395],[28.6353,47.6463,115.7137],[28.6253,47.6493,155.4693],[28.6123,47.6579,190.9298],[28.6093,47.6618,235.0189],[28.6065,47.6667,263.082],[28.6062,47.6889,274.6833],[28.6109,47.6969,291.3657],[28.637,47.717,262.4501],[28.628,47.7189,275.0247],[28.5934,47.7312,155.7035],[28.5702,47.7361,161.7566],[28.5347,47.7537,227.6444],[28.5341,47.7556,228.3274],[28.5086,47.7313,173.7576],[28.4876,47.7077,58.9809],[28.4789,47.6927,95.371],[28.4706,47.6917,93.7762],[28.4502,47.7043,111.5726],[28.4412,47.7063,117.7207],[28.4362,47.706,126.4365],[28.4232,47.6987,125.821],[28.4072,47.693,174.8696],[28.4052,47.6877,182.23],[28.4052,47.664,100.1252],[28.4069,47.654,80.8411],[28.4122,47.6443,142.1275],[28.4182,47.626,221.5085],[28.4182,47.6126,161.1887],[28.4142,47.6076,183.4768],[28.3782,47.6063,152.9989],[28.3592,47.5826,80.8714],[28.3588,47.5746,51.9934],[28.3552,47.5686,54.0588],[28.3498,47.5666,99.6544],[28.3395,47.566,153.7487],[28.2793,47.5658,202.5606],[28.2433,47.5671,185.0775],[28.2226,47.5738,178.08],[28.2133,47.5731,201.9067],[28.2016,47.5715,128.6684],[28.1709,47.5538,93.9348],[28.1613,47.5471,65.5521],[28.1586,47.5408,141.6918],[28.1584,47.5279,149.808],[28.1711,47.5126,135.2798],[28.1704,47.4869,70.5789],[28.1624,47.4696,96.9939],[28.1514,47.458,204.5862],[28.1611,47.4502,248.0866],[28.2258,47.4194,87.2019],[28.235,47.4288,153.4636],[28.2511,47.4335,234.2295],[28.2587,47.4392,123.5629],[28.262,47.4393,115.4373],[28.2796,47.4297,144.6405],[28.2942,47.4175,157.8072],[28.3068,47.4145,172.9297],[28.3506,47.4115,71.9961],[28.3593,47.4146,102.6522],[28.3689,47.4237,171.619],[28.3725,47.4249,159.1672],[28.3841,47.4162,213.8656],[28.3927,47.4136,166.657],[28.4024,47.4207,270.5139],[28.4147,47.4238,171.3816],[28.4294,47.4244,111.0314],[28.4392,47.4266,91.0283],[28.4521,47.4372,137.9106],[28.4737,47.4397,208.6165],[28.488,47.4452,145.929],[28.4943,47.4451,119.5255],[28.4965,47.4433,98.6714],[28.5024,47.4338,176.667],[28.5207,47.4176,105.6204]]]]}
,"properties": {"GID_1": "MDA.35_1","GID_0": "MDA","country": "Moldova","province": "Teleneşti","VARNAME_1": "NA","NL_NAME_1": "NA","TYPE_1": "Raion","ENGTYPE_1": "District","CC_1": "NA","HASC_1": "MD.TE","ISO_1": "NA","name": "Teleneşti.province","area_km2": 863.6179,"hist_schema_id": "Elevation0-9000","hist_area_km2": {"25": 2.1491,"50": 141.5187,"75": 129.2684,"100": 143.4275,"125": 125.134,"150": 95.7154,"175": 73.8934,"200": 58.9471,"225": 40.9952,"250": 31.2518,"275": 15.6964,"300": 5.2626,"325": 0.3583}}}