{"type": "Feature","bbox": [28.6571,46.8462,29.1295,47.1535],"geometry": {"type": "MultiPolygon","coordinates": [[[[29.0017,47.0063,142.9466],[28.9882,47.0099,74.0573],[28.9744,47.0103,179.8295],[28.9765,47.0214,87.7155],[28.9828,47.04,169.0083],[28.9835,47.0498,114.7232],[28.9874,47.0542,129.1164],[29.0332,47.058,87.5325],[29.0867,47.0561,149.0947],[29.1115,47.0599,131.2229],[29.1287,47.0771,12.351],[29.1295,47.0821,8.5],[29.1226,47.0853,15.7873],[29.1226,47.0948,20.722],[29.0946,47.0985,15.7719],[29.0806,47.1066,16.7577],[29.074,47.1162,16.7132],[29.0746,47.1207,30.321],[29.0711,47.1212,30.3102],[29.0638,47.1172,20.2347],[29.0218,47.1058,72.557],[28.9836,47.1039,173.1544],[28.9244,47.1039,154.8926],[28.9168,47.123,101.7602],[28.9129,47.1402,103.8664],[28.8996,47.1516,108.3484],[28.8748,47.1535,129.2505],[28.848,47.1306,131.4486],[28.827,47.1325,120.5068],[28.8041,47.144,149.2484],[28.7763,47.1495,184.2695],[28.7766,47.1528,131.2577],[28.764,47.1459,224.3718],[28.7621,47.1306,232.7638],[28.7506,47.1191,146.1733],[28.7119,47.1172,111.0151],[28.719,47.1114,85.9612],[28.6952,47.1039,104.5103],[28.6731,47.1012,129.9903],[28.6714,47.1029,137.8704],[28.6628,47.0981,129.5106],[28.6571,47.081,248.4236],[28.6571,47.0599,248.49],[28.6723,47.0389,197.6816],[28.6723,47.0307,155.4493],[28.6974,47.0192,193.8635],[28.7256,47.0104,163.7407],[28.7555,46.9774,90.5],[28.7802,46.9717,143.8554],[28.8106,46.9679,107.5967],[28.8315,46.9565,93.4198],[28.8448,46.9412,66.5953],[28.8467,46.9165,61.1759],[28.8619,46.9032,56.9996],[28.9152,46.8918,148.5341],[28.9589,46.8728,138.0006],[28.9893,46.8538,206.0282],[29.0216,46.8462,170.6064],[29.0455,46.8587,167.6065],[29.0407,46.8592,182.6432],[29.0335,46.8661,193.6254],[29.0318,46.8718,146.9018],[29.0338,46.8762,109.5674],[29.0429,46.8816,126.5871],[29.062,46.8987,75.0606],[29.0617,46.9146,65.6828],[29.0587,46.9189,23.0594],[29.0462,46.925,25.7397],[29.016,46.9307,25.6452],[29.0008,46.9317,26.4497],[28.9741,46.9399,61.6618],[28.9722,46.966,115.1247],[28.9817,46.9869,125.0605],[28.9988,46.9983,62.7673],[29.0017,47.0063,142.9466]]]]}
,"properties": {"GID_1": "MDA.10_1","GID_0": "MDA","country": "Moldova","province": "Chişinău","VARNAME_1": "NA","NL_NAME_1": "NA","TYPE_1": "Municipiu","ENGTYPE_1": "City","CC_1": "NA","HASC_1": "MD.CV","ISO_1": "NA","name": "Chişinău.province","area_km2": 583.6983,"hist_schema_id": "Elevation0-9000","hist_area_km2": {"0": 1.6023,"25": 28.6722,"50": 58.3826,"75": 72.3323,"100": 97.3586,"125": 98.9414,"150": 90.7043,"175": 74.7971,"200": 36.8428,"225": 16.2791,"250": 6.0958,"275": 1.3144,"300": 0.3755}}}