{"type": "Feature","id": "1627","bbox": [28.66185,46.96111,28.98209,47.13924],"geometry": {"type": "Polygon","coordinates": [[[28.79853,47.08069,124.1913],[28.75275,47.08674,143.5424],[28.70939,47.1201,108.3473],[28.66185,47.13924,59.8087],[28.66262,47.11007,153.6261],[28.73554,47.06343,85.5596],[28.77182,47.0532,80.0445],[28.78752,47.03553,117.2908],[28.7899,47.00912,110.9556],[28.78034,46.99902,222.9831],[28.7776,46.98811,198.4653],[28.79326,46.98375,153.3306],[28.81052,46.98385,178.9422],[28.90814,46.96111,90.194],[28.93377,46.99659,120.187],[28.97444,47.01036,179.8295],[28.98209,47.04323,161.0771],[28.96736,47.05945,93.0067],[28.95987,47.04044,156.6666],[28.94927,47.0269,147.2387],[28.9039,47.07054,165.6438],[28.86747,47.07232,139.6541],[28.84251,47.09529,98.4837],[28.79853,47.08069,124.1913]]]}
,"properties": {"ISO3166-1-Alpha-3": "MDA","country": "Moldova","fill": "#FF0","name": "Chişinău","area_km2": 175.6593,"hist_schema_id": "Elevation0-9000","hist_area_km2": {"25": 3.3117,"50": 37.7474,"75": 31.6,"100": 34.461,"125": 29.0835,"150": 19.3631,"175": 12.7043,"200": 5.7108,"225": 1.6774}}}