{"type":"Feature","properties":{"ISO3166-1-Alpha-3":"MDA","country":"Moldova","fill":"#F00","id":"1637","name":"Grigoriopol"},
"geometry":{"type": "Polygon","coordinates": [[[29.52014,47.05992,93.1404],[29.51146,47.06602,94.1201],[29.48087,47.10524,116.1438],[29.4787,47.10847,109.8084],[29.47787,47.11154,98.8259],[29.47859,47.11464,78.6332],[29.48087,47.11749,87.2998],[29.50867,47.1194,162.575],[29.53037,47.12369,107.3135],[29.54484,47.13557,123.6725],[29.55063,47.16017,191.8808],[29.5404,47.21255,210.3733],[29.54402,47.23425,204.1201],[29.56872,47.24314,219.1474],[29.58019,47.26045,211.8099],[29.57926,47.2836,186.4223],[29.57006,47.30678,189.5269],[29.55657,47.32404,162.862],[29.53988,47.33422,145.326],[29.52097,47.33892,156.1781],[29.50107,47.33982,208.2169],[29.48087,47.33827,123.3594],[29.47063,47.32275,176.6966],[29.46609,47.30745,164.4789],[29.45916,47.2935,166.7925],[29.4417,47.28213,199.2221],[29.42557,47.27867,200.8452],[29.40955,47.27975,193.5875],[29.39446,47.28471,196.8212],[29.38082,47.29298,140.4269],[29.37088,47.30443,117.0184],[29.37069,47.30435,117.0184],[29.3695,47.30381,117.0184],[29.35214,47.28719,186.8599],[29.35426,47.27696,163.5071],[29.35545,47.26355,129.099],[29.34718,47.25187,133.9218],[29.33581,47.24285,119.0903],[29.30284,47.22192,96.1973],[29.27659,47.1964,95.9312],[29.29447,47.15004,19.7482],[29.29638,47.14382,23.4752],[29.29881,47.13779,21.4783],[29.29262,47.1359,19.1209],[29.29225,47.13578,19.1209],[29.29235,47.13542,19.1209],[29.29096,47.12873,14.4796],[29.29499,47.12198,11.0483],[29.29864,47.1199,14.0013],[29.3047,47.11645,13.0479],[29.32915,47.10834,13.9275],[29.32933,47.10821,13.9275],[29.36376,47.08403,13.3359],[29.37131,47.07873,12.1156],[29.37135,47.07869,12.1156],[29.37751,47.07077,12.4271],[29.38206,47.04178,17.3021],[29.38057,47.02888,13.0942],[29.38056,47.02886,13.0942],[29.37949,47.02931,13.0942],[29.37007,47.0332,11.9845],[29.36387,47.0332,12.5026],[29.36899,47.01809,22.3786],[29.37333,47.01158,25.831],[29.37356,47.01164,25.831],[29.37751,47.01274,28.5403],[29.37722,47.01225,27.0612],[29.3724,47.00426,25.481],[29.37018,47.00282,25.7136],[29.36646,47.00297,33.1153],[29.34093,46.99202,12.7639],[29.32455,46.98837,46.0044],[29.30889,46.98837,7.5],[29.29499,46.99225,12.6136],[29.303,46.97496,7.0],[29.31592,46.95874,7.0],[29.33209,46.94543,28.6326],[29.33532,46.94388,12.2713],[29.34961,46.93701,27.8974],[29.37565,46.93517,9.0409],[29.39669,46.94277,10.0675],[29.4157,46.95264,31.3309],[29.43555,46.9575,10.2935],[29.45947,46.95336,8.816],[29.45975,46.95308,10.0018],[29.4617,46.95104,7.9662],[29.46179,46.95108,6.5],[29.47839,46.95946,64.1806],[29.55998,46.96124,69.7591],[29.56063,46.96126,70.0111],[29.565,46.9745,73.848],[29.57249,47.01176,80.9844],[29.58339,47.02279,76.4113],[29.59543,47.03214,90.1141],[29.60303,47.04576,81.4685],[29.6021,47.061,95.3846],[29.59486,47.0746,110.0264],[29.58339,47.085209999999996,167.1595],[29.57016,47.09144,165.0718],[29.55135,47.0902,122.8112],[29.53973,47.07888,105.7379],[29.53099,47.06602,97.6725],[29.52014,47.05992,93.1404]]]}}