{"type": "Feature","bbox": [28.4868,46.6938,29.2383,47.0655],"geometry": {"type": "MultiPolygon","coordinates": [[[[29.0455,46.8587,167.6065],[29.0216,46.8462,170.6064],[28.9893,46.8538,206.0282],[28.9589,46.8728,138.0006],[28.9152,46.8918,148.5341],[28.8619,46.9032,56.9996],[28.8467,46.9165,61.1759],[28.8448,46.9412,66.5953],[28.8315,46.9565,93.4198],[28.8106,46.9679,107.5967],[28.7802,46.9717,143.8554],[28.7555,46.9774,90.5],[28.7256,47.0104,163.7407],[28.6974,47.0192,193.8635],[28.682,47.0273,151.4428],[28.6659,47.033,121.8724],[28.6529,47.0334,125.1775],[28.6444,47.0297,115.2492],[28.6295,47.0128,183.4558],[28.6261,47.0118,157.0214],[28.6095,47.0154,124.4815],[28.5909,47.0259,148.945],[28.58,47.0356,237.3368],[28.5703,47.0562,137.61],[28.5654,47.0623,191.2928],[28.5553,47.0655,188.195],[28.5485,47.0651,179.8147],[28.5287,47.0542,300.0887],[28.5182,47.0566,235.1878],[28.5046,47.0637,159.5963],[28.5044,47.0608,160.9542],[28.4998,47.0566,179.5134],[28.4894,47.0524,217.9899],[28.4868,47.0491,157.4124],[28.4915,47.0469,153.7665],[28.5075,47.0315,172.1707],[28.5307,47.0178,168.8736],[28.5425,47.0126,135.4589],[28.5595,47.0083,185.1254],[28.5604,47.005,181.633],[28.5588,46.9995,131.1393],[28.5457,46.9907,142.4054],[28.5408,46.9838,199.8833],[28.5408,46.9792,183.7085],[28.5438,46.975,227.1354],[28.567,46.9593,239.312],[28.584,46.939,159.8057],[28.6155,46.9284,185.3118],[28.6299,46.9167,224.7895],[28.6482,46.9078,202.7416],[28.6521,46.9019,162.5481],[28.6554,46.8706,229.2701],[28.6576,46.8647,183.3048],[28.6609,46.8618,177.2155],[28.6681,46.8604,202.4801],[28.672,46.8627,249.3037],[28.6854,46.8784,242.3739],[28.6946,46.8859,136.5991],[28.7083,46.8876,125.6117],[28.7132,46.885,113.629],[28.7155,46.8706,175.2701],[28.7181,46.8657,230.4994],[28.7299,46.8526,171.9066],[28.7354,46.8356,123.6131],[28.7356,46.8233,229.6382],[28.733,46.8209,248.6855],[28.7265,46.8057,136.7244],[28.7295,46.7913,238.5814],[28.7342,46.7828,188.8072],[28.7589,46.757,266.3858],[28.7652,46.7536,297.7469],[28.7794,46.7526,258.5166],[28.7948,46.7558,180.9886],[28.8102,46.7556,144.7337],[28.8143,46.7516,170.6529],[28.8156,46.7446,213.5637],[28.8199,46.7356,257.4974],[28.8266,46.7277,204.7618],[28.8412,46.7184,241.9056],[28.8481,46.717,255.3161],[28.8738,46.7166,227.9891],[28.8923,46.7125,150.667],[28.9006,46.707,238.9199],[28.9094,46.6938,234.8167],[28.9847,46.6949,86.4417],[29.0092,46.7006,104.6504],[29.0293,46.7121,77.444],[29.0524,46.7294,55.1409],[29.0927,46.7553,100.0714],[29.1099,46.7597,124.4107],[29.133,46.7582,111.3007],[29.1675,46.7438,107.7118],[29.1834,46.7265,132.2336],[29.2208,46.7121,85.8804],[29.2347,46.7175,142.7309],[29.2359,46.7258,143.5119],[29.2344,46.7551,171.0125],[29.2361,46.7619,190.3302],[29.2383,46.7641,195.4838],[29.2251,46.7819,196.0371],[29.2196,46.7857,167.5473],[29.2141,46.7865,203.4839],[29.2088,46.7843,190.8564],[29.2011,46.7744,162.1985],[29.1877,46.7646,157.677],[29.1806,46.7638,156.157],[29.1748,46.7659,159.9554],[29.1707,46.7728,142.5194],[29.1693,46.7961,211.8817],[29.1677,46.8001,218.5445],[29.1638,46.8036,195.9633],[29.148,46.8048,124.9995],[29.122,46.803,178.8309],[29.0961,46.8155,191.366],[29.089,46.8212,205.2484],[29.0888,46.8235,214.3569],[29.0912,46.8269,189.1713],[29.1007,46.8362,137.7069],[29.1038,46.8421,146.2075],[29.1038,46.8452,142.3554],[29.0984,46.8515,166.4371],[29.088,46.852,183.0936],[29.0821,46.8579,212.0485],[29.0455,46.8587,167.6065]]]]}
,"properties": {"GID_1": "MDA.22_1","GID_0": "MDA","country": "Moldova","province": "Ialoveni","VARNAME_1": "NA","NL_NAME_1": "NA","TYPE_1": "Raion","ENGTYPE_1": "District","CC_1": "NA","HASC_1": "MD.IA","ISO_1": "MD-IA","name": "Ialoveni.province","area_km2": 817.0409,"hist_schema_id": "Elevation0-9000","hist_area_km2": {"50": 29.3499,"75": 79.5999,"100": 126.5981,"125": 153.6843,"150": 161.3702,"175": 138.1582,"200": 66.4924,"225": 27.4221,"250": 16.159,"275": 9.506,"300": 5.8827,"325": 2.8037,"350": 0.0144}}}