{"type":"Feature","properties":{"ISO3166-1-Alpha-3":"MDA","country":"Moldova","fill":"#F00","id":"1640","name":"Ialoveni"},
"geometry":{"type": "Polygon","coordinates": [[[28.53679,47.06142,284.0189],[28.5046,47.06369,159.5963],[28.49664,47.05581,156.0124],[28.48682,47.04907,157.4124],[28.5186,47.02597,204.5545],[28.55229,47.01093,175.4066],[28.5493,46.99318,149.7634],[28.54227,46.97708,198.4218],[28.58816,46.94179,155.9532],[28.63802,46.91241,174.947],[28.64945,46.90308,178.269],[28.65389,46.88871,211.8158],[28.65451,46.87401,215.4009],[28.66092,46.86174,177.2155],[28.6789,46.87001,213.4486],[28.69456,46.88592,136.5991],[28.72396,46.86497,238.627],[28.73559,46.82329,229.6382],[28.78014,46.7958,156.1568],[28.82546,46.79482,162.528],[28.84923,46.79624,112.1416],[28.8732,46.79363,147.9841],[28.89026,46.80451,125.7665],[28.907,46.812,58.0146],[28.93987,46.79218,65.7039],[28.94617,46.78934,69.6292],[28.95268,46.78921,79.0629],[28.97123,46.8036,121.6922],[28.99805,46.81249,131.5365],[29.02643,46.81776,118.5864],[29.05826,46.8335,137.6705],[29.08802,46.85197,183.0936],[29.04963,46.86009,147.451],[29.04286,46.88158,126.5871],[29.05826,46.89551,71.7872],[29.06172,46.91455,65.6828],[29.0412,46.92677,23.3394],[29.01593,46.9307,25.6452],[28.99278,46.93714,81.1042],[28.97118,46.94111,89.7928],[28.95961,46.93217,37.0874],[28.95051,46.91977,70.3297],[28.92256,46.92894,106.7267],[28.90814,46.96111,90.194],[28.81052,46.98385,178.9422],[28.79326,46.98375,153.3306],[28.7776,46.98811,198.4653],[28.78034,46.99902,222.9831],[28.7899,47.00912,110.9556],[28.78752,47.03553,117.2908],[28.77182,47.0532,80.0445],[28.74965,47.01651,228.0489],[28.70846,47.01504,129.8184],[28.68448,47.02623,165.0075],[28.65942,47.0332,163.3097],[28.64185,47.02442,148.007],[28.62779,47.01227,175.8055],[28.59017,47.02902,171.6405],[28.56542,47.06227,191.2928],[28.53679,47.06142,284.0189]]]}}