{"type":"Feature","properties":{"ISO3166-1-Alpha-3":"MDA","country":"Moldova","fill":"#FF0","id":"1625","name":"Taraclia"},
"geometry":{"type": "Polygon","coordinates": [[[28.56353,45.73549,82.1121],[28.56061,45.7432,100.029],[28.57668,45.76191,4.4865],[28.64361,45.76651,125.0859],[28.66975,45.77731,137.2602],[28.67327,45.78687,141.3222],[28.67192,45.79726,142.8367],[28.66939,45.8063,145.0747],[28.66975,45.81204,126.8482],[28.6773,45.81658,128.441],[28.70639,45.82113,134.8937],[28.72556,45.82878,143.1519],[28.73828,45.83757,149.239],[28.74505,45.85048,156.2044],[28.74644,45.87059,161.8544],[28.74231,45.88733,152.6533],[28.72841,45.92195,114.2127],[28.72918,45.93864,147.7634],[28.74024,45.95322,164.2496],[28.7576,45.96118,162.5885],[28.93196,45.99316,81.0185],[28.95687,46.00138,130.5495],[28.95893,46.02102,161.1045],[28.94116,46.06468,157.3923],[28.93878,46.08928,179.1449],[28.94643,46.10509,180.5645],[28.98085,46.13212,140.8301],[29.00348,46.15894,149.1721],[29.01537,46.18261,172.3038],[29.00984,46.20436,191.6751],[28.98411,46.22122,199.4453],[28.9841,46.22121,199.4453],[28.96266,46.19796,196.1638],[28.9162,46.16664,142.7056],[28.88752,46.07665,175.2738],[28.8283,46.00965,175.3883],[28.66304,45.96779,24.5788],[28.62221,45.96665,70.1622],[28.59699,45.999,21.1108],[28.59028,46.01208,21.6978],[28.58733,46.02639,23.1177],[28.60071,46.043,85.6154],[28.57126,46.06437,41.9663],[28.53452,46.08148,42.5741],[28.497,46.08892,83.4808],[28.45866,46.08794,218.7196],[28.45225,46.05016,182.7267],[28.43897,46.0112,180.443],[28.43773,45.97921,203.6594],[28.44532,45.94906,162.7559],[28.45933,45.9381,151.4216],[28.46816,45.92386,103.4418],[28.45664,45.90774,157.1153],[28.43783,45.89932,149.6597],[28.40708,45.89182,48.334],[28.39168,45.86552,160.866],[28.41959,45.84935,157.4568],[28.44222,45.82612,166.1973],[28.48248,45.82154,132.1105],[28.51493,45.80268,114.7782],[28.54061,45.77705,119.6667],[28.54992,45.73742,85.4988],[28.56309,45.73555,82.1121],[28.56353,45.73549,82.1121]]]}}