{"type": "Feature","bbox": [28.3917,45.7338,29.0576,46.241],"geometry": {"type": "MultiPolygon","coordinates": [[[[28.5446,45.7527,78.9995],[28.5499,45.7374,85.4988],[28.5674,45.7386,90.5991],[28.575,45.7357,53.1871],[28.5932,45.7338,4.7093],[28.6003,45.7358,5.0002],[28.6028,45.7428,14.4841],[28.6012,45.7511,15.3205],[28.6057,45.7688,88.8584],[28.6169,45.7678,98.3646],[28.6572,45.7782,130.4561],[28.6939,45.7827,128.1312],[28.7082,45.7871,131.1031],[28.7177,45.792,127.1642],[28.7184,45.7965,132.883],[28.7133,45.806399999999996,138.455],[28.7118,45.8187,138.8526],[28.6847,45.8187,106.6256],[28.6612,45.808,130.5464],[28.6355,45.7994,74.5629],[28.6108,45.7983,38.868],[28.5862,45.8069,6.9946],[28.5637,45.8208,101.9088],[28.5541,45.8326,114.9257],[28.5552,45.8465,118.2578],[28.5669,45.8519,86.8765],[28.6622,45.8669,140.0707],[28.6836,45.8754,136.2791],[28.7778,45.8844,164.2397],[28.7762,45.8937,168.6322],[28.7651,45.9223,125.9825],[28.7671,45.9326,126.893],[28.7702,45.9375,113.2794],[28.7692,45.9445,132.1098],[28.7657,45.9499,147.3101],[28.7695,45.9573,152.5698],[28.7845,45.9658,164.8977],[28.7942,45.9772,170.498],[28.8148,45.9796,169.6436],[28.8069,45.9884,168.777],[28.8015,46.0047,164.4414],[28.7954,46.0143,88.501],[28.7723,46.0374,88.8551],[28.7565,46.0489,61.7421],[28.7363,46.0489,74.996],[28.7147,46.0403,110.7691],[28.7119,46.0244,100.1447],[28.7119,46.0086,78.4689],[28.7162,45.9899,28.2858],[28.7244,45.9794,110.7722],[28.7222,45.9792,106.9765],[28.7321,45.9668,146.0166],[28.7333,45.9562,166.1954],[28.7134,45.9504,144.6708],[28.697,45.9504,107.0523],[28.6783,45.9527,138.1963],[28.6572,45.9515,33.4927],[28.6431,45.9457,21.0871],[28.6326,45.9328,36.8599],[28.6127,45.9199,13.2694],[28.601,45.9188,17.4055],[28.5577,45.9305,106.4296],[28.5554,45.9422,78.2796],[28.5483,45.9492,100.206],[28.5308,45.9586,168.8293],[28.5261,45.9644,177.3559],[28.5249,45.9726,187.9122],[28.5636,45.9738,57.7932],[28.5741,45.9773,44.1026],[28.5741,45.989,30.7961],[28.5659,45.9984,41.9155],[28.5378,45.9972,75.6027],[28.5226,45.9995,162.3094],[28.5156,46.0136,190.9295],[28.5167,46.0218,172.9737],[28.5261,46.0276,113.2892],[28.5355,46.0288,96.0008],[28.5495,46.0335,69.1071],[28.5542,46.0405,53.0401],[28.5542,46.0569,26.1305],[28.546,46.0651,42.021],[28.539,46.0674,65.2625],[28.5179,46.0674,117.4422],[28.5085,46.0698,112.3801],[28.5062,46.0768,133.0739],[28.5068,46.088,63.6572],[28.4799,46.0894,169.6678],[28.4586,46.088,218.7196],[28.4603,46.0778,224.7036],[28.4566,46.0655,220.681],[28.4504,46.056,197.7428],[28.4429,46.0362,209.3251],[28.4385,46.0083,184.6925],[28.4402,45.9569,181.3566],[28.4453,45.9491,162.7559],[28.4658,45.9331,136.8618],[28.4681,45.9239,103.4418],[28.4617,45.9119,167.5206],[28.4508,45.9041,146.0634],[28.4378,45.8993,149.6597],[28.4215,45.8993,82.8194],[28.4102,45.8969,58.2394],[28.4014,45.8891,55.5802],[28.3953,45.8806,108.8729],[28.3917,45.8655,160.866],[28.3985,45.8661,159.309],[28.4135,45.8593,165.7066],[28.422,45.8511,157.2593],[28.4227,45.8437,140.7906],[28.4285,45.8341,153.5726],[28.437,45.8276,152.9868],[28.4475,45.8246,158.3014],[28.4969,45.8184,84.7751],[28.5099,45.8113,62.2556],[28.5149,45.8027,114.7782],[28.518,45.8028,83.7002],[28.5299,45.797,88.4068],[28.5388,45.7858,123.0998],[28.5446,45.7527,78.9995]],
[[28.5016,45.8604,133.7901],[28.4888,45.8487,85.8076],[28.4609,45.8508,30.3847],[28.4492,45.8636,31.3663],[28.4492,45.8701,30.592],[28.4642,45.8851,97.8653],[28.4738,45.8883,142.3724],[28.4995,45.8883,56.164],[28.507,45.8818,55.7179],[28.5081,45.8701,89.7717],[28.5016,45.8604,133.7901]]],
[[[28.9092,46.0129,150.304],[28.9106,45.998,110.013],[28.9256,46.0,125.8494],[28.9542,46.0054,133.525],[28.9781,46.0125,152.1376],[28.9883,46.0236,99.2954],[28.984,46.0268,111.8682],[28.9918,46.0327,141.7848],[28.9988,46.0569,155.9859],[28.9982,46.0691,159.7906],[28.9737,46.0885,175.4473],[28.9657,46.1014,177.6762],[28.958,46.1018,178.1346],[28.9578,46.1081,183.048],[28.9639,46.1255,160.8403],[28.9785,46.1362,135.7295],[28.9866,46.1357,152.9551],[28.9966,46.1432,144.7193],[29.015,46.1632,170.9878],[29.0369,46.1794,142.7242],[29.0361,46.1851,145.8627],[29.0576,46.2011,189.0063],[29.056,46.2062,190.2335],[29.0302,46.2215,185.1523],[29.0023,46.241,188.2492],[28.9712,46.2189,186.2685],[28.9655,46.212,137.8296],[28.9626,46.2023,167.9633],[28.9624,46.1952,196.8881],[28.9586,46.1855,193.0256],[28.9223,46.1668,177.6465],[28.9162,46.1666,142.7056],[28.9114,46.1463,191.2094],[28.8688,46.0424,166.4713],[28.8717,46.0388,180.6996],[28.8832,46.0388,176.4864],[28.9034,46.0345,145.2967],[28.9077,46.0273,144.6199],[28.9092,46.0129,150.304]]]]}
,"properties": {"GID_1": "MDA.34_1","GID_0": "MDA","country": "Moldova","province": "Taraclia","VARNAME_1": "NA","NL_NAME_1": "NA","TYPE_1": "Raion","ENGTYPE_1": "District","CC_1": "NA","HASC_1": "MD.TA","ISO_1": "MD-TA","name": "Taraclia.province","area_km2": 670.3288,"hist_schema_id": "Elevation0-9000","hist_area_km2": {"0": 27.2518,"25": 61.6292,"50": 55.6402,"75": 60.9614,"100": 70.2136,"125": 84.8509,"150": 121.4212,"175": 134.9592,"200": 48.5021,"225": 4.8992}}}