{"type":"Feature","properties":{"GID_1":"MDA.17_1","GID_0":"MDA","country":"Moldova","province":"Făleşti","VARNAME_1":"NA","NL_NAME_1":"NA","TYPE_1":"Raion","ENGTYPE_1":"District","CC_1":"NA","HASC_1":"MD.FA","ISO_1":"NA","name":"Făleşti.province"},
"geometry":{"type": "MultiPolygon","coordinates": [[[[27.8602,47.7507,132.8153],[27.8311,47.757,173.34],[27.8191,47.7654,130.0462],[27.8085,47.7786,184.4901],[27.802,47.7793,162.7023],[27.7924,47.7658,156.0699],[27.791,47.7558,196.5989],[27.7857,47.7462,147.9792],[27.7743,47.738,197.7602],[27.7597,47.7245,161.448],[27.7379,47.7141,184.0876],[27.733,47.7141,188.4425],[27.7137,47.7209,146.4826],[27.7041,47.7209,169.0569],[27.6792,47.696,118.1295],[27.6767,47.6878,180.6743],[27.6699,47.681,153.1044],[27.6457,47.6679,129.1687],[27.642,47.6502,93.8663],[27.6377,47.6449,91.9873],[27.6184,47.6388,121.5679],[27.606,47.6378,136.1482],[27.5579,47.6385,123.909],[27.5497,47.6374,148.665],[27.5355,47.6317,150.4791],[27.5187,47.6221,182.2728],[27.5098,47.6199,106.9691],[27.4847,47.608,97.251],[27.437,47.5824,64.8685],[27.4332,47.5823,66.9306],[27.428,47.5773,58.5675],[27.4285,47.5793,51.4123],[27.4188,47.5724,56.7723],[27.4195,47.5661,52.4443],[27.423,47.5632,54.8973],[27.4343,47.5625,61.8974],[27.4256,47.5546,61.9361],[27.441,47.5497,55.499],[27.4391,47.547,80.3326],[27.432,47.5475,54.2102],[27.4331,47.544,62.5627],[27.4413,47.5408,61.3657],[27.4472,47.5353,50.9452],[27.4552,47.5374,54.5571],[27.4582,47.5364,62.8172],[27.4568,47.5338,50.4322],[27.4457,47.5311,54.3153],[27.4518,47.5262,68.9371],[27.453,47.5222,59.6875],[27.4559,47.522,51.4743],[27.4654,47.5275,53.5822],[27.4688,47.527,60.9674],[27.4683,47.5252,64.3466],[27.458,47.5193,56.9636],[27.4568,47.5163,60.1602],[27.4585,47.5137,58.32],[27.4558,47.5082,65.4645],[27.4585,47.5047,58.8799],[27.4689,47.5,58.856],[27.4692,47.4942,62.2544],[27.4742,47.4897,69.5693],[27.4759,47.4858,61.6023],[27.4951,47.489,62.3536],[27.4973,47.487,64.1374],[27.493,47.4839,51.8909],[27.4943,47.4808,56.785],[27.508,47.4786,50.0644],[27.5104,47.4808,62.1748],[27.5091,47.4854,61.6937],[27.5144,47.4904,50.7993],[27.5173,47.4905,52.6197],[27.5186,47.4888,53.6914],[27.5144,47.4842,46.4683],[27.5137,47.4783,56.9139],[27.5164,47.474,55.4485],[27.5207,47.4771,48.5597],[27.5235,47.4825,49.0835],[27.5341,47.4783,48.6962],[27.5378,47.4786,52.0148],[27.5384,47.4817,56.5196],[27.5332,47.4844,47.979],[27.5343,47.4872,51.673],[27.5391,47.4892,45.712],[27.5419,47.4875,47.9489],[27.5453,47.4767,54.8102],[27.5499,47.4731,47.1033],[27.5574,47.4708,53.229],[27.5609,47.4637,48.2867],[27.5661,47.463,46.874],[27.5714,47.4659,56.3076],[27.5738,47.4646,51.8264],[27.5756,47.457,61.2015],[27.5725,47.4511,49.7904],[27.5681,47.4481,50.0454],[27.559,47.4472,49.4735],[27.5627,47.439,62.4092],[27.5546,47.4331,52.1876],[27.5563,47.4274,50.0571],[27.5637,47.423,47.746],[27.5716,47.4249,55.7031],[27.5718,47.422,54.7329],[27.5767,47.4186,46.1894],[27.5755,47.4114,46.9488],[27.5775,47.4088,55.32],[27.5835,47.4106,60.5093],[27.5856,47.4093,55.7197],[27.5842,47.3997,47.1248],[27.5752,47.3976,46.67],[27.5708,47.394,49.9955],[27.57,47.3877,54.3399],[27.574,47.3851,51.4158],[27.5693,47.3829,46.0213],[27.57,47.3754,46.274],[27.5762,47.3738,47.2598],[27.5816,47.3789,46.5733],[27.5853,47.3767,58.8312],[27.5839,47.3743,44.5056],[27.5755,47.3712,48.5181],[27.5772,47.3681,49.2774],[27.5842,47.3685,46.7174],[27.5898,47.3653,43.29],[27.5932,47.3659,44.681],[27.5946,47.3706,43.3522],[27.5999,47.3777,58.3889],[27.6117,47.3834,109.4915],[27.6351,47.3882,159.4252],[27.654,47.397,131.7516],[27.6653,47.3986,157.5229],[27.682,47.4036,170.245],[27.6934,47.4153,78.7779],[27.7002,47.4198,137.8251],[27.7753,47.4273,165.3722],[27.8211,47.4255,119.7827],[27.8456,47.4278,142.4394],[27.856,47.4317,143.9776],[27.8755,47.4331,128.4439],[27.9064,47.4321,84.7227],[27.9144,47.4338,120.3234],[27.9173,47.4372,136.8816],[27.9177,47.4457,158.3022],[27.9107,47.4567,114.2559],[27.9126,47.4662,129.7866],[27.9516,47.4677,195.1505],[27.9758,47.463,135.2021],[27.9897,47.4753,156.5178],[27.9994,47.4783,145.4696],[28.0037,47.4836,96.3828],[28.0054,47.4886,93.2883],[28.0057,47.5033,183.0666],[28.0041,47.5089,211.9365],[27.9944,47.5196,215.4786],[27.9854,47.5209,255.8756],[27.9467,47.5199,166.6358],[27.9367,47.5223,173.1504],[27.9287,47.5269,219.6881],[27.9237,47.5343,216.8763],[27.9234,47.5416,160.3565],[27.926,47.5513,224.1543],[27.936,47.5573,249.1493],[27.957,47.5626,132.4019],[27.9857,47.593,145.0919],[28.0177,47.6,147.404],[28.0217,47.6023,165.434],[28.0224,47.6073,129.9133],[28.0207,47.615,130.5001],[28.0064,47.6306,204.7598],[28.0044,47.6456,112.1179],[28.0047,47.671,134.947],[27.9997,47.675,134.4973],[27.9487,47.6747,194.1344],[27.9417,47.676,174.2594],[27.938,47.686,125.8475],[27.9385,47.6985,159.3621],[27.9445,47.7085,161.3103],[27.9612,47.7212,163.8946],[27.9663,47.7333,171.5019],[27.96,47.743899999999996,130.465],[27.9345,47.7461,96.3963],[27.9169,47.7394,158.9136],[27.8984,47.7394,146.4626],[27.8756,47.7329,110.9349],[27.8625,47.7329,108.6338],[27.8614,47.7383,123.0504],[27.8625,47.7503,143.9731],[27.8602,47.7507,132.8153]]]]}}