{"type":"Feature","properties":{"ISO3166-1-Alpha-3":"MDA","country":"Moldova","fill":"#FF0","id":"1620","name":"Făleşti"},
"geometry":{"type": "Polygon","coordinates": [[[27.86014,47.75073,132.8153],[27.83363,47.75729,148.3613],[27.81239,47.77362,175.4545],[27.7956,47.77021,151.7881],[27.78567,47.74621,147.9792],[27.76221,47.72541,151.3699],[27.73296,47.71414,188.4425],[27.717,47.71957,169.0507],[27.7016,47.71822,198.679],[27.67669,47.68779,180.6743],[27.66449,47.679,130.2333],[27.65137,47.67141,113.4515],[27.63767,47.6449,91.9873],[27.60093,47.63627,137.2326],[27.56197,47.63828,103.1995],[27.49189,47.61611,111.2945],[27.4294,47.57813,62.9819],[27.43134,47.57264,75.1689],[27.43582,47.55994,70.021],[27.43898,47.55371,64.4116],[27.44027,47.5501,55.499],[27.44006,47.54103,56.8239],[27.44213,47.53663,56.2419],[27.44606,47.53488,50.9452],[27.45691,47.5339,50.4322],[27.45949,47.53322,70.7796],[27.46673,47.50635,62.3339],[27.47313,47.49178,65.5747],[27.48368,47.48542,51.865],[27.49256,47.48454,51.8909],[27.49753,47.48243,59.7518],[27.50145,47.47995,59.2243],[27.50724,47.47798,50.0644],[27.53298,47.47741,50.2639],[27.53453,47.47798,48.6962],[27.54817,47.47426,52.2834],[27.56315,47.46834,50.1799],[27.57587,47.46041,50.5853],[27.583,47.45067,179.0002],[27.57478,47.44625,77.2466],[27.56936,47.43855,184.4609],[27.56553,47.42827,47.6504],[27.56253,47.41654,46.6139],[27.58031,47.406,53.305],[27.57235,47.3752,50.2529],[27.58641,47.36876,54.163],[27.58872,47.36739,57.1411],[27.59659,47.37163,41.0],[27.62258,47.38793,159.2209],[27.68206,47.40357,170.245],[27.7002,47.41979,137.8251],[27.76599,47.42765,135.9341],[27.83337,47.42667,143.4532],[27.90262,47.43214,106.9765],[27.91559,47.43772,145.6389],[27.9143,47.46077,109.3566],[27.92706,47.46664,167.955],[27.9515,47.46796,195.1505],[27.97584,47.46305,135.2021],[27.9977,47.47938,151.0554],[28.00571,47.50325,183.0666],[27.98768,47.5202,239.1353],[27.96039,47.5201,168.4099],[27.92882,47.53043,196.3075],[27.93104,47.55431,201.0885],[27.96473,47.57095,98.8282],[27.97646,47.58402,161.1195],[27.99005,47.59379,160.5931],[28.01558,47.59973,124.536],[28.01708,47.61932,145.6863],[28.00225,47.67298,133.3927],[27.94169,47.676,174.2594],[27.94577,47.70748,156.3029],[27.96458,47.73623,158.7208],[27.90422,47.73869,112.0597],[27.86014,47.75073,132.8153]]]}}