{"type":"Feature","properties":{"ISO3166-1-Alpha-3":"MDA","country":"Moldova","fill":"#000","id":"1628","name":"Stîngă Nistrului"},
"geometry":{"type": "Polygon","coordinates": [[[29.18207,47.42987,131.7964],[29.16388,47.43938,137.047],[29.15562,47.45,141.3583],[29.14001,47.48015,149.337],[29.13719,47.48401,149.311],[29.13712,47.48372,148.7983],[29.13603,47.47938,143.0778],[29.12683,47.46563,90.2384],[29.10829,47.46936,35.5374],[29.10797,47.46943,35.5374],[29.1105,47.46398,48.4055],[29.10709,47.45416,47.5247],[29.09014,47.43729,26.5],[29.08239,47.40641,26.5],[29.06549,47.40212,154.4589],[29.05138,47.39039,195.7546],[29.02544,47.40088,210.3465],[29.00839,47.39638,186.2433],[28.99945,47.37662,161.685],[28.98188,47.36334,217.3444],[29.00312,47.35104,157.1656],[29.02167,47.33313,169.3273],[29.07113,47.29585,139.7473],[29.07665,47.26983,45.5962],[29.07366,47.24632,93.3858],[29.11014,47.2336,78.8501],[29.15097,47.24482,11.8406],[29.12518,47.27425,10.5],[29.12532,47.27433,10.5],[29.13355,47.27908,42.5541],[29.17448,47.29029,125.9755],[29.18957,47.26249,81.4114],[29.16333,47.2309,9.5],[29.16326,47.23081,9.5],[29.17892,47.19707,49.058],[29.16316,47.1919,22.2199],[29.1444,47.16291,9.0],[29.11195,47.14989,9.6966],[29.09417,47.1349,10.9562],[29.07836,47.11687,17.3015],[29.06906,47.10152,12.6483],[29.06962,47.10142,12.6483],[29.08441,47.09888,16.4427],[29.09851,47.09227,16.2751],[29.09868,47.09215,16.2751],[29.1189,47.07797,33.084],[29.1243,47.07418,14.0461],[29.13004,47.08178,8.5],[29.14786,47.09656,16.3587],[29.15608,47.11361,17.0061],[29.16673,47.11268,38.4297],[29.17913,47.10953,16.1249],[29.18915,47.11175,45.9228],[29.19375,47.12384,34.6512],[29.1876,47.1348,11.3069],[29.1797,47.14534,15.5703],[29.17892,47.15611,16.2416],[29.1876,47.16286,27.7309],[29.20026,47.16312,11.0914],[29.21262,47.15813,14.9051],[29.21277,47.15796,14.9406],[29.22052,47.14927,14.2537],[29.22081,47.14927,14.2537],[29.22672,47.14927,8.4748],[29.23654,47.16244,11.8438],[29.24951,47.15852,32.4825],[29.24986,47.15827,32.1814],[29.26388,47.14829,14.6959],[29.26437,47.14808,23.4821],[29.27793,47.14245,13.7876],[29.2908,47.14043,8.0],[29.29088,47.14019,22.7453],[29.29225,47.13578,19.1209],[29.29262,47.1359,19.1209],[29.29881,47.13779,21.4783],[29.29638,47.14382,23.4752],[29.29447,47.15004,19.7482],[29.27659,47.1964,95.9312],[29.30284,47.22192,96.1973],[29.33581,47.24285,119.0903],[29.34718,47.25187,133.9218],[29.35545,47.26355,129.099],[29.35426,47.27696,163.5071],[29.35214,47.28719,186.8599],[29.3695,47.30381,117.0184],[29.37069,47.30435,117.0184],[29.37088,47.30443,117.0184],[29.36759,47.30822,85.7931],[29.36449,47.32244,159.4943],[29.36408,47.33688,155.4866],[29.35891,47.35272,162.2741],[29.34584,47.36584,166.9832],[29.33038,47.37049,198.2941],[29.31468,47.37272,188.6059],[29.30083,47.37819,183.9955],[29.29271,47.38887,167.9336],[29.28822,47.40078,111.9531],[29.2814,47.41147,116.6053],[29.2507,47.42538,61.3584],[29.23261,47.44633,127.5536],[29.21835,47.4516,139.9739],[29.20187,47.44659,110.0124],[29.19241,47.43581,115.2195],[29.18207,47.42987,131.7964]]]}}