{"type":"Feature","properties":{"GID_1":"MDA.15_1","GID_0":"MDA","country":"Moldova","province":"Dubăsari","VARNAME_1":"NA","NL_NAME_1":"NA","TYPE_1":"Raion","ENGTYPE_1":"District","CC_1":"NA","HASC_1":"MD.DB","ISO_1":"NA","name":"Dubăsari.province"},
"geometry":{"type": "MultiPolygon","coordinates": [[[[29.1291,47.0822,8.5],[29.1302,47.0872,11.4138],[29.1329,47.0873,17.6568],[29.1379,47.0914,16.1576],[29.143,47.0977,30.9564],[29.1497,47.1183,16.799],[29.1584,47.1203,16.4772],[29.1793,47.1199,16.5714],[29.1826,47.1218,15.9458],[29.1822,47.1147,15.7218],[29.1925,47.1155,81.1588],[29.197,47.1228,65.4363],[29.1968,47.1368,29.1971],[29.1961,47.1455,13.0443],[29.1897,47.1539,15.0761],[29.188,47.1623,27.7309],[29.188,47.1701,72.1647],[29.1911,47.1738,88.9531],[29.2005,47.1734,73.2526],[29.2079,47.1674,15.5795],[29.2458,47.1641,8.0],[29.2458,47.1821,88.1578],[29.2512,47.1866,82.7183],[29.2512,47.1885,52.317],[29.2462,47.1916,22.0222],[29.2462,47.1939,59.4933],[29.2481,47.1957,83.3148],[29.2766,47.1946,90.8985],[29.2766,47.1964,95.9312],[29.3005,47.217,88.1544],[29.3442,47.2487,130.1193],[29.3554,47.2636,129.099],[29.3566,47.2803,168.3981],[29.3547,47.2832,172.972],[29.336,47.2639,127.6802],[29.321,47.2579,120.0998],[29.3102,47.2459,94.0013],[29.2988,47.2465,118.4156],[29.2903,47.2399,110.7239],[29.2741,47.2405,121.8426],[29.2675,47.2393,112.2236],[29.2645,47.2339,120.0443],[29.2645,47.2194,117.4121],[29.2621,47.214,95.3043],[29.2458,47.2146,83.1127],[29.2398,47.2116,114.2809],[29.2272,47.2134,110.7768],[29.2224,47.2176,122.9708],[29.2139,47.2206,132.8641],[29.1896,47.209,108.4553],[29.1704,47.1891,10.8701],[29.1601,47.1825,11.4857],[29.1564,47.1707,18.5474],[29.152,47.1663,20.0871],[29.1336,47.1582,20.0622],[29.1255,47.1582,16.784],[29.1064,47.1501,11.1681],[29.1005,47.1361,17.4617],[29.0879,47.1272,9.0],[29.073,47.121,30.321],[29.0746,47.1207,30.321],[29.074,47.1162,16.7132],[29.0806,47.1066,16.7577],[29.0946,47.0985,15.7719],[29.1226,47.0948,20.722],[29.1226,47.0853,15.7873],[29.1291,47.0822,8.5]]],
[[[29.1452,47.239,57.816],[29.1712,47.239,27.0299],[29.1572,47.2532,24.6028],[29.1557,47.2606,27.7387],[29.1491,47.2694,40.7803],[29.1351,47.2819,52.1448],[29.1159,47.293,40.4049],[29.0894,47.3313,83.4924],[29.0813,47.3534,26.5],[29.085,47.3629,26.5],[29.1034,47.3629,68.7631],[29.11,47.3578,97.3472],[29.1167,47.346,78.8066],[29.124,47.3372,42.7349],[29.1329,47.332,30.3018],[29.1609,47.3342,26.5],[29.1704,47.3438,106.2081],[29.1704,47.352,114.5593],[29.1656,47.3553,71.4423],[29.1493,47.3819,52.4269],[29.1197,47.3967,49.9989],[29.1019,47.4027,33.1297],[29.0915,47.4219,47.8836],[29.1078,47.4412,97.2129],[29.1078,47.4676,48.729],[29.1052,47.4656,48.7054],[29.1,47.4541,48.7866],[29.0709,47.4305,68.1975],[29.0623,47.4208,93.6222],[29.0617,47.4103,158.1161],[29.0678,47.4006,153.1287],[29.068,47.3951,157.5601],[29.0652,47.3918,150.9826],[29.0402,47.3909,238.4941],[29.0358,47.3928,238.2157],[29.0206,47.405,179.0806],[29.0122,47.4056,190.7608],[29.0086,47.4016,192.2475],[29.0071,47.3842,193.0248],[29.0036,47.3791,206.1459],[28.9897,47.369,209.3208],[28.9832,47.3661,239.666],[28.9819,47.3633,217.3444],[28.985,47.36,220.4347],[28.9987,47.3581,180.7661],[29.0063,47.3524,149.3676],[29.012,47.3414,162.1384],[29.0217,47.3331,169.3273],[29.0149,47.3241,131.1057],[29.0071,47.3177,113.7181],[28.986,47.3092,23.0939],[28.9912,47.306,88.2755],[29.0169,47.2804,99.6886],[29.034,47.2675,18.8716],[29.0497,47.2675,37.4901],[29.0611,47.2618,21.9282],[29.0596,47.2561,56.3391],[29.0668,47.239,20.0019],[29.1452,47.239,57.816]]]]}}