{"type":"Feature","properties":{"GID_1":"MDA.36_1","GID_0":"MDA","country":"Moldova","province":"Transnistria","VARNAME_1":"NA","NL_NAME_1":"NA","TYPE_1":"UnitateaTeritorială","ENGTYPE_1":"TerritorialUnit","CC_1":"NA","HASC_1":"MD.DU","ISO_1":"NA","name":"Transnistria.province"},
"geometry":{"type": "MultiPolygon","coordinates": [[[[29.4766,46.9176,9.4688],[29.4766,46.9095,24.2758],[29.4826,46.8946,31.585],[29.4835,46.8831,5.5],[29.4765,46.8783,36.4374],[29.4929,46.871,13.6009],[29.4944,46.8354,11.6076],[29.5016,46.8362,11.1598],[29.5036,46.8217,8.956],[29.503,46.8088,9.7065],[29.5071,46.8065,9.1603],[29.5152,46.8053,8.3206],[29.5199,46.8018,7.3098],[29.522,46.7972,6.5099],[29.5272,46.7981,11.8638],[29.5329,46.7956,8.5748],[29.5407,46.789,25.0736],[29.5477,46.7798,17.3576],[29.562,46.7541,7.925],[29.563,46.7285,68.285],[29.5661,46.7248,84.8842],[29.5928,46.7188,139.1506],[29.6044,46.7105,102.6393],[29.6129,46.7001,4.6783],[29.6195,46.6972,5.647],[29.6615,46.6954,4.3561],[29.7066,46.6895,4.7523],[29.7505,46.691,8.1768],[29.759,46.69,7.7853],[29.7733,46.6748,3.3702],[29.7825,46.6672,3.6363],[29.7832,46.6631,4.804],[29.7771,46.6561,4.1323],[29.7507,46.6396,4.3266],[29.7459,46.6338,6.0038],[29.7442,46.627,19.3046],[29.7456,46.6151,9.687],[29.7471,46.611,9.4345],[29.7525,46.6073,4.1104],[29.76,46.6043,2.6694],[29.7717,46.6043,1.284],[29.7889,46.6114,0.8894],[29.8076,46.6157,3.5356],[29.8405,46.6162,2.8356],[29.8732,46.6007,1.8289],[29.89,46.5879,1.8923],[29.9149,46.5774,5.6436],[29.9473,46.5602,3.7554],[29.9535,46.5631,4.986],[29.9552,46.5704,21.5459],[29.9508,46.5737,3.8039],[29.9508,46.5791,12.5069],[29.9548,46.5831,6.5248],[29.9528,46.5948,2.0],[29.9672,46.5931,2.0],[29.9555,46.6335,2.0],[29.9478,46.6522,2.0],[29.9558,46.6682,2.0],[29.9729,46.6919,2.0],[29.9699,46.7046,2.0],[29.9719,46.7286,4.1924],[29.9792,46.7636,7.1392],[29.9839,46.7676,5.8239],[29.9643,46.7805,66.3457],[29.9441,46.8012,86.3432],[29.9401,46.8059,94.8416],[29.9387,46.8103,103.6394],[29.9426,46.8142,115.006],[29.9512,46.8169,107.7652],[29.9723,46.8172,6.7504],[29.9745,46.8208,5.995],[29.9747,46.8251,7.7722],[29.9717,46.8288,6.0915],[29.9601,46.829,9.4333],[29.9534,46.8324,22.102],[29.9491,46.8408,37.2111],[29.9428,46.8424,34.0732],[29.9305,46.8387,17.7943],[29.9239,46.8327,100.5684],[29.9121,46.8282,110.4843],[29.9042,46.8284,93.1801],[29.8981,46.8325,102.1313],[29.8942,46.8395,120.7051],[29.8829,46.8455,136.0039],[29.8809,46.8495,142.6197],[29.8822,46.8545,130.303],[29.8932,46.8641,23.7152],[29.8876,46.8805,53.266],[29.8835,46.8834,55.1146],[29.8735,46.884,30.9868],[29.8466,46.8737,159.2027],[29.8228,46.8709,117.9309],[29.7961,46.8628,84.2041],[29.7607,46.8609,64.709],[29.7529,46.8644,64.4271],[29.7494,46.8688,66.8639],[29.7381,46.9138,143.8822],[29.7346,46.9197,146.1604],[29.7284,46.9238,153.3967],[29.7191,46.9276,136.997],[29.7122,46.927,109.267],[29.7078,46.9227,94.0289],[29.7008,46.92,81.4296],[29.6903,46.9202,72.8819],[29.653,46.9259,58.3134],[29.648,46.9325,64.3703],[29.643,46.9525,76.1672],[29.6379,46.9562,75.2403],[29.6263,46.9572,70.671],[29.5984,46.9468,65.8977],[29.5888,46.9448,65.3175],[29.5794,46.9479,61.4524],[29.5754,46.953,62.6649],[29.5782,46.9573,66.0045],[29.5891,46.9644,69.1106],[29.6051,46.9695,75.5721],[29.608,47.0306,99.9619],[29.6116,47.0403,97.5201],[29.6171,47.0463,95.1338],[29.6391,47.0531,190.7611],[29.6275,47.0689,136.1087],[29.6223,47.0983,113.8536],[29.6199,47.1027,137.7936],[29.6104,47.105,100.5955],[29.5897,47.1025,112.791],[29.5709,47.0956,163.205],[29.5636,47.0849,172.9498],[29.5587,47.081,156.0124],[29.5523,47.0804,137.3696],[29.5461,47.0848,117.7966],[29.54,47.0929,105.0341],[29.5164,47.1117,141.7084],[29.5093,47.1195,154.3211],[29.5079,47.1256,165.7783],[29.515,47.1309,160.2112],[29.5225,47.1326,139.8651],[29.5342,47.1331,122.2635],[29.564,47.1384,163.1947],[29.5789,47.1388,185.8927],[29.5912,47.1419,133.1018],[29.5921,47.1502,92.6964],[29.5686,47.2249,197.434],[29.5607,47.244,218.7376],[29.567,47.2562,217.9189],[29.5735,47.2593,212.7836],[29.6044,47.2635,144.662],[29.6096,47.2721,203.8759],[29.6009,47.2943,208.1489],[29.5977,47.3207,215.6489],[29.5911,47.3436,215.7765],[29.5916,47.3566,209.2374],[29.5899,47.366,158.6159],[29.5853,47.3726,179.6041],[29.5792,47.3782,215.1866],[29.5701,47.3791,211.1024],[29.5616,47.3785,216.3168],[29.5491,47.3715,214.4322],[29.5225,47.3716,211.2654],[29.5091,47.3682,181.9916],[29.5036,47.3647,174.8378],[29.5023,47.3575,205.8607],[29.5031,47.3517,178.7921],[29.5072,47.3469,199.5478],[29.5048,47.3401,213.6369],[29.4981,47.3304,203.9078],[29.4911,47.3157,171.8032],[29.4841,47.3119,203.3805],[29.4671,47.3114,181.2962],[29.4433,47.3003,200.2642],[29.4348,47.3004,185.7766],[29.4317,47.3044,189.3517],[29.4318,47.3077,194.8657],[29.4287,47.3099,199.6974],[29.4079,47.3077,182.6565],[29.3979,47.3104,132.6752],[29.3929,47.3192,110.3818],[29.3864,47.3439,171.8271],[29.3962,47.3513,186.0307],[29.404,47.3613,169.9673],[29.4076,47.3721,168.9351],[29.4057,47.379,182.7214],[29.3984,47.3841,137.7506],[29.3879,47.3861,148.9544],[29.3589,47.3804,174.9835],[29.346,47.3763,170.4762],[29.3393,47.3837,135.6644],[29.3274,47.4384,170.335],[29.3233,47.445,87.7863],[29.3181,47.4472,51.0153],[29.3064,47.4467,46.0],[29.2778,47.4359,42.54],[29.2657,47.426,63.505],[29.2571,47.424,39.3832],[29.2519,47.4262,64.31],[29.2512,47.4533,130.982],[29.2488,47.462,139.3553],[29.2424,47.4636,141.7614],[29.236,47.4608,140.8639],[29.2162,47.4434,133.4001],[29.2081,47.4399,109.4571],[29.1996,47.44,51.2723],[29.1922,47.4434,41.6316],[29.1898,47.4503,95.211],[29.1922,47.4603,44.8205],[29.1849,47.4641,99.9745],[29.1742,47.4628,143.2538],[29.169,47.4672,138.1529],[29.1702,47.4701,143.2435],[29.1788,47.4721,130.9212],[29.195,47.4817,119.7673],[29.1932,47.4938,51.5793],[29.1888,47.4979,114.8164],[29.1895,47.5108,90.5813],[29.188,47.5165,55.9552],[29.1849,47.517,78.115],[29.1803,47.5146,123.3809],[29.1718,47.5065,113.3945],[29.1598,47.5136,147.4079],[29.1549,47.5274,147.7442],[29.1388,47.5413,155.6669],[29.1337,47.549,137.4925],[29.1318,47.5555,155.2348],[29.1372,47.5583,122.8686],[29.1738,47.5679,114.4205],[29.2012,47.5715,154.3963],[29.21,47.5801,185.7235],[29.2115,47.5938,153.1824],[29.2278,47.6036,137.3606],[29.2255,47.6152,171.4229],[29.2291,47.6264,145.6679],[29.2419,47.6399,172.9094],[29.2388,47.6439,144.8327],[29.222,47.6529,184.5114],[29.2233,47.6608,195.9878],[29.2345,47.6758,200.9353],[29.2383,47.6945,207.8492],[29.2316,47.7008,176.5963],[29.2213,47.7147,146.4182],[29.2222,47.724,185.3911],[29.2338,47.7358,211.1093],[29.2486,47.7475,218.9543],[29.2677,47.758,216.8665],[29.272,47.7724,176.182],[29.2901,47.8011,239.6556],[29.2871,47.8072,195.0269],[29.2808,47.811,203.6478],[29.269,47.8104,200.9353],[29.257,47.8066,243.5002],[29.2401,47.7978,194.1798],[29.2338,47.8005,167.3408],[29.2297,47.8063,141.7445],[29.2213,47.8118,138.7621],[29.2172,47.8195,180.2494],[29.2279,47.8504,144.7781],[29.2455,47.8631,144.3887],[29.2699,47.8844,164.4032],[29.2769,47.8869,121.0248],[29.2771,47.8919,132.2997],[29.2751,47.8963,146.4305],[29.2671,47.8971,176.5498],[29.2519,47.8945,211.962],[29.2221,47.8848,193.6671],[29.2162,47.8849,200.7143],[29.2093,47.8875,215.595],[29.2053,47.8962,227.7482],[29.2025,47.9096,233.9469],[29.2059,47.9338,126.4831],[29.2009,47.944,149.7094],[29.1906,47.9741,204.2309],[29.191,47.9882,195.1787],[29.1885,47.994,187.3371],[29.1843,47.997,194.1459],[29.1639,47.9976,164.7414],[29.1491,47.9877,163.4802],[29.1411,47.9896,169.321],[29.1307,47.9854,220.3241],[29.1032,47.9826,230.7409],[29.0982,47.9797,244.6397],[29.0992,47.975,244.9792],[29.1108,47.9673,227.5914],[29.1123,47.9637,224.1895],[29.111,47.9583,191.1063],[29.1078,47.9576,177.1693],[29.1005,47.9649,226.2076],[29.0967,47.9657,229.8492],[29.094,47.9643,196.7054],[29.0965,47.9563,177.6827],[29.0963,47.9516,172.0058],[29.094,47.9466,234.2804],[29.0767,47.9421,229.7109],[29.0439,47.9444,146.9452],[29.029,47.9489,197.2685],[29.0016,47.9666,161.4833],[28.989,47.979,162.1619],[28.9832,47.9802,176.9325],[28.9767,47.9795,210.4964],[28.9438,47.9561,218.0383],[28.9373,47.9562,222.8783],[28.9304,47.9592,218.1961],[28.9101,47.9829,188.1298],[28.8996,47.9921,223.5213],[28.8958,48.0002,225.7678],[28.8945,48.0092,224.944],[28.8768,48.0221,203.9254],[28.8659,48.0257,200.5753],[28.8556,48.033,182.1326],[28.856,48.0396,208.5788],[28.8646,48.0555,220.2778],[28.8649,48.0606,217.4465],[28.8555,48.0667,225.8149],[28.8537,48.0741,239.2581],[28.8576,48.0828,251.802],[28.8562,48.1136,249.9606],[28.8545,48.1217,241.5105],[28.8297,48.1289,262.0774],[28.8187,48.1278,231.3859],[28.8035,48.1288,205.612],[28.7901,48.1231,220.4439],[28.7894,48.1308,183.7313],[28.7809,48.1354,189.3241],[28.7712,48.1378,159.1468],[28.7603,48.1381,221.3654],[28.735,48.1302,151.8287],[28.7216,48.1318,154.7458],[28.713,48.135,187.1915],[28.6998,48.1331,179.6188],[28.6868,48.1364,95.6108],[28.685,48.143,174.6098],[28.6808,48.1453,179.5772],[28.6556,48.1453,160.1868],[28.6503,48.1491,190.9083],[28.6387,48.1526,173.9443],[28.6292,48.1621,149.3539],[28.6109,48.1684,206.4549],[28.6022,48.1693,196.7132],[28.5944,48.1666,180.6422],[28.5898,48.163,180.2496],[28.5821,48.1618,195.8888],[28.5813,48.1684,194.3903],[28.5772,48.1722,169.9439],[28.561,48.1703,155.4695],[28.5446,48.1617,158.0427],[28.5433,48.1539,175.9393],[28.5387,48.1489,151.9996],[28.5296,48.144,187.9528],[28.5334,48.1329,191.0289],[28.5331,48.1271,171.9225],[28.5247,48.1231,76.8674],[28.5411,48.1231,152.753],[28.5585,48.1209,136.0586],[28.5709,48.1175,135.8199],[28.6115,48.1006,60.5458],[28.6379,48.095,109.503],[28.6469,48.0888,156.4993],[28.6503,48.0837,161.0124],[28.6503,48.0781,161.7554],[28.6481,48.0713,164.5575],[28.6402,48.0663,165.8933],[28.6312,48.0663,121.5474],[28.6255,48.0696,40.147],[28.6255,48.0741,41.1456],[28.6233,48.0781,42.0571],[28.6188,48.0786,42.3589],[28.6148,48.0758,42.6756],[28.6064,48.0629,41.6208],[28.6041,48.0516,152.669],[28.5884,48.0432,119.1012],[28.5788,48.0415,47.3674],[28.5636,48.0426,40.13],[28.5591,48.0415,35.8169],[28.5591,48.0359,44.5696],[28.5551,48.0302,40.2504],[28.5433,48.0195,37.7375],[28.5444,48.0094,39.5173],[28.5501,48.0054,37.9004],[28.5619,47.9998,37.3222],[28.5754,47.9987,52.0593],[28.5822,48.0004,113.3002],[28.5855,48.0032,153.3073],[28.5867,48.0088,136.4629],[28.6008,48.0229,48.1539],[28.6064,48.0359,34.1186],[28.6103,48.0375,45.9238],[28.6678,48.0257,28.0],[28.6999,48.0274,35.4092],[28.7168,48.0246,170.9954],[28.7179,48.0223,180.138],[28.7173,48.0066,53.7018],[28.7213,48.0004,44.8254],[28.7308,47.9931,43.7045],[28.7376,47.9846,45.3914],[28.7539,47.9773,34.2033],[28.7712,47.9759,141.343],[28.786,47.9874,33.9263],[28.7933,47.9874,98.9185],[28.7995,47.9835,187.2248],[28.8159,47.9604,42.2761],[28.8463,47.9418,114.9363],[28.8468,47.9356,202.9749],[28.8356,47.9227,127.6989],[28.8311,47.9148,55.4312],[28.8339,47.9063,72.4948],[28.8435,47.9007,57.9781],[28.8756,47.899,179.1765],[28.9172,47.8872,53.7734],[28.9343,47.8861,39.3099],[28.9362,47.8915,97.7335],[28.9414,47.8889,152.776],[28.9596,47.8855,114.8451],[28.968,47.8817,42.1566],[28.9797,47.8804,34.0455],[29.0141,47.8669,72.3586],[29.0259,47.859,156.9717],[29.0327,47.8511,35.3298],[29.0332,47.8438,159.0098],[29.0254,47.8337,61.3466],[29.0192,47.8185,101.9269],[29.0062,47.8095,31.2383],[28.9995,47.7982,34.3576],[28.9955,47.7869,33.3071],[28.9955,47.7774,37.1614],[28.9921,47.7678,38.4445],[28.9933,47.7537,38.2153],[28.991,47.747,120.4],[28.9797,47.7346,82.7381],[28.9769,47.7273,101.0136],[28.9769,47.7199,82.3642],[28.9865,47.703,160.8886],[28.991,47.689,133.954],[28.9921,47.6788,90.2032],[29.004,47.6563,154.3981],[29.0051,47.649,167.1371],[29.0028,47.6433,147.6149],[28.9955,47.6377,64.5446],[28.9927,47.6208,89.7575],[28.9972,47.6129,73.6457],[29.0079,47.6017,61.2001],[29.0293,47.587,88.703],[29.0361,47.5775,145.7277],[29.0366,47.5685,154.5874],[29.0321,47.5527,115.6937],[29.0288,47.5474,85.9349],[29.0291,47.5291,61.5999],[29.0419,47.5139,35.5482],[29.0577,47.508,34.7974],[29.0828,47.4934,26.5],[29.0992,47.4905,135.2187],[29.1074,47.4835,89.5751],[29.1108,47.4699,26.5],[29.1078,47.4676,48.729],[29.1078,47.4412,97.2129],[29.0915,47.4219,47.8836],[29.1019,47.4027,33.1297],[29.1197,47.3967,49.9989],[29.1493,47.3819,52.4269],[29.1656,47.3553,71.4423],[29.1704,47.352,114.5593],[29.1704,47.3438,106.2081],[29.1609,47.3342,26.5],[29.1329,47.332,30.3018],[29.124,47.3372,42.7349],[29.1167,47.346,78.8066],[29.11,47.3578,97.3472],[29.1034,47.3629,68.7631],[29.085,47.3629,26.5],[29.0813,47.3534,26.5],[29.0894,47.3313,83.4924],[29.1159,47.293,40.4049],[29.1351,47.2819,52.1448],[29.1491,47.2694,40.7803],[29.1557,47.2606,27.7387],[29.1572,47.2532,24.6028],[29.1712,47.2392,27.0299],[29.1727,47.2327,24.9683],[29.1688,47.2354,17.1429],[29.1749,47.2259,18.8142],[29.1793,47.2215,26.5829],[29.1852,47.2208,43.0512],[29.1896,47.2156,99.3368],[29.1896,47.209,108.4553],[29.2139,47.2206,132.8641],[29.2224,47.2176,122.9708],[29.2272,47.2134,110.7768],[29.2398,47.2116,114.2809],[29.2458,47.2146,83.1127],[29.2621,47.214,95.3043],[29.2645,47.2194,117.4121],[29.2645,47.2339,120.0443],[29.2675,47.2393,112.2236],[29.2741,47.2405,121.8426],[29.2903,47.2399,110.7239],[29.2988,47.2465,118.4156],[29.3102,47.2459,94.0013],[29.321,47.2579,120.0998],[29.336,47.2639,127.6802],[29.3547,47.2832,172.972],[29.3566,47.2803,168.3981],[29.3554,47.2636,129.099],[29.3442,47.2487,130.1193],[29.3005,47.217,88.1544],[29.2766,47.1964,95.9312],[29.2766,47.1946,90.8985],[29.2481,47.1957,83.3148],[29.2462,47.1939,59.4933],[29.2462,47.1916,22.0222],[29.2512,47.1885,52.317],[29.2512,47.1866,82.7183],[29.2458,47.1821,88.1578],[29.2458,47.1641,8.0],[29.2722,47.159,54.4887],[29.2945,47.15,19.7482],[29.3001,47.1349,17.2421],[29.3079,47.1265,29.5505],[29.3507,47.1172,75.4545],[29.3713,47.0981,68.5084],[29.3818,47.0918,60.7094],[29.3887,47.084,48.0935],[29.3894,47.0764,31.8262],[29.3798,47.0519,7.5],[29.3732,47.0486,25.9687],[29.37,47.0432,13.3475],[29.3703,47.0381,12.7773],[29.3777,47.0294,12.9531],[29.3792,47.0246,10.1985],[29.3792,47.0195,27.0314],[29.3771,47.016,29.7609],[29.3559,47.0094,11.514],[29.3245,47.0079,10.023],[29.3134,47.0052,11.1953],[29.3104,47.0022,11.6055],[29.3092,46.9923,8.1799],[29.3119,46.9848,12.3408],[29.3296,46.9708,42.0451],[29.3483,46.9664,47.4193],[29.3554,46.9604,40.1026],[29.3689,46.9539,32.7825],[29.383,46.95,32.8556],[29.3911,46.95,24.5765],[29.4039,46.9548,10.1342],[29.4147,46.9631,9.9877],[29.4425,46.9769,61.7246],[29.4563,46.9763,68.9114],[29.4647,46.9679,67.3261],[29.4784,46.9595,64.1806],[29.4766,46.9433,43.3677],[29.4766,46.9176,9.4688]]]]}}