{"type":"Feature","properties":{"GID_1":"MDA.19_1","GID_0":"MDA","country":"Moldova","province":"Găgăuzia","VARNAME_1":"UnitateTeritorialăAutonomaGăg","NL_NAME_1":"NA","TYPE_1":"UnitateTeritorialăAutonomă","ENGTYPE_1":"AutonomousTerritory","CC_1":"NA","HASC_1":"MD.GA","ISO_1":"NA","name":"Găgăuzia.province"},
"geometry":{"type": "MultiPolygon","coordinates": [[[[28.4583,45.6597,41.4875],[28.4736,45.6704,44.0844],[28.4968,45.6719,98.096],[28.496,45.6753,95.5182],[28.5184,45.7036,94.6641],[28.5217,45.7099,100.035],[28.4779,45.7115,99.4436],[28.4769,45.71,100.36],[28.4532,45.7091,118.1523],[28.4149,45.7168,80.4539],[28.392,45.7137,38.9955],[28.3614,45.7245,101.1775],[28.3522,45.7336,68.3867],[28.343,45.7382,70.4731],[28.32,45.7413,82.6406],[28.3124,45.7336,118.8981],[28.308,45.7035,103.6119],[28.3078,45.6915,144.5178],[28.3098,45.6711,148.1138],[28.318,45.6609,126.4747],[28.3282,45.6426,139.1499],[28.3282,45.6303,133.036],[28.3221,45.6119,121.9741],[28.3078,45.6017,115.9838],[28.3013,45.5926,123.6361],[28.2893,45.591,58.0096],[28.2672,45.5813,40.4813],[28.26,45.5751,36.3773],[28.26,45.5673,37.248],[28.2631,45.5601,62.7836],[28.2646,45.5447,26.7283],[28.2672,45.5375,45.3401],[28.2715,45.5322,48.3562],[28.2902,45.5404,68.5815],[28.3103,45.5456,104.2021],[28.3308,45.5434,87.6724],[28.3518,45.5383,114.5981],[28.3687,45.5299,90.4054],[28.3927,45.5218,20.5971],[28.4062,45.5197,52.6406],[28.4189,45.5072,2.5],[28.4227,45.4947,2.5],[28.4285,45.4893,2.7222],[28.4355,45.4876,62.3634],[28.4967,45.4957,55.4538],[28.5091,45.5002,67.8104],[28.5163,45.5055,95.1511],[28.5165,45.5183,95.9795],[28.515,45.5307,97.2911],[28.5012,45.5668,95.2275],[28.4784,45.5606,107.9953],[28.4624,45.5623,115.5593],[28.4568,45.6153,72.7674],[28.4583,45.6597,41.4875]]],
[[[28.6612,45.808,130.5464],[28.6847,45.8187,106.6256],[28.7118,45.8187,138.8526],[28.7173,45.8237,140.8036],[28.7274,45.8269,143.8217],[28.7457,45.8276,141.2939],[28.7802,45.8371,132.1813],[28.7904,45.8464,143.2607],[28.7821,45.8664,156.3063],[28.7778,45.8844,164.2397],[28.6836,45.8754,136.2791],[28.6622,45.8669,140.0707],[28.5669,45.8519,86.8765],[28.5552,45.8465,118.2578],[28.5541,45.8326,114.9257],[28.5637,45.8208,101.9088],[28.5862,45.8069,6.9946],[28.6108,45.7983,38.868],[28.6355,45.7994,74.5629],[28.6612,45.808,130.5464]]],
[[[28.4492,45.8636,31.3663],[28.4609,45.8508,30.3847],[28.4888,45.8487,85.8076],[28.5016,45.8604,133.7901],[28.5081,45.8701,89.7717],[28.507,45.8818,55.7179],[28.4995,45.8883,56.164],[28.4738,45.8883,142.3724],[28.4642,45.8851,97.8653],[28.4556,45.8765,81.6684],[28.4492,45.8701,30.592],[28.4492,45.8636,31.3663]]],
[[[28.8241,46.4177,164.7016],[28.8146,46.4233,193.7754],[28.8112,46.4221,207.5564],[28.772,46.4223,141.5655],[28.7661,46.4211,159.1171],[28.7634,46.4174,145.5544],[28.7554,46.4232,125.7466],[28.7138,46.4393,160.2861],[28.6763,46.458,90.3923],[28.6428,46.4708,82.5921],[28.6099,46.4875,142.0139],[28.5856,46.5026,163.0138],[28.5844,46.4981,165.1863],[28.5693,46.48,190.6831],[28.5635,46.4762,165.2907],[28.549,46.4758,167.3036],[28.5413,46.4733,220.7736],[28.5393,46.4607,166.7811],[28.5364,46.4562,148.2218],[28.5213,46.4554,168.6564],[28.5294,46.4413,119.0804],[28.5813,46.4087,170.3019],[28.5871,46.3991,166.0078],[28.589,46.3914,163.3988],[28.5871,46.3626,147.027],[28.5736,46.353,188.9911],[28.5256,46.3511,118.5998],[28.5112,46.3484,94.9326],[28.5169,46.3449,76.6841],[28.5173,46.3397,105.1891],[28.5129,46.3263,75.3392],[28.5028,46.3059,102.9179],[28.5314,46.2916,144.8815],[28.5544,46.2839,176.9232],[28.5678,46.2743,144.4055],[28.5679,46.2455,128.2578],[28.5621,46.2301,168.919],[28.5583,46.2109,177.4825],[28.5487,46.1994,157.1838],[28.5352,46.1975,174.7462],[28.5064,46.1975,91.7264],[28.4899,46.2002,75.4214],[28.4729,46.1877,116.0466],[28.4891,46.1533,125.6221],[28.5083,46.1341,78.2116],[28.5102,46.0976,91.3425],[28.5068,46.088,63.6572],[28.5062,46.0768,133.0739],[28.5085,46.0698,112.3801],[28.5179,46.0674,117.4422],[28.539,46.0674,65.2625],[28.546,46.0651,42.021],[28.5542,46.0569,26.1305],[28.5542,46.0405,53.0401],[28.5495,46.0335,69.1071],[28.5355,46.0288,96.0008],[28.5261,46.0276,113.2892],[28.5167,46.0218,172.9737],[28.5156,46.0136,190.9295],[28.5226,45.9995,162.3094],[28.5378,45.9972,75.6027],[28.5659,45.9984,41.9155],[28.5741,45.989,30.7961],[28.5741,45.9773,44.1026],[28.5636,45.9738,57.7932],[28.5249,45.9726,187.9122],[28.5261,45.9644,177.3559],[28.5308,45.9586,168.8293],[28.5483,45.9492,100.206],[28.5554,45.9422,78.2796],[28.5577,45.9305,106.4296],[28.601,45.9188,17.4055],[28.6127,45.9199,13.2694],[28.6326,45.9328,36.8599],[28.6431,45.9457,21.0871],[28.6572,45.9515,33.4927],[28.6783,45.9527,138.1963],[28.697,45.9504,107.0523],[28.7134,45.9504,144.6708],[28.7333,45.9562,166.1954],[28.7321,45.9668,146.0166],[28.7222,45.9792,106.9765],[28.7244,45.9794,110.7722],[28.7162,45.9899,28.2858],[28.7119,46.0086,78.4689],[28.7119,46.0244,100.1447],[28.7147,46.0403,110.7691],[28.7363,46.0489,74.996],[28.7565,46.0489,61.7421],[28.7723,46.0374,88.8551],[28.7954,46.0143,88.501],[28.8015,46.0047,164.4414],[28.8069,45.9884,168.777],[28.8148,45.9796,169.6436],[28.8221,45.9802,162.692],[28.834,45.9846,159.5643],[28.8495,45.9877,169.3232],[28.9106,45.998,110.013],[28.9077,46.0273,144.6199],[28.9034,46.0345,145.2967],[28.8832,46.0388,176.4864],[28.8717,46.0388,180.6996],[28.8688,46.0424,166.4713],[28.9114,46.1463,191.2094],[28.9162,46.1666,142.7056],[28.9223,46.1668,177.6465],[28.9586,46.1855,193.0256],[28.9624,46.1952,196.8881],[28.9626,46.2023,167.9633],[28.9655,46.212,137.8296],[28.9712,46.2189,186.2685],[29.0023,46.241,188.2492],[28.9601,46.2704,118.2807],[28.9423,46.2736,150.0052],[28.9178,46.275,86.6209],[28.8962,46.288,125.5731],[28.876,46.2966,182.4902],[28.8602,46.2966,163.841],[28.8516,46.2865,216.3737],[28.8285,46.2793,174.8682],[28.8157,46.2793,184.5766],[28.8165,46.2851,113.091],[28.815,46.2915,161.2902],[28.8083,46.2974,128.1998],[28.7982,46.3008,149.7272],[28.7789,46.3006,113.3101],[28.7722,46.3023,126.4941],[28.7651,46.3203,102.466],[28.7767,46.324,138.1355],[28.8069,46.324,215.2992],[28.8285,46.3283,179.9759],[28.8717,46.3326,104.5057],[28.8861,46.3485,157.1902],[28.8861,46.3629,191.5077],[28.8804,46.3758,169.0943],[28.8573,46.3873,149.2714],[28.8386,46.4061,156.0772],[28.8241,46.4177,164.7016]]]]}}