{"type": "Feature","bbox": [27.0267,47.9394,27.564,48.3029],"geometry": {"type": "MultiPolygon","coordinates": [[[[27.0399,48.1264,113.2697],[27.0353,48.1156,93.5026],[27.0416,48.1076,88.425],[27.0423,48.1036,106.4778],[27.0387,48.0982,100.1438],[27.0267,48.0914,87.0],[27.0271,48.0893,88.5283],[27.0435,48.082,87.6572],[27.0449,48.0725,99.1607],[27.0471,48.0693,96.1559],[27.0672,48.0602,86.5],[27.0816,48.0512,87.9161],[27.0852,48.0458,105.036],[27.0838,48.0379,90.3291],[27.0856,48.0349,87.6729],[27.0933,48.0331,86.5],[27.1043,48.034,90.0321],[27.1091,48.033,98.7384],[27.1105,48.0308,108.6877],[27.1097,48.0286,102.0021],[27.0938,48.0222,86.5],[27.091,48.0119,86.5],[27.0935,48.007,86.5],[27.0992,48.0057,87.4267],[27.1037,48.0068,101.805],[27.1141,48.0141,86.5],[27.125,48.0164,88.3281],[27.1324,48.0125,89.9131],[27.1185,48.0008,86.5],[27.1234,47.9941,87.9544],[27.1367,47.9916,86.5],[27.1677,47.9951,88.5041],[27.1607,47.9869,86.5],[27.1548,47.9718,86.5],[27.143,47.9672,86.5],[27.1672,47.9556,86.5],[27.1798,47.9471,86.5],[27.1743,47.942,86.5],[27.1841,47.9394,99.9129],[27.1861,47.9427,106.5263],[27.204,47.9435,116.7567],[27.2089,47.9467,131.489],[27.242,47.9521,121.2962],[27.2534,47.9547,135.0225],[27.2601,47.958,127.7123],[27.2631,47.9617,97.5808],[27.2621,47.9747,168.5628],[27.2672,47.9871,210.1573],[27.2749,48.0003,145.658],[27.2865,48.0111,222.4522],[27.3052,48.0236,166.4823],[27.3239,48.0326,160.4765],[27.3298,48.0324,160.8604],[27.3338,48.0299,145.2726],[27.3518,48.0057,131.118],[27.364,48.0017,172.1066],[27.3715,48.0017,175.9892],[27.3774,48.0035,194.3167],[27.3872,48.0114,179.4909],[27.3919,48.0126,198.5796],[27.3974,48.0132,208.3328],[27.4174,48.0073,234.4682],[27.4379,48.0115,241.7177],[27.4967,48.0285,196.7219],[27.5077,48.0334,185.5781],[27.5184,48.0415,196.9063],[27.5357,48.0472,184.0014],[27.5477,48.0554,209.0311],[27.562,48.0607,197.1832],[27.5622,48.0633,187.3495],[27.5563,48.0704,183.0733],[27.5439,48.1057,194.8368],[27.5423,48.1134,213.0852],[27.5435,48.1183,184.7636],[27.5462,48.1204,190.8696],[27.531,48.1293,226.2456],[27.527,48.1352,205.1876],[27.5247,48.1426,208.5883],[27.5321,48.1504,219.9957],[27.5432,48.1707,207.8149],[27.5477,48.1752,229.4172],[27.5618,48.1763,245.7592],[27.564,48.1878,174.153],[27.5599,48.1941,210.7814],[27.5436,48.2092,235.1292],[27.5307,48.2207,213.8552],[27.511,48.2348,240.9667],[27.5099,48.2373,241.6317],[27.4448,48.234,217.9038],[27.4244,48.2359,171.6279],[27.3966,48.2451,214.3554],[27.3659,48.2622,237.7802],[27.3383,48.2794,255.1924],[27.3115,48.3029,228.4999],[27.3041,48.2988,229.02],[27.2989,48.2981,235.7112],[27.293,48.2948,216.5953],[27.29,48.2911,224.0525],[27.2896,48.2818,236.005],[27.293,48.2774,251.8944],[27.2996,48.2755,248.0208],[27.3018,48.2711,244.1688],[27.303,48.2548,216.9427],[27.3011,48.2492,217.2252],[27.293,48.2392,256.9645],[27.2848,48.2337,232.5448],[27.2578,48.2337,244.4633],[27.243,48.2318,242.663],[27.2363,48.227,220.3253],[27.2234,48.2222,199.538],[27.2141,48.2218,175.5366],[27.2048,48.2237,189.034],[27.1952,48.2277,197.3302],[27.1852,48.2344,220.2735],[27.1826,48.2389,199.6528],[27.1808,48.2537,193.8968],[27.1693,48.2581,217.5155],[27.1593,48.2596,223.5823],[27.1264,48.2433,215.7866],[27.1221,48.239,196.0003],[27.1217,48.1805,233.6501],[27.1095,48.1691,160.9058],[27.0947,48.1631,156.6074],[27.0862,48.1528,239.4444],[27.074,48.1243,142.8762],[27.0569,48.1223,138.8326],[27.0574,48.1266,156.5974],[27.0399,48.1264,113.2697]]]]}
,"properties": {"GID_1": "MDA.16_1","GID_0": "MDA","country": "Moldova","province": "Edineţ","VARNAME_1": "NA","NL_NAME_1": "NA","TYPE_1": "Raion","ENGTYPE_1": "District","CC_1": "NA","HASC_1": "MD.ED","ISO_1": "NA","name": "Edineţ.province","area_km2": 930.1077,"hist_schema_id": "Elevation0-9000","hist_area_km2": {"75": 4.5977,"100": 23.3127,"125": 59.2046,"150": 100.8929,"175": 173.8368,"200": 232.7657,"225": 222.3821,"250": 101.1711,"275": 11.5345,"300": 0.4096}}}