{"type":"Feature","properties":{"ISO3166-1-Alpha-3":"MDA","country":"Moldova","fill":"#FF0","id":"1615","name":"Edineţ"},
"geometry":{"type": "Polygon","coordinates": [[[27.50993,48.23729,241.6317],[27.40337,48.24747,196.2203],[27.31154,48.30289,228.4999],[27.29397,48.2817,240.9316],[27.3011,48.24923,217.2252],[27.27547,48.23354,241.1466],[27.24297,48.23184,242.663],[27.21382,48.22359,179.5701],[27.18525,48.23442,220.2735],[27.17388,48.25323,204.4584],[27.15005,48.2555,267.551],[27.12577,48.23894,197.4142],[27.1221,48.20941,194.2568],[27.11605,48.18094,228.8925],[27.09471,48.16313,156.6074],[27.07983,48.13613,186.6322],[27.05688,48.12228,138.8326],[27.04795,48.12141,117.5085],[27.04742,48.1165,141.8802],[27.03688,48.10735,109.6484],[27.0343,48.10177,96.0044],[27.04174,48.07727,94.8137],[27.05921,48.05805,117.8081],[27.08318,48.04366,86.5],[27.10933,48.0335,98.7384],[27.10933,48.02609,123.9204],[27.08897,48.01981,104.8248],[27.09,48.01562,86.5],[27.09145,48.01185,95.7772],[27.09336,48.00844,89.7576],[27.09579,48.0056,87.5391],[27.12148,48.01319,89.1934],[27.1346,48.00046,98.4267],[27.14375,47.98684,98.03],[27.15718,47.99196,89.3566],[27.16876,47.98307,114.8546],[27.16979,47.97379,116.2087],[27.16287,47.96501,100.7409],[27.15098,47.9578,86.5],[27.17196,47.94643,88.3479],[27.17827,47.94413,86.5],[27.17827,47.9421,86.5],[27.18612,47.94268,106.5263],[27.21444,47.94467,136.0277],[27.24199,47.95211,121.2962],[27.2625,47.97418,168.5628],[27.27795,48.00312,158.8192],[27.30395,48.0241,165.1435],[27.33387,48.02994,145.2726],[27.3519,48.01162,135.6962],[27.37738,48.00348,194.3167],[27.39464,48.01288,208.0661],[27.41572,48.01146,219.9961],[27.43794,48.01154,241.7177],[27.47717,48.02105,178.2506],[27.55726,48.06068,212.3221],[27.55628,48.07045,163.7664],[27.54724,48.09603,175.9743],[27.54615,48.12042,198.7279],[27.53024,48.14778,216.5502],[27.55473,48.17592,238.176],[27.56181,48.18615,199.7737],[27.55287,48.19998,231.9024],[27.50993,48.23729,241.6317]]]}}