{"type":"Feature","properties":{"GID_1":"MDA.13_1","GID_0":"MDA","country":"Moldova","province":"Donduseni","VARNAME_1":"NA","NL_NAME_1":"NA","TYPE_1":"Raion","ENGTYPE_1":"District","CC_1":"NA","HASC_1":"MD.DO","ISO_1":"MD-DO","name":"Donduseni.province"},
"geometry":{"type": "MultiPolygon","coordinates": [[[[27.5462,48.1204,190.8696],[27.5551,48.1193,226.8407],[27.5771,48.1097,219.0858],[27.6071,48.0754,150.287],[27.6103,48.0742,145.5],[27.6647,48.0734,207.1476],[27.6726,48.071,190.1762],[27.681,48.0651,179.1683],[27.6882,48.0547,176.3139],[27.6948,48.0544,129.3191],[27.7106,48.0475,136.0887],[27.7215,48.048,153.4004],[27.7235,48.0509,162.0402],[27.7225,48.0559,146.8803],[27.7165,48.0623,181.5579],[27.7146,48.0672,193.6897],[27.717,48.0741,175.3134],[27.7244,48.0801,182.5109],[27.7632,48.0976,202.4557],[27.7632,48.1045,181.5843],[27.7558,48.1104,202.1112],[27.7558,48.1174,195.9626],[27.7622,48.1208,200.8009],[27.7756,48.1258,191.6769],[27.7924,48.1277,156.718],[27.8506,48.1277,213.3905],[27.8729,48.1213,141.2725],[27.8921,48.1277,172.7867],[27.9,48.1337,212.7509],[27.9,48.1406,240.287],[27.8966,48.146,230.2849],[27.8813,48.1495,174.8418],[27.8788,48.1569,194.8795],[27.8778,48.1746,210.2372],[27.8753,48.1821,222.5034],[27.8516,48.19,224.4599],[27.8422,48.1974,203.8689],[27.8422,48.2033,209.4129],[27.8447,48.2067,202.7118],[27.8497,48.2082,186.1471],[27.861,48.2082,148.4023],[27.8778,48.2063,165.1512],[27.8892,48.2008,163.6201],[27.8971,48.1939,166.0367],[27.9099,48.187,145.2328],[27.9316,48.188,222.2117],[27.952,48.1955,190.4331],[27.9497,48.2052,186.6402],[27.953,48.2125,209.75],[27.9595,48.221,229.4501],[27.9688,48.2272,224.8773],[27.987,48.2354,225.8668],[28.0009,48.2349,207.8774],[28.0118,48.2362,193.8675],[28.0161,48.2406,181.8424],[28.0183,48.2686,218.2397],[28.0118,48.2838,258.5009],[28.0115,48.3037,205.3208],[28.0096,48.3154,195.8944],[28.0036,48.3251,66.1916],[27.9637,48.3239,66.1624],[27.9452,48.3292,67.3368],[27.9269,48.3286,165.9603],[27.8895,48.351,240.9616],[27.871,48.3563,238.1041],[27.8614,48.3677,245.6577],[27.8435,48.3592,262.5094],[27.8365,48.354,240.1559],[27.8261,48.3499,225.6895],[27.8065,48.3481,192.0958],[27.7776,48.3481,206.5623],[27.7691,48.3496,197.3274],[27.7284,48.3629,216.5228],[27.7062,48.3618,256.0329],[27.6899,48.3533,241.3322],[27.6721,48.3488,194.6114],[27.6273,48.3488,195.5105],[27.6084,48.3521,217.7389],[27.5973,48.3573,232.6147],[27.586,48.356,252.1432],[27.579,48.3512,203.0273],[27.5779,48.3409,266.5634],[27.5738,48.3279,199.695],[27.5634,48.3138,235.4306],[27.5371,48.2909,222.5027],[27.5331,48.2698,210.0192],[27.5271,48.2653,242.3438],[27.5227,48.2594,234.4314],[27.5171,48.2468,247.1436],[27.5096,48.2381,241.6317],[27.511,48.2348,240.9667],[27.5307,48.2207,213.8552],[27.5436,48.2092,235.1292],[27.5599,48.1941,210.7814],[27.564,48.1878,174.153],[27.5618,48.1763,245.7592],[27.5477,48.1752,229.4172],[27.5432,48.1707,207.8149],[27.5321,48.1504,219.9957],[27.5247,48.1426,208.5883],[27.527,48.1352,205.1876],[27.531,48.1293,226.2456],[27.5462,48.1204,190.8696]]]]}}