{"type": "Feature","id": "1614","bbox": [27.50993,48.04885,28.01641,48.37844],"geometry": {"type": "Polygon","coordinates": [[[28.00318,48.32588,54.5],[27.96706,48.32889,72.4811],[27.92644,48.33943,133.4576],[27.90453,48.36248,155.5847],[27.89667,48.36718,134.5019],[27.88537,48.37844,80.243],[27.88525,48.37839,80.243],[27.86143,48.36764,245.6577],[27.80846,48.35023,208.9429],[27.70289,48.35643,232.8002],[27.65385,48.34847,235.3576],[27.59163,48.35669,259.8344],[27.57509,48.33948,261.8197],[27.56341,48.31385,235.4306],[27.54502,48.29573,209.9259],[27.52326,48.25468,239.3423],[27.50993,48.23729,241.6317],[27.55287,48.19998,231.9024],[27.56181,48.18615,199.7737],[27.55473,48.17592,238.176],[27.53024,48.14778,216.5502],[27.54615,48.12042,198.7279],[27.57907,48.10564,221.8958],[27.60444,48.07851,147.8158],[27.64682,48.07177,187.3733],[27.68826,48.05464,176.3139],[27.70878,48.04885,154.8607],[27.72299,48.0534,147.023],[27.71741,48.06314,175.0688],[27.71705,48.07412,175.3134],[27.73415,48.08461,193.2555],[27.75332,48.09267,225.6895],[27.75901,48.11133,183.3293],[27.7756,48.12574,191.6769],[27.81508,48.13081,153.6547],[27.85435,48.12644,212.6297],[27.88985,48.13148,182.3655],[27.89187,48.14747,202.8954],[27.88184,48.15458,180.6085],[27.87781,48.16675,226.208],[27.87533,48.18207,216.7647],[27.85161,48.18993,224.4599],[27.85306,48.2091,164.9341],[27.8835,48.20352,149.4173],[27.91636,48.18982,182.9703],[27.95202,48.19551,190.4331],[27.97383,48.22819,227.4433],[28.0161,48.24057,181.8424],[28.01641,48.28318,235.7552],[28.00354,48.32511,66.1916],[28.00318,48.32588,54.5]]]}
,"properties": {"ISO3166-1-Alpha-3": "MDA","country": "Moldova","fill": "#F0F","name": "Donduseni","area_km2": 854.5075,"hist_schema_id": "Elevation0-9000","hist_area_km2": {"50": 2.2972,"75": 3.0159,"100": 1.7193,"125": 6.3345,"150": 43.2948,"175": 130.4564,"200": 238.4052,"225": 265.9649,"250": 137.7083,"275": 22.5869,"300": 2.71,"325": 0.0141}}}