{"type":"Feature","properties":{"featurecla":"River","scalerank":6,"rivernum":231,"dissolve":"231River","name":"Dniester5","name_alt":null,"note":null,"min_zoom":5.0,"strokeweig":0.25,"name_en":"Dniester","min_label":6.0},
"geometry":{"type": "LineString","coordinates": [[28.458886718750023,48.07477448124412,43.0866],[28.446875,48.083026434369117,49.8288],[28.418554687500006,48.12250397343162,54.7905],[28.43515625,48.13495514530662,49.9606],[28.436425781250023,48.15009186405662,39.0],[28.4267578125,48.16364166874412,67.0875],[28.4111328125,48.17096588749412,49.5259],[28.38818359375,48.168817449994116,51.2539],[28.375097656250006,48.15692780155662,55.2773],[28.364501953125,48.14179108280662,162.6478],[28.349023437500023,48.12995026249412,170.056],[28.328125,48.12726471561912,170.2398],[28.31689453125,48.135614324994116,52.2172],[28.315039062500006,48.14960358280662,62.2706],[28.321679687500023,48.163446356244116,51.8906],[28.33740234375,48.175799871869117,52.3867],[28.351660156250006,48.182147528119117,44.9068],[28.362890625,48.191278387494116,44.0],[28.369531250000023,48.21185944218162,49.2736],[28.36767578125,48.23090241093162,73.8448],[28.357177734375,48.23883698124412,63.336],[28.339941406250006,48.24030182499412,78.4596],[28.2939453125,48.23676178593162,46.5],[28.277099609375,48.229364324994116,46.5],[28.26123046875,48.220233465619117,69.7034],[28.23974609375,48.21185944218162,103.7957],[28.216552734375,48.20844147343162,63.5138],[28.199316406250006,48.21198151249412,61.1536],[28.188867187500023,48.22333405155662,61.2913],[28.18515625,48.24262116093162,64.3714],[28.177978515625,48.25910065311912,80.7739],[28.16162109375,48.257440496869116,56.289],[28.13046875,48.23981354374412,120.1307],[28.115136718750023,48.23700592655662,53.6824],[28.092675781250023,48.237665106244116,69.9137],[28.078125,48.24518463749412,90.181],[28.097900390625,48.28436920780662,168.4516],[28.09228515625,48.30231354374412,77.3535],[28.075878906250011,48.315204168744117,58.3675],[28.055419921875,48.32172272343162,81.2209],[27.96640625,48.32916901249412,72.4811],[27.925878906250006,48.33966705936912,133.4576],[27.90390625,48.36273834843162,137.6925],[27.896240234375,48.367450262494117,134.5019],[27.864355468750006,48.399188543744117,147.5747],[27.849365234375,48.409930731244117,81.4173],[27.784765625,48.441766668744116,101.3222],[27.751367187500023,48.45221588749412,74.359],[27.6265625,48.45148346561912,93.7631],[27.6064453125,48.45807526249412,81.871],[27.604248046875,48.484393621869117,73.5268],[27.58251953125,48.48627350468162,78.6506],[27.556640625,48.474627996869117,211.6127],[27.54453125,48.47260162968162,78.0465],[27.50341796875,48.47260162968162,101.1446],[27.494140625,48.48212311405662,102.67],[27.47265625,48.54706452030662,83.7058],[27.458251953125,48.57721588749412,173.7234],[27.43798828125,48.602411199994116,117.0],[27.409570312500023,48.62067291874412,117.0],[27.370214843750006,48.629657293744117,117.0],[27.370214843750006,48.629657293744117,117.0],[27.370214843750006,48.629657293744117,117.0],[27.370214843750006,48.629657293744117,117.0],[27.370214843750006,48.629657293744117,117.0],[27.358496093750006,48.62433502811912,117.0],[27.344921875000011,48.60748932499412,117.0],[27.334863281250023,48.601678778119116,117.0],[27.321679687500023,48.60077545780662,117.0],[27.312402343750023,48.604754949994117,117.0],[27.304296875,48.61078522343162,123.5793],[27.29443359375,48.61591217655662,117.0],[27.254638671875,48.62103912968162,117.0],[27.234277343750023,48.61835358280662,222.3576],[27.23583984375,48.60541412968162,117.0],[27.245214843750006,48.600848699994117,117.0],[27.255273437500023,48.59979889530662,117.0],[27.261621093750023,48.59564850468162,187.3293],[27.260351562500006,48.58185455936912,117.0],[27.25537109375,48.574335028119116,117.0],[27.247314453125,48.57037994999412,117.0],[27.2373046875,48.568719793744116,117.0],[27.226171875,48.56818268436912,117.0],[27.213964843750006,48.570086981244117,117.0],[27.19189453125,48.579608465619117,117.0],[27.18115234375,48.58185455936912,117.0],[27.146679687500011,48.58185455936912,117.0],[27.14111328125,48.57892487186912,117.0],[27.129150390625,48.56525299686912,117.0],[27.12255859375,48.56073639530662,117.0],[27.113183593750023,48.559198309369116,117.0],[27.06982421875,48.56256744999412,120.8568],[27.049707031250023,48.567254949994116,121.2044],[27.03759765625,48.56818268436912,117.0],[27.031640625000023,48.566180731244117,117.0],[27.027441406250006,48.562518621869117,174.5098],[27.023193359375,48.56073639530662,264.3067],[27.016992187500023,48.564471746869117,195.2702],[27.003320312500023,48.57501862186912,117.819],[26.966796875,48.58063385624412,121.4184],[26.945068359375,48.581317449994117,183.6704],[26.924560546875,48.57501862186912,117.0],[26.909423828125,48.563006903119117,119.3085],[26.898828125000023,48.55170319218162,139.2783],[26.884765625,48.54352448124412,117.0],[26.858984375,48.54022858280662,257.7474],[26.841210937500023,48.54621002811912,271.77],[26.827734375,48.56122467655662,254.0549],[26.822509765625,48.58112213749412,117.0],[26.829003906250023,48.601678778119116,117.0],[26.818603515625,48.60651276249412,120.1307],[26.807861328125,48.609002996869116,117.0],[26.79736328125,48.60785553593162,117.0],[26.787353515625,48.601678778119116,117.0],[26.7828125,48.59332916874412,149.4769],[26.7890625,48.57831452030662,119.3108],[26.787353515625,48.56818268436912,176.3286],[26.772558593750006,48.550897528119116,165.9366],[26.75927734375,48.55048248905662,117.5],[26.74951171875,48.56146881718162,161.5391],[26.745703125,48.57843659061912,117.5],[26.740332031250006,48.58881256718162,148.1882],[26.728759765625,48.59503815311912,217.1177],[26.717041015625,48.59467194218162,184.3593],[26.711669921875,48.58527252811912,171.3937],[26.715917968750006,48.577655340619117,122.663],[26.734765625000023,48.56378815311912,126.6515],[26.739013671875,48.557635809369117,128.8868],[26.73388671875,48.54108307499412,142.3759],[26.721582031250023,48.53510162968162,122.8353],[26.7060546875,48.53607819218162,118.0],[26.691162109375,48.54022858280662,118.0],[26.65478515625,48.558710028119116,119.3233],[26.632519531250011,48.56232330936912,132.5702],[26.6123046875,48.550799871869117,195.7398],[26.6142578125,48.54010651249412,194.6987],[26.633056640625,48.533319403119116,167.1326],[26.670654296875,48.526629949994117,160.0192],[26.688232421875,48.51825592655662,118.0],[26.704980468750023,48.50690338749412,120.4504],[26.708740234375,48.49677155155662,128.1529],[26.6875,48.492450262494117,159.2161],[26.65380859375,48.491229559369117,118.0],[26.643310546875,48.492450262494117,132.1474],[26.63916015625,48.496454168744116,136.0639],[26.634375,48.50324127811912,122.4679],[26.627050781250006,48.50824616093162,118.0],[26.615478515625,48.506708074994116,118.3981],[26.606835937500023,48.49225494999412,118.0],[26.621679687500006,48.45819733280662,118.0],[26.60546875,48.45148346561912,118.0],[26.582910156250023,48.45282623905662,118.0],[26.566162109375,48.457294012494117,128.2469],[26.552636718750023,48.46564362186912,118.0],[26.539648437500006,48.47882721561912,118.0],[26.52197265625,48.50678131718162,139.8419],[26.515039062500023,48.514764715619116,134.3178],[26.488867187500006,48.53034088749412,170.2132],[26.4703125,48.537958074994116,155.0618],[26.422119140625,48.529657293744116,149.2527],[26.40380859375,48.53400299686912,125.9782],[26.38037109375,48.51703522343162,173.956],[26.354736328125,48.510028387494117,133.0381],[26.326416015625,48.51141998905662,153.7992],[26.2939453125,48.519794012494117,154.3053],[26.268798828125,48.53009674686912,171.8524],[26.256445312500006,48.533319403119116,172.5285],[26.23876953125,48.53400299686912,122.0196],[26.1806640625,48.526629949994117,124.939],[26.149316406250023,48.53949616093162,120.5],[26.144433593750023,48.567889715619117,122.5],[26.145605468750006,48.59625885624412,123.0],[26.132910156250006,48.609149481244117,124.2918],[26.104736328125,48.61102936405662,128.4433],[26.10205078125,48.606463934369117,128.9878],[26.10205078125,48.59210846561912,125.783],[26.105566406250006,48.58075592655662,126.0455],[26.113671875000023,48.57037994999412,149.7555],[26.129492187500006,48.55451080936912,180.6874],[26.116943359375,48.54181549686912,217.3943],[26.098876953125,48.54071686405662,142.8868],[26.07958984375,48.54718659061912,138.5932],[26.06396484375,48.557635809369117,161.7396],[26.05234375,48.57160065311912,137.5675],[26.051367187500006,48.58295319218162,141.7695],[26.060546875,48.61591217655662,130.8857],[26.060546875,48.609149481244117,152.5691],[26.062109375,48.62824127811912,134.2656],[26.058349609375,48.64179108280662,133.868],[26.048828125,48.64752838749412,134.2877],[26.033203125,48.64325592655662,131.5],[26.028710937500023,48.63764069218162,132.0],[26.024511718750006,48.62128327030662,148.36],[26.019628906250006,48.61591217655662,146.5169],[26.010156250000023,48.615350653119116,138.4117],[25.9853515625,48.623407293744116,225.598],[25.973535156250023,48.61627838749412,148.0941],[25.9599609375,48.596307684369116,218.3079],[25.94384765625,48.58869049686912,227.8094],[25.927636718750023,48.58673737186912,228.7327],[25.911376953125,48.58808014530662,140.3103],[25.86279296875,48.600702215619116,150.8286],[25.862402343750006,48.60346100468162,163.9749],[25.863183593750023,48.612567449994117,224.4604],[25.859375,48.61859772343162,162.9363],[25.83837890625,48.636493231244117,147.5974],[25.82080078125,48.64496491093162,214.3476],[25.808691406250006,48.66095612186912,146.6659],[25.793359375000023,48.66998932499412,148.8524],[25.766357421875,48.65753815311912,267.6098],[25.759765625,48.648700262494117,280.2186],[25.757226562500023,48.63959381718162,276.2428],[25.753173828125,48.63251373905662,275.776],[25.742089843750023,48.629657293744117,276.9694],[25.73095703125,48.63507721561912,145.6601],[25.722753906250006,48.658954168744117,251.9184],[25.71484375,48.66437409061912,256.406],[25.670996093750006,48.66718170780662,163.442],[25.648535156250006,48.67133209843162,168.2454],[25.635986328125,48.67804596561912,193.4431],[25.636962890625,48.68353912968162,239.9915],[25.642675781250006,48.68939850468162,261.1153],[25.64609375,48.69721100468162,173.6697],[25.6396484375,48.70844147343162,195.2277],[25.630126953125,48.716669012494116,155.2014],[25.62744140625,48.718133856244116,163.4691],[25.628173828125,48.72003815311912,179.3765],[25.629150390625,48.72955963749412,233.3032],[25.6328125,48.73602936405662,197.4557],[25.638671875,48.739032293744117,164.5708],[25.639892578125,48.74494049686912,178.0795],[25.629150390625,48.75995514530662,166.1166],[25.622802734375,48.76361725468162,170.5922],[25.595117187500023,48.77423737186912,196.2574],[25.565332031250023,48.793329168744116,153.0],[25.548095703125,48.798944403119116,168.791],[25.522705078125,48.80097077030662,289.2444],[25.50537109375,48.80475494999412,254.5404],[25.48203125,48.813836981244116,234.3073],[25.4609375,48.82526276249412,321.0635],[25.449804687500006,48.835711981244117,157.8548],[25.457128906250006,48.841571356244117,165.1352],[25.4625,48.848260809369116,157.5],[25.470898437500011,48.86237213749412,260.5255],[25.462158203125,48.86359284061912,165.6715],[25.446679687500023,48.868670965619117,163.3161],[25.440185546875,48.86981842655662,168.3126],[25.431396484375,48.86701080936912,186.4452],[25.431054687500023,48.86066315311912,204.8177],[25.4326171875,48.853778387494117,176.4451],[25.430566406250023,48.849383856244117,203.4942],[25.414306640625,48.84686920780662,168.9557],[25.400781250000023,48.84955475468162,168.3242],[25.388427734375,48.85394928593162,228.5279],[25.3759765625,48.856219793744117,165.8308],[25.35595703125,48.854510809369117,234.6493],[25.35107421875,48.849481512494116,275.2983],[25.353515625,48.84076569218162,318.6056],[25.35546875,48.828241278119116,292.4637],[25.353906250000023,48.81378815311912,205.3045],[25.350830078125,48.812860418744116,210.2992],[25.343017578125,48.81622955936912,256.6617],[25.327539062500023,48.814569403119116,215.556],[25.276953125,48.78131744999412,171.2365],[25.250683593750011,48.77509186405662,183.1791],[25.23876953125,48.80097077030662,171.0328],[25.249902343750023,48.81757233280662,218.2743],[25.30625,48.82819244999412,239.8272],[25.327539062500023,48.841913153119116,202.7652],[25.2734375,48.858905340619117,279.1531],[25.249902343750023,48.85932037968162,245.1287],[25.22509765625,48.841913153119116,302.4455],[25.221923828125,48.859637762494117,227.0882],[25.226464843750023,48.88666412968162,251.4028],[25.2353515625,48.91181061405662,264.304],[25.24560546875,48.923846746869117,342.7014],[25.24560546875,48.931268621869116,356.5847],[25.231054687500006,48.932001043744116,187.4516],[25.21923828125,48.929315496869116,198.9349],[25.197167968750023,48.91766998905662,189.0771],[25.188867187500023,48.910663153119117,217.7536],[25.182861328125,48.90350983280662,184.5],[25.1796875,48.895282293744117,224.5528],[25.177832031250006,48.88397858280662,305.5995],[25.1734375,48.87152741093162,270.0461],[25.165283203125,48.86542389530662,186.0],[25.15234375,48.872919012494116,204.8231],[25.128320312500023,48.898065496869116,193.3506],[25.12265625,48.90753815311912,188.5],[25.1220703125,48.91766998905662,198.8045]]}}