{"type":"Feature","properties":{"GID_1":"MDA.3_1","GID_0":"MDA","country":"Moldova","province":"Basarabeasca","VARNAME_1":"NA","NL_NAME_1":"NA","TYPE_1":"Raion","ENGTYPE_1":"District","CC_1":"NA","HASC_1":"MD.BA","ISO_1":"MD-BS","name":"Basarabeasca.province"},
"geometry":{"type": "MultiPolygon","coordinates": [[[[28.8146,46.4233,193.7754],[28.8386,46.4061,156.0772],[28.8573,46.3873,149.2714],[28.8804,46.3758,169.0943],[28.8861,46.3629,191.5077],[28.8861,46.3485,157.1902],[28.8717,46.3326,104.5057],[28.8285,46.3283,179.9759],[28.8069,46.324,215.2992],[28.7767,46.324,138.1355],[28.7651,46.3203,102.466],[28.7722,46.3023,126.4941],[28.7789,46.3006,113.3101],[28.7982,46.3008,149.7272],[28.8083,46.2974,128.1998],[28.815,46.2915,161.2902],[28.8165,46.2851,113.091],[28.8157,46.2793,184.5766],[28.8285,46.2793,174.8682],[28.8516,46.2865,216.3737],[28.8602,46.2966,163.841],[28.876,46.2966,182.4902],[28.8962,46.288,125.5731],[28.9178,46.275,86.6209],[28.9563,46.272,136.8581],[28.9482,46.2779,130.481],[28.9477,46.2888,137.0345],[28.9558,46.2991,175.7186],[28.9641,46.3042,149.9942],[28.964,46.3096,124.9158],[28.9887,46.3261,57.5159],[28.972,46.3474,60.1843],[28.9718,46.3636,91.9515],[28.9627,46.396,110.1519],[28.94,46.4463,162.3925],[28.9367,46.4577,164.4998],[28.9342,46.4606,163.0896],[28.9428,46.4666,139.8434],[28.975,46.4656,130.684],[28.9967,46.4686,131.3748],[29.0008,46.4867,130.4513],[29.0035,46.4875,118.3084],[28.986,46.4865,113.1447],[28.9852,46.4982,110.8866],[29.0291,46.4949,160.0334],[29.0468,46.5018,164.4504],[29.0503,46.5051,195.0643],[29.0542,46.5165,215.999],[29.0597,46.5196,217.8691],[29.0593,46.531,227.5873],[29.0672,46.5484,120.6676],[29.0664,46.5539,153.4395],[29.0601,46.5555,147.3971],[29.034,46.5547,143.0492],[29.0221,46.5508,149.1804],[29.0047,46.5523,239.5021],[28.9746,46.558,149.5214],[28.9746,46.5568,137.838],[28.9714,46.5562,172.7881],[28.9428,46.5541,154.7104],[28.9347,46.5495,119.197],[28.9282,46.5422,96.9296],[28.9241,46.5318,132.2464],[28.914,46.5227,136.8737],[28.9048,46.5207,126.5296],[28.8849,46.5131,187.382],[28.8707,46.4859,128.0897],[28.8662,46.4816,107.5139],[28.8317,46.4774,72.0353],[28.8026,46.4611,147.7889],[28.801,46.4568,171.4571],[28.8014,46.4497,227.7099],[28.8144,46.4288,175.8831],[28.8146,46.4233,193.7754]]]]}}