{"type":"Feature","properties":{"ISO3166-1-Alpha-3":"MDA","country":"Moldova","fill":"#F0F","id":"1630","name":"Basarabeasca"},
"geometry":{"type": "Polygon","coordinates": [[[29.05591,46.49874,205.9831],[29.05598,46.49913,207.9999],[29.05965,46.51954,217.8691],[29.06461,46.5461,152.7206],[29.04586,46.5555,175.0302],[28.97459,46.55799,149.5214],[28.95232,46.55494,186.5744],[28.9315,46.54589,98.3309],[28.9177,46.52951,180.8599],[28.8838,46.50915,174.3329],[28.87439,46.49339,154.4548],[28.85956,46.48075,92.9926],[28.83827,46.47871,71.6962],[28.80876,46.46492,142.1017],[28.80938,46.43727,213.7781],[28.79729,46.4214,213.2979],[28.76339,46.4174,145.5544],[28.75848,46.37973,98.9765],[28.7437,46.34505,148.9307],[28.71585,46.32795,131.7329],[28.70464,46.29986,88.2311],[28.72613,46.29932,107.987],[28.73807,46.32322,141.5849],[28.76112,46.32095,86.3191],[28.77554,46.30146,135.0352],[28.80375,46.29614,143.8129],[28.81393,46.27283,185.967],[28.81047,46.26134,124.6916],[28.80918,46.24896,139.3895],[28.82484,46.2347,127.9296],[28.84566,46.22844,175.67],[28.884,46.23589,151.6434],[28.9148,46.21832,154.3488],[28.91057,46.19103,102.422],[28.9162,46.16664,142.7056],[28.96266,46.19796,196.1638],[28.9841,46.22121,199.4453],[28.98411,46.22122,199.4453],[28.95077,46.24307,112.9489],[28.95061,46.24312,112.9489],[28.93351,46.25899,88.1091],[28.93289,46.27263,124.7402],[28.93992,46.28699,184.2836],[28.94581,46.30498,174.9427],[28.94488,46.32074,113.7448],[28.92731,46.36802,69.4568],[28.91925,46.40466,64.5448],[28.92545,46.43277,91.9433],[28.94581,46.45479,143.6632],[29.02033,46.48951,199.2852],[29.05591,46.49874,205.9831]]]}}