{"type": "Feature","bbox": [27.6717,47.8468,28.1118,48.2082],"geometry": {"type": "MultiPolygon","coordinates": [[[[27.6882,48.0547,176.3139],[27.6903,48.0467,162.5694],[27.6842,48.0398,206.4561],[27.684,48.0347,214.954],[27.6885,48.0264,213.5459],[27.6721,48.0108,155.6458],[27.6717,48.0067,151.4809],[27.678,47.999,157.392],[27.6804,47.988,170.3021],[27.6798,47.9846,147.6707],[27.6717,47.9758,163.2379],[27.6717,47.9709,175.7039],[27.6725,47.9669,197.8382],[27.678,47.9595,169.53],[27.6896,47.9489,159.5286],[27.7256,47.9321,145.2504],[27.7478,47.927,112.4577],[27.7651,47.931,149.2888],[27.7687,47.9379,156.8573],[27.7858,47.956,148.4218],[27.799,47.9649,195.6729],[27.8045,47.9678,177.4129],[27.8098,47.968,164.4716],[27.8193,47.9655,182.0246],[27.8314,47.9613,192.3633],[27.8505,47.9515,194.1517],[27.8592,47.9415,199.5732],[27.8697,47.9223,146.0726],[27.8777,47.9133,152.4926],[27.8925,47.9089,162.7709],[27.9131,47.8997,193.3109],[27.9155,47.8958,191.3128],[27.9157,47.8893,180.1239],[27.9129,47.8808,189.2132],[27.9104,47.8643,185.8754],[27.9182,47.8531,184.6034],[27.9235,47.8498,184.544],[27.9377,47.8468,213.778],[27.9532,47.8484,163.9241],[27.9713,47.8588,130.6778],[27.9767,47.854,122.4379],[27.9826,47.8528,129.1233],[28.0041,47.8538,144.986],[28.0115,47.8552,160.4532],[28.0603,47.8976,148.4552],[28.0684,47.9011,176.5862],[28.0753,47.9129,154.2712],[28.0833,47.9215,142.0136],[28.0845,47.928,150.7198],[28.0741,47.9381,178.539],[28.0706,47.9485,192.9967],[28.0649,47.9542,151.4545],[28.0637,47.9607,128.6074],[28.0646,47.9782,161.6591],[28.0667,47.9839,165.0036],[28.0689,47.9851,161.6443],[28.0542,47.9992,215.7676],[28.0153,48.0057,237.9703],[28.0128,48.0101,220.6712],[28.0194,48.015,205.3714],[28.0343,48.0193,147.4948],[28.0417,48.0231,167.907],[28.0458,48.0291,161.8548],[28.0463,48.0354,183.435],[28.0493,48.043,169.1349],[28.0545,48.0479,151.0241],[28.0777,48.0616,164.0881],[28.1061,48.0674,162.1437],[28.1101,48.0706,181.5],[28.1118,48.0761,181.0724],[28.1107,48.1087,212.2441],[28.1069,48.1128,254.4986],[28.0897,48.1185,304.2715],[28.0734,48.1329,262.4096],[28.0611,48.1471,216.2285],[28.0558,48.1568,176.7714],[28.0384,48.1663,230.1881],[28.002,48.1674,214.6126],[27.9892,48.1717,178.09],[27.9709,48.1818,208.9743],[27.9554,48.1913,196.6624],[27.952,48.1955,190.4331],[27.9316,48.188,222.2117],[27.9099,48.187,145.2328],[27.8971,48.1939,166.0367],[27.8892,48.2008,163.6201],[27.8778,48.2063,165.1512],[27.8497,48.2082,186.1471],[27.8447,48.2067,202.7118],[27.8422,48.2033,209.4129],[27.8422,48.1974,203.8689],[27.8516,48.19,224.4599],[27.8753,48.1821,222.5034],[27.8778,48.1746,210.2372],[27.8788,48.1569,194.8795],[27.8813,48.1495,174.8418],[27.8966,48.146,230.2849],[27.9,48.1406,240.287],[27.9,48.1337,212.7509],[27.8921,48.1277,172.7867],[27.8729,48.1213,141.2725],[27.8506,48.1277,213.3905],[27.7924,48.1277,156.718],[27.7756,48.1258,191.6769],[27.7622,48.1208,200.8009],[27.7558,48.1174,195.9626],[27.7558,48.1104,202.1112],[27.7632,48.1045,181.5843],[27.7632,48.0976,202.4557],[27.7244,48.0801,182.5109],[27.717,48.0741,175.3134],[27.7146,48.0672,193.6897],[27.7165,48.0623,181.5579],[27.7225,48.0559,146.8803],[27.7235,48.0509,162.0402],[27.7215,48.048,153.4004],[27.7106,48.0475,136.0887],[27.6948,48.0544,129.3191],[27.6882,48.0547,176.3139]]]]}
,"properties": {"GID_1": "MDA.14_1","GID_0": "MDA","country": "Moldova","province": "Drochia","VARNAME_1": "NA","NL_NAME_1": "NA","TYPE_1": "Raion","ENGTYPE_1": "District","CC_1": "NA","HASC_1": "MD.DR","ISO_1": "MD-DR","name": "Drochia.province","area_km2": 754.78,"hist_schema_id": "Elevation0-9000","hist_area_km2": {"100": 12.8297,"125": 95.9508,"150": 178.4178,"175": 223.4347,"200": 175.9182,"225": 51.3103,"250": 9.1613,"275": 3.0861,"300": 2.463,"325": 1.3305,"350": 0.8775}}}