{"type":"Feature","properties":{"ISO3166-1-Alpha-3":"MDA","country":"Moldova","fill":"#FF0","id":"1619","name":"Drochia"},
"geometry":{"type": "Polygon","coordinates": [[[27.91636,48.18982,182.9703],[27.8835,48.20352,149.4173],[27.85306,48.2091,164.9341],[27.85161,48.18993,224.4599],[27.87533,48.18207,216.7647],[27.87781,48.16675,226.208],[27.88184,48.15458,180.6085],[27.89187,48.14747,202.8954],[27.88985,48.13148,182.3655],[27.85435,48.12644,212.6297],[27.81508,48.13081,153.6547],[27.7756,48.12574,191.6769],[27.75901,48.11133,183.3293],[27.75332,48.09267,225.6895],[27.73415,48.08461,193.2555],[27.71705,48.07412,175.3134],[27.71741,48.06314,175.0688],[27.72299,48.0534,147.023],[27.70878,48.04885,154.8607],[27.68826,48.05464,176.3139],[27.68351,48.02038,192.3707],[27.67529,48.01345,140.8448],[27.67328,48.00493,142.6728],[27.6787,47.99534,180.6902],[27.67984,47.98456,147.6707],[27.67545,47.97774,145.3219],[27.67209,47.96888,184.6256],[27.6847,47.95271,156.213],[27.70315,47.94245,158.7058],[27.73927,47.92906,125.2611],[27.77172,47.9409,174.2713],[27.79544,47.96219,186.7618],[27.82536,47.9634,178.2944],[27.88866,47.91002,166.3617],[27.90959,47.8992,166.3791],[27.91285,47.88075,189.2132],[27.92169,47.85323,194.6681],[27.95099,47.84804,170.4034],[27.97677,47.85362,120.2287],[28.00416,47.8538,144.986],[28.0684,47.90111,176.5862],[28.07672,47.91155,150.7086],[28.08333,47.92147,142.0136],[28.08059,47.93092,162.2794],[28.07413,47.93811,178.539],[28.06478,47.96134,141.0991],[28.06886,47.98508,161.6443],[28.02731,48.00441,198.7641],[28.03801,48.02123,146.2707],[28.06416,48.05373,116.2909],[28.09031,48.06182,179.3001],[28.11098,48.07335,183.3975],[28.09919,48.11603,288.2615],[28.06116,48.14709,216.2285],[27.95202,48.19551,190.4331],[27.91636,48.18982,182.9703]]]}}