{"type": "Feature","id": "1642","bbox": [27.96918,46.90538,28.5046,47.25091],"geometry": {"type": "Polygon","coordinates": [[[28.32693,47.15717,107.7871],[28.29892,47.15785,219.5441],[28.27128,47.16198,130.7179],[28.24379,47.1733,221.1004],[28.21562,47.18004,197.8714],[28.14901,47.2073,318.9274],[28.09103,47.25091,226.0846],[28.05698,47.24182,296.5409],[28.02762,47.24099,253.6582],[28.00044,47.23683,84.9154],[27.9776,47.19151,121.877],[27.96918,47.13935,119.9223],[27.97651,47.11749,71.1648],[27.99197,47.10508,199.3728],[27.99982,47.10374,162.1653],[28.00752,47.10048,113.4277],[28.01047,47.08718,75.9516],[28.01114,47.07346,79.9391],[28.02085,47.05212,47.9843],[28.04695,47.04979,104.9872],[28.06478,47.04204,73.7226],[28.05155,47.02462,44.1618],[28.03815,47.01548,20.2314],[28.06907,46.9885,28.3853],[28.08271,46.97153,28.1206],[28.10229,46.93512,35.6956],[28.10499,46.92018,26.7516],[28.11397,46.91853,76.0765],[28.22322,46.90538,187.321],[28.25608,46.94127,163.4794],[28.30115,46.97284,205.3056],[28.3259,46.97677,298.4769],[28.34331,46.99377,111.3212],[28.33639,47.00863,120.8282],[28.32662,47.02219,133.0869],[28.34249,47.0423,269.9021],[28.39494,46.99326,248.9799],[28.40801,46.97367,156.3645],[28.39788,46.94571,112.2579],[28.42403,46.93657,136.5029],[28.46357,46.97602,184.882],[28.49116,47.01713,271.0784],[28.46145,47.03217,322.3166],[28.47194,47.04287,303.0837],[28.48682,47.04907,157.4124],[28.49664,47.05581,156.0124],[28.5046,47.06369,159.5963],[28.48238,47.08188,210.3726],[28.45271,47.07338,255.8297],[28.43447,47.07708,236.2707],[28.41866,47.08555,262.1377],[28.39876,47.08369,370.6102],[28.37975,47.07645,367.9015],[28.349,47.07914,353.5112],[28.33391,47.1055,267.9969],[28.34435,47.118,314.1466],[28.35169,47.13237,225.6769],[28.33959,47.14725,170.7682],[28.32693,47.15717,107.7871]]]}
,"properties": {"ISO3166-1-Alpha-3": "MDA","country": "Moldova","fill": "#FF0","name": "Nisporeni","area_km2": 832.5028,"hist_schema_id": "Elevation0-9000","hist_area_km2": {"25": 10.1104,"50": 30.3041,"75": 53.1043,"100": 67.9467,"125": 78.8898,"150": 83.5587,"175": 88.7511,"200": 86.3922,"225": 71.9621,"250": 54.3105,"275": 47.6573,"300": 45.6521,"325": 41.2728,"350": 35.3851,"375": 28.8051,"400": 7.7239,"425": 0.6769}}}