{"type":"Feature","properties":{"GID_1":"MDA.24_1","GID_0":"MDA","country":"Moldova","province":"Nisporeni","VARNAME_1":"NA","NL_NAME_1":"NA","TYPE_1":"Raion","ENGTYPE_1":"District","CC_1":"NA","HASC_1":"MD.NI","ISO_1":"MD-NI","name":"Nisporeni.province"},
"geometry":{"type": "MultiPolygon","coordinates": [[[[28.091,47.2509,226.0846],[28.0415,47.2381,367.1839],[28.0057,47.2386,122.3949],[28.0004,47.2368,84.9154],[27.99,47.2229,89.0401],[27.9876,47.2058,90.4259],[27.9829,47.1886,83.9984],[27.9734,47.1727,99.5221],[27.9672,47.1508,122.5412],[27.9733,47.118,52.7394],[27.9805,47.1076,86.1436],[27.9853,47.1053,132.7839],[28.0009,47.1046,152.5048],[28.0062,47.1026,129.4971],[28.0089,47.0984,123.2719],[28.0129,47.0563,93.3397],[28.0171,47.0515,71.1274],[28.0239,47.05,53.0013],[28.0575,47.0498,118.2066],[28.0654,47.0483,72.3781],[28.0648,47.0405,73.7226],[28.0591,47.031,52.5146],[28.0503,47.0246,44.1618],[28.0542,47.0191,29.7809],[28.0552,47.0142,42.0572],[28.053,47.014,28.9104],[28.0468,47.0188,28.8766],[28.0425,47.0192,26.4757],[28.0385,47.0175,20.3521],[28.0338,47.012,35.0487],[28.0365,47.0104,43.3384],[28.041,47.0119,33.3393],[28.0443,47.0095,45.5642],[28.0419,47.0073,31.4744],[28.0517,47.0018,27.833],[28.0547,47.0021,38.7336],[28.0531,47.0061,31.7023],[28.056,47.0055,42.8761],[28.0575,47.0034,30.4389],[28.0558,47.0,27.828],[28.0827,46.9908,31.1047],[28.0836,46.9891,46.3381],[28.0795,46.9866,38.9417],[28.0797,46.9853,30.1415],[28.0867,46.985,27.9742],[28.0977,46.9792,54.347],[28.0975,46.9769,52.7158],[28.0954,46.9752,37.7374],[28.0862,46.9722,29.5771],[28.0872,46.9655,33.196],[28.0799,46.9636,45.2361],[28.086,46.9571,45.2681],[28.0951,46.9569,25.078],[28.0949,46.9544,28.0615],[28.0914,46.9502,50.2184],[28.0918,46.9477,33.3039],[28.0968,46.9505,38.2661],[28.1,46.949,57.4337],[28.0966,46.9402,30.9633],[28.0932,46.9399,29.7979],[28.0894,46.942,26.9862],[28.0918,46.938,34.8842],[28.0904,46.9355,28.6157],[28.0889,46.9354,26.8741],[28.0864,46.9389,30.5947],[28.0828,46.9382,27.6813],[28.0855,46.9345,34.6332],[28.105,46.9326,36.1367],[28.1075,46.9288,26.3778],[28.1009,46.9302,32.2895],[28.0977,46.9288,35.9596],[28.1138,46.9229,28.3739],[28.114,46.9186,76.0765],[28.1539,46.9175,138.3708],[28.166,46.9139,151.6548],[28.1843,46.9054,41.8781],[28.2,46.9044,121.5479],[28.2281,46.9057,178.0523],[28.2415,46.923,181.5731],[28.2585,46.9557,172.6465],[28.2696,46.9668,127.8619],[28.2791,46.9737,211.8336],[28.2869,46.9753,304.4715],[28.2962,46.9732,252.9657],[28.3172,46.9732,205.9265],[28.3348,46.9823,216.4472],[28.3387,46.9866,152.3231],[28.3453,46.999,164.3909],[28.343,47.0036,169.8335],[28.3302,47.0166,116.5597],[28.3266,47.0222,133.0869],[28.3266,47.0264,159.9947],[28.3374,47.0425,325.2745],[28.3518,47.0444,273.4509],[28.3554,47.0425,298.5508],[28.3587,47.0366,278.217],[28.3698,47.0081,231.0117],[28.3753,47.001,177.7699],[28.3832,46.9941,194.1088],[28.3894,46.9915,184.2285],[28.4057,46.9912,244.9881],[28.4116,46.9879,261.4079],[28.4132,46.9794,196.6493],[28.4106,46.9751,182.3945],[28.4008,46.9686,173.8745],[28.4002,46.9353,83.6969],[28.4041,46.9307,131.0894],[28.4175,46.931,117.3465],[28.4399,46.9498,211.5573],[28.449,46.9665,270.8095],[28.4918,47.0086,314.0906],[28.4928,47.0119,298.1054],[28.4912,47.0171,271.0784],[28.4849,47.0237,330.7294],[28.4676,47.0273,351.7981],[28.4624,47.0292,331.4311],[28.4614,47.0322,322.3166],[28.4686,47.0407,297.5302],[28.4868,47.0491,157.4124],[28.4894,47.0524,217.9899],[28.4998,47.0566,179.5134],[28.5044,47.0608,160.9542],[28.503,47.0689,198.8711],[28.4993,47.0739,215.7937],[28.4884,47.0822,194.7069],[28.4805,47.0854,224.1206],[28.4751,47.0842,321.4513],[28.4466,47.0712,201.5863],[28.4368,47.072,293.692],[28.4186,47.0856,262.1377],[28.4098,47.0883,322.7677],[28.3864,47.0799,314.8001],[28.3721,47.071,337.5751],[28.3627,47.072,285.5152],[28.348,47.0794,338.3417],[28.3337,47.0964,332.4822],[28.3339,47.1055,267.9969],[28.3371,47.1109,346.4946],[28.3509,47.1215,252.3576],[28.3517,47.1323,225.6769],[28.3438,47.1471,123.3891],[28.3258,47.152,233.5433],[28.3269,47.1572,107.7871],[28.2947,47.1573,211.871],[28.28,47.1593,175.4861],[28.2516,47.1677,173.6479],[28.2389,47.1774,270.8402],[28.2314,47.1802,266.2817],[28.2018,47.1799,187.8498],[28.1791,47.1857,270.1732],[28.1642,47.1921,371.7516],[28.1478,47.2041,374.2841],[28.1196,47.2305,238.968],[28.0978,47.248,248.2434],[28.091,47.2509,226.0846]]]]}}