{"type":"Feature","properties":{"GID_1":"MDA.6_1","GID_0":"MDA","country":"Moldova","province":"Cahul","VARNAME_1":"NA","NL_NAME_1":"NA","TYPE_1":"Raion","ENGTYPE_1":"District","CC_1":"NA","HASC_1":"MD.CH","ISO_1":"MD-CA","name":"Cahul.province"},
"geometry":{"type": "MultiPolygon","coordinates": [[[[28.4985,45.5668,99.3614],[28.5012,45.5668,95.2275],[28.5034,45.5712,101.0052],[28.5094,45.5745,76.7391],[28.5341,45.5767,87.3493],[28.5442,45.5799,100.4176],[28.5478,45.5836,101.613],[28.5469,45.5968,107.6659],[28.5276,45.6647,117.7351],[28.5236,45.6697,131.956],[28.5165,45.6706,136.3521],[28.5065,45.6678,123.038],[28.5006,45.6683,92.5919],[28.4968,45.6719,98.096],[28.4736,45.6704,44.0844],[28.4583,45.6597,41.4875],[28.4568,45.6153,72.7674],[28.4624,45.5623,115.5593],[28.4784,45.5606,107.9953],[28.4985,45.5668,99.3614]]],
[[[28.4593,46.0838,226.332],[28.4586,46.088,218.7196],[28.4467,46.0881,218.11],[28.4406,46.0933,227.7512],[28.4406,46.0969,230.2758],[28.3805,46.0787,220.8392],[28.3244,46.0882,141.5175],[28.3029,46.1109,251.3874],[28.2903,46.114,226.8585],[28.2739,46.1128,209.7663],[28.2664,46.1058,177.078],[28.2594,46.0932,111.6749],[28.2474,46.08,176.8751],[28.2399,46.0762,146.9845],[28.2329,46.0762,73.4974],[28.2247,46.0837,107.6008],[28.2153,46.0888,136.175],[28.173,46.0888,12.0323],[28.1346,46.0913,8.3876],[28.1099,46.1015,19.4311],[28.1084,46.0986,14.6425],[28.1038,46.0987,17.8825],[28.1086,46.0957,15.5161],[28.1071,46.0898,20.6162],[28.1131,46.0872,13.5805],[28.1086,46.0833,23.1237],[28.1104,46.0785,20.8153],[28.1071,46.0783,15.3982],[28.1013,46.0812,12.6333],[28.0984,46.0785,17.9872],[28.0938,46.0789,12.5589],[28.0949,46.0742,15.5404],[28.0918,46.0722,16.5801],[28.0904,46.0691,22.924],[28.1021,46.0644,19.6301],[28.0997,46.0606,17.2092],[28.0917,46.0603,20.4233],[28.0905,46.0581,18.8977],[28.0944,46.0536,14.2648],[28.1037,46.0544,12.8298],[28.1066,46.053,9.1699],[28.102,46.0476,17.4314],[28.1052,46.0433,12.8541],[28.0987,46.0437,16.618],[28.0918,46.035,15.6375],[28.0921,46.0306,16.1443],[28.089,46.0206,12.0255],[28.0962,46.0174,10.2565],[28.0973,46.0152,13.1153],[28.0868,46.0084,14.0367],[28.0926,46.0052,17.7713],[28.0974,45.9989,19.7611],[28.1007,45.9911,21.5089],[28.1068,45.9894,10.7821],[28.1052,45.9849,20.3181],[28.1005,45.9818,12.474],[28.0999,45.9787,16.9978],[28.1086,45.9784,17.3429],[28.108,45.976,17.6001],[28.103,45.9729,14.1122],[28.1098,45.9686,11.1636],[28.1066,45.963,10.3302],[28.1162,45.9542,10.3957],[28.1168,45.9498,20.459],[28.1197,45.9448,12.9922],[28.1159,45.9358,19.059],[28.1223,45.9315,12.4887],[28.1272,45.9227,10.3536],[28.1219,45.9186,10.9425],[28.1212,45.914,12.5237],[28.1176,45.9096,16.2856],[28.1215,45.9033,16.3529],[28.1212,45.9009,12.8011],[28.1137,45.8992,13.3309],[28.1142,45.8956,10.0541],[28.1179,45.8928,16.8183],[28.1197,45.8878,15.5157],[28.1141,45.8848,10.4053],[28.1166,45.8829,13.2437],[28.1228,45.8838,21.3226],[28.1246,45.8823,11.0559],[28.1284,45.8855,10.5012],[28.132,45.8819,11.2746],[28.1295,45.8778,11.6855],[28.1341,45.8766,10.2177],[28.1291,45.8709,9.5706],[28.1284,45.863,12.8223],[28.1218,45.8639,13.5836],[28.1159,45.8604,12.6878],[28.1074,45.8599,14.5407],[28.1118,45.8518,8.8984],[28.1156,45.8495,14.0724],[28.1137,45.845,17.9565],[28.1069,45.8433,14.3838],[28.1104,45.8409,11.2447],[28.1141,45.8348,8.1145],[28.1104,45.8313,17.2975],[28.1135,45.8269,13.2556],[28.1109,45.8247,16.6947],[28.1145,45.8211,8.146],[28.1092,45.8167,14.7149],[28.1129,45.8149,14.6433],[28.1201,45.8151,8.9794],[28.1226,45.8067,10.4056],[28.1212,45.8023,10.0137],[28.124,45.798,9.2531],[28.1204,45.7948,9.2606],[28.1146,45.7962,9.7476],[28.1155,45.7907,11.0038],[28.122,45.7913,12.5866],[28.1287,45.7834,9.1111],[28.1368,45.7785,15.4134],[28.153,45.7838,8.3842],[28.1553,45.7827,7.6768],[28.1538,45.7801,10.7534],[28.1566,45.7788,9.0727],[28.1566,45.7758,10.1325],[28.1513,45.7734,8.1782],[28.1515,45.7705,7.3475],[28.1495,45.7676,6.5608],[28.1513,45.7644,5.385],[28.1461,45.7643,10.0354],[28.1449,45.7606,7.4426],[28.153199999999998,45.7544,7.2519],[28.1511,45.7514,9.3403],[28.1526,45.7445,8.1676],[28.1574,45.7443,10.3459],[28.1589,45.7402,8.8175],[28.1684,45.7367,10.3244],[28.1666,45.7325,11.4904],[28.1677,45.731,7.8779],[28.1641,45.7295,13.3647],[28.1623,45.7255,9.6094],[28.1687,45.724,11.015],[28.1656,45.7175,6.809],[28.1724,45.7097,9.2981],[28.1705,45.7074,9.4596],[28.1617,45.7038,12.8328],[28.1659,45.6976,7.3215],[28.164,45.693,7.474],[28.1682,45.6825,6.4096],[28.1729,45.6796,8.7598],[28.1712,45.6781,7.2924],[28.1719,45.6746,11.6052],[28.1689,45.6715,7.5103],[28.1682,45.6664,7.2947],[28.1636,45.6607,9.4155],[28.1674,45.6537,9.6623],[28.1593,45.6514,6.7951],[28.1613,45.6497,8.5504],[28.1727,45.649,6.5956],[28.1757,45.6449,23.6821],[28.1731,45.6409,10.2558],[28.1583,45.6368,11.5124],[28.1511,45.6264,7.5817],[28.1473,45.6253,6.7127],[28.1456,45.6217,6.5746],[28.1427,45.6226,10.2704],[28.141,45.6257,8.1214],[28.1385,45.6257,7.9679],[28.1318,45.6239,8.9924],[28.1333,45.6201,6.1184],[28.1313,45.6191,5.8369],[28.1239,45.6229,8.7377],[28.1217,45.6269,7.011],[28.1143,45.6264,7.7389],[28.1111,45.6216,8.1353],[28.1021,45.618899999999996,7.7764],[28.1004,45.6159,10.6931],[28.091,45.6104,7.7803],[28.09,45.6055,8.1204],[28.0936,45.5988,5.0304],[28.1016,45.5957,5.4586],[28.1073,45.5887,7.5853],[28.1147,45.5864,6.0423],[28.1192,45.5808,6.452],[28.1225,45.5793,5.7353],[28.1188,45.5763,7.6993],[28.1226,45.5725,11.1345],[28.1266,45.5741,11.9969],[28.1285,45.5715,9.5964],[28.1322,45.5758,9.3162],[28.134,45.5718,9.2304],[28.1358,45.5713,8.3635],[28.1373,45.5729,9.0484],[28.1363,45.5773,10.0429],[28.14,45.5778,12.8152],[28.147,45.5663,6.656],[28.1548,45.5743,10.9829],[28.1581,45.5754,4.5268],[28.1568,45.5664,5.27],[28.1497,45.5627,5.4607],[28.1603,45.561,26.1328],[28.1569,45.5552,4.1869],[28.1628,45.5472,4.6575],[28.1668,45.5456,47.4578],[28.1674,45.5373,21.3533],[28.1636,45.5339,7.4298],[28.167,45.5312,8.9135],[28.1678,45.5287,20.5941],[28.1669,45.5247,14.0078],[28.1607,45.5259,4.9594],[28.1585,45.5246,4.8957],[28.1683,45.5204,48.2339],[28.1638,45.5124,4.7334],[28.1558,45.5102,3.8587],[28.1654,45.5086,23.7146],[28.1638,45.5005,5.3673],[28.1738,45.5008,43.2397],[28.1781,45.495,44.6995],[28.1802,45.4846,4.9205],[28.1837,45.4828,5.8673],[28.1868,45.4754,4.1125],[28.1895,45.4736,5.8728],[28.204,45.4707,11.3383],[28.2142,45.4668,1.3489],[28.2163,45.4689,9.4665],[28.229,45.4929,113.0076],[28.2481,45.5122,92.3852],[28.2715,45.5322,48.3562],[28.2672,45.5375,45.3401],[28.2646,45.5447,26.7283],[28.2631,45.5601,62.7836],[28.26,45.5673,37.248],[28.26,45.5751,36.3773],[28.2672,45.5813,40.4813],[28.2893,45.591,58.0096],[28.3013,45.5926,123.6361],[28.3078,45.6017,115.9838],[28.3221,45.6119,121.9741],[28.3282,45.6303,133.036],[28.3282,45.6426,139.1499],[28.318,45.6609,126.4747],[28.3098,45.6711,148.1138],[28.3078,45.6915,144.5178],[28.308,45.7035,103.6119],[28.3124,45.7336,118.8981],[28.32,45.7413,82.6406],[28.343,45.7382,70.4731],[28.3522,45.7336,68.3867],[28.3614,45.7245,101.1775],[28.392,45.7137,38.9955],[28.4149,45.7168,80.4539],[28.4532,45.7091,118.1523],[28.4769,45.71,100.36],[28.4779,45.7115,99.4436],[28.5217,45.7099,100.035],[28.5293,45.7225,118.2642],[28.5419,45.7331,115.8751],[28.5499,45.7374,85.4988],[28.5439,45.7548,75.3482],[28.5388,45.7858,123.0998],[28.5299,45.797,88.4068],[28.518,45.8028,83.7002],[28.5149,45.8027,114.7782],[28.5099,45.8113,62.2556],[28.4969,45.8184,84.7751],[28.4475,45.8246,158.3014],[28.437,45.8276,152.9868],[28.4285,45.8341,153.5726],[28.4227,45.8437,140.7906],[28.422,45.8511,157.2593],[28.4135,45.8593,165.7066],[28.3985,45.8661,159.309],[28.3917,45.8655,160.866],[28.3953,45.8806,108.8729],[28.4014,45.8891,55.5802],[28.4102,45.8969,58.2394],[28.4215,45.8993,82.8194],[28.4378,45.8993,149.6597],[28.4508,45.9041,146.0634],[28.4617,45.9119,167.5206],[28.4681,45.9239,103.4418],[28.4658,45.9331,136.8618],[28.4453,45.9491,162.7559],[28.4402,45.9569,181.3566],[28.4385,46.0083,184.6925],[28.4429,46.0362,209.3251],[28.4504,46.056,197.7428],[28.4566,46.0655,220.681],[28.4603,46.0778,224.7036],[28.4593,46.0838,226.332]]]]}}