{"type":"Feature","properties":{"id":132929.0,"name":null,"lge_id":null,"pfafstette":181315.0,"lke_type":"N","altitude":3,"objectid":82075,"scalerank":12,"featurecla":"Lake","note":"_untitled_82075","funkyname":0,"min_zoom":7.0,"min_label":8.0},
"geometry":{"type": "Polygon","coordinates": [[[28.140635612896233,45.816473699994077,9.6228],[28.149668816021233,45.794195867962827,5.0],[28.178477409771233,45.827582098431577,7.7707],[28.184580925396233,45.863165594525327,39.3247],[28.170420769146233,45.869513250775327,6.0557],[28.157603386333733,45.867438055462827,6.3265],[28.145518425396233,45.865607000775327,6.94],[28.134165886333733,45.849493719525327,6.5],[28.133555534771233,45.833990789837827,8.3209],[28.140635612896233,45.816473699994077,9.6228]]]}}