{"type":"Feature","properties":{"ISO3166-1-Alpha-3":"MDA","country":"Moldova","fill":"#F0F","id":"1624","name":"Cahul"},
"geometry":{"type": "Polygon","coordinates": [[[28.39344,46.08486,110.8319],[28.34517,46.08564,231.581],[28.30611,46.10633,242.0686],[28.26637,46.10582,177.078],[28.25521,46.08913,141.3012],[28.23986,46.07618,146.9845],[28.20172,46.08879,111.2175],[28.15454,46.09057,8.9968],[28.11051,46.10149,19.4311],[28.10782,46.0961,15.5161],[28.1008,46.08199,12.6333],[28.09284,46.07838,10.7203],[28.09015,46.07336,11.0774],[28.09046,46.06799,14.4784],[28.09656,46.06504,11.095],[28.09687,46.05967,16.9416],[28.08447,46.02458,49.07],[28.08271,46.01471,43.2403],[28.08612,46.00055,40.3895],[28.11051,45.95043,10.0],[28.11237,45.93921,10.0],[28.11485,45.93322,18.1542],[28.12085,45.92629,22.1646],[28.12498,45.91839,10.7978],[28.12281,45.91079,16.5451],[28.11878,45.90314,15.0654],[28.11744,45.89524,10.3558],[28.12023,45.88785,18.6917],[28.12911,45.87513,9.927],[28.13108,45.87136,11.0065],[28.12818,45.8664,9.3792],[28.11496,45.85973,12.6878],[28.11051,45.85431,11.6964],[28.1133,45.82537,9.4981],[28.12891,45.79504,5.0],[28.14648,45.77116,8.467],[28.15495,45.76181,7.1499],[28.16374,45.6615,9.4155],[28.16177,45.64543,19.7482],[28.16798,45.63246,6.5623],[28.15371,45.6275,6.1433],[28.12085,45.62771,7.4509],[28.10772,45.6244,4.4526],[28.09118,45.61598,4.0844],[28.07475,45.60487,4.3547],[28.06214,45.5936,4.149],[28.118,45.57272,5.0776],[28.14095,45.56022,3.6512],[28.15774,45.53893,4.4034],[28.16157,45.53273,4.8274],[28.16405,45.53061,4.8406],[28.16539,45.52828,7.3036],[28.16591,45.49459,2.6725],[28.17294,45.48436,4.6013],[28.1995,45.46177,7.8974],[28.20156,45.46885,6.9648],[28.20849,45.48141,58.2671],[28.21717,45.49314,110.6827],[28.21717,45.49319,110.6827],[28.21727,45.49335,110.6827],[28.27042,45.52147,108.5263],[28.27045,45.52174,108.5263],[28.27148,45.53216,48.3562],[28.28048,45.58528,51.9436],[28.352,45.589,95.943],[28.42584,45.56719,36.4051],[28.50124,45.56678,95.2275],[28.50315,45.56626,95.9052],[28.50374,45.5661,95.9052],[28.5046,45.56725,97.9918],[28.51044,45.57102,89.5274],[28.53689,45.5798,87.1543],[28.5231,45.59324,106.4835],[28.51875,45.60704,110.2429],[28.51689,45.62099,112.2995],[28.51131,45.63505,121.8051],[28.4985,45.6443,124.9371],[28.48289,45.65075,130.1954],[28.474,45.65794,112.1632],[28.48093,45.66946,90.2229],[28.50418,45.6937,93.5681],[28.51524,45.70202,89.3774],[28.5325,45.71008,123.6832],[28.56144,45.71659,58.2872],[28.56764,45.7246,57.7487],[28.56353,45.73549,82.1121],[28.56309,45.73555,82.1121],[28.54992,45.73742,85.4988],[28.54061,45.77705,119.6667],[28.51493,45.80268,114.7782],[28.49896,45.78333,119.7089],[28.50046,45.75408,129.8933],[28.48759,45.72194,113.2136],[28.46,45.69664,97.9416],[28.40088,45.66223,77.6401],[28.33753,45.67055,147.2877],[28.29665,45.71008,134.2865],[28.30197,45.76057,113.8655],[28.32585,45.79183,149.9678],[28.37995,45.83643,101.8812],[28.39168,45.86552,160.866],[28.40708,45.89182,48.334],[28.43783,45.89932,149.6597],[28.45664,45.90774,157.1153],[28.46816,45.92386,103.4418],[28.45933,45.9381,151.4216],[28.44532,45.94906,162.7559],[28.43773,45.97921,203.6594],[28.43897,46.0112,180.443],[28.45225,46.05016,182.7267],[28.45866,46.08794,218.7196],[28.44713,46.08866,218.11],[28.44057,46.09688,230.2758],[28.39344,46.08486,110.8319]]]}}