{"type":"Feature","properties":{"featurecla":"River","scalerank":7,"rivernum":554,"dissolve":"554River","name":"Prut3","name_alt":null,"note":null,"min_zoom":6.0,"strokeweig":0.3,"name_en":"Prut","min_label":7.0},
"geometry":{"type": "LineString","coordinates": [[28.201904296875,46.35419342655662,18.1108],[28.189843750000023,46.35138580936912,15.6861],[28.187402343750023,46.34406159061912,16.8656],[28.19140625,46.32379791874412,15.9118],[28.1923828125,46.31146881718162,13.7296],[28.190820312500023,46.30805084843162,13.6819],[28.17724609375,46.28729889530662,14.0805],[28.165283203125,46.27912018436912,14.7067],[28.15576171875,46.275653387494117,14.1244],[28.144238281250011,46.273211981244117,14.5895],[28.134667968750023,46.26959869999412,14.6348],[28.13046875,46.26264069218162,13.9898],[28.133886718750006,46.24555084843162,14.2753],[28.131591796875,46.240106512494116,12.5207],[28.120214843750006,46.23810455936912,14.4461],[28.108496093750006,46.234393621869117,13.0019],[28.110595703125,46.22589752811912,11.8865],[28.128808593750023,46.20490143436912,11.7732],[28.135156250000023,46.199090887494116,9.9503],[28.141015625000023,46.192254949994116,16.7845],[28.144238281250011,46.183465887494116,11.9953],[28.132714843750023,46.16022369999412,12.1099],[28.126855468750023,46.13556549686912,17.3795],[28.100341796875,46.08222077030662,11.3948],[28.09228515625,46.07855866093162,10.7203],[28.089599609375,46.073602606244116,11.0774],[28.08984375,46.06830475468162,14.4784],[28.095898437500011,46.065301824994116,11.095],[28.096435546875,46.06000397343162,16.9416],[28.083886718750023,46.02484772343162,49.07],[28.082128906250006,46.01496002811912,43.2403],[28.085693359375,46.00079987186912,40.3895],[28.109960937500006,45.95075104374412,10.0],[28.111914062500006,45.939471746869117,10.0],[28.1142578125,45.933465887494116,18.1542],[28.120214843750006,45.926532293744117,22.1646],[28.12451171875,45.91864655155662,10.7978],[28.122314453125,45.91107819218162,16.5451],[28.118261718750006,45.90338776249412,15.0654],[28.116796875,45.895526434369117,9.7919],[28.11962890625,45.88812897343162,15.5157],[28.128662109375,45.875360418744116,9.927],[28.13046875,45.87164948124412,11.0065],[28.127685546875,45.86664459843162,9.3792],[28.114355468750006,45.859979559369116,12.6878],[28.109960937500006,45.854510809369117,11.6964],[28.11279296875,45.825555731244116,13.2556],[28.128320312500023,45.79523346561912,8.1774],[28.145898437500023,45.77142975468162,8.467],[28.154541015625,45.76203034061912,7.1499],[28.163183593750006,45.661737371869116,8.1088],[28.161230468750006,45.64569733280662,19.9863],[28.16748046875,45.632684637494116,6.5623],[28.153222656250023,45.62775299686912,6.1433],[28.120214843750006,45.62799713749412,7.4509],[28.107177734375,45.624627996869116,4.4526],[28.090722656250023,45.616229559369117,4.0844],[28.07421875,45.605096746869116,4.3547],[28.061621093750006,45.593866278119116,4.0895],[28.117431640625,45.57294342655662,5.0776],[28.140380859375,45.56049225468162,3.6618],[28.1572265625,45.53925202030662,4.4034],[28.161035156250023,45.532977606244117,4.6495],[28.163476562500023,45.53082916874412,4.8406],[28.164941406250023,45.52850983280662,4.6596],[28.165429687500023,45.49481842655662,2.6725],[28.172460937500006,45.484637762494117,4.6013],[28.21240234375,45.450458074994117,6.7444]]}}