{"type": "Feature","id": "1653","bbox": [27.95202,47.98508,28.54341,48.32588],"geometry": {"type": "Polygon","coordinates": [[[28.11558,48.23675,53.6824],[28.09325,48.23744,69.9137],[28.07868,48.24491,90.181],[28.09832,48.28411,168.4516],[28.09284,48.30207,70.5641],[28.0764,48.31493,58.3675],[28.05594,48.3215,81.2209],[28.00318,48.32588,54.5],[28.00354,48.32511,66.1916],[28.01641,48.28318,235.7552],[28.0161,48.24057,181.8424],[27.97383,48.22819,227.4433],[27.95202,48.19551,190.4331],[28.06116,48.14709,216.2285],[28.09919,48.11603,288.2615],[28.11098,48.07335,183.3975],[28.09031,48.06182,179.3001],[28.06416,48.05373,116.2909],[28.03801,48.02123,146.2707],[28.02731,48.00441,198.7641],[28.06886,47.98508,161.6443],[28.13754,47.99314,123.7968],[28.20751,47.99314,322.8993],[28.24079,47.99079,325.8192],[28.27288,47.99578,192.7058],[28.27965,48.00606,154.9829],[28.28714,48.01505,175.9592],[28.30476,48.0102,172.5345],[28.32233,48.00201,309.3229],[28.36972,47.98893,243.9394],[28.38915,47.99288,299.5778],[28.40863,48.00007,210.1992],[28.43726,47.98684,283.8863],[28.46661,47.99717,248.0878],[28.48134,48.03324,139.3539],[28.51907,48.05226,86.0318],[28.54341,48.08797,170.3186],[28.50072,48.10877,47.7941],[28.49979,48.10891,47.7941],[28.49416,48.09185,42.7128],[28.49374,48.07482,40.4989],[28.49002,48.06549,36.5],[28.47958,48.06492,105.6054],[28.45938,48.07446,43.0866],[28.44744,48.08275,37.5],[28.41902,48.12223,54.7905],[28.43566,48.13469,49.9606],[28.4369,48.14985,39.0],[28.42729,48.16337,67.0875],[28.41158,48.1707,49.5259],[28.38863,48.16859,51.2013],[28.37556,48.15665,61.6508],[28.36497,48.14151,168.1726],[28.34957,48.12972,170.056],[28.32859,48.12701,201.5065],[28.31742,48.13536,42.0],[28.31556,48.14928,62.2706],[28.32218,48.16321,57.8049],[28.33789,48.17548,52.3867],[28.35225,48.18187,43.5],[28.36336,48.19101,61.3662],[28.37003,48.21163,49.2736],[28.36817,48.23062,73.8448],[28.35773,48.23861,71.3581],[28.34057,48.24011,83.6718],[28.29448,48.23649,46.5],[28.27753,48.22912,46.5],[28.26172,48.21995,69.7034],[28.24032,48.21163,103.7957],[28.21696,48.20814,60.9384],[28.19991,48.21174,61.1536],[28.18937,48.22305,61.2913],[28.18575,48.24238,64.3714],[28.17852,48.25886,80.7739],[28.16208,48.25718,56.289],[28.13108,48.23959,120.1307],[28.11558,48.23675,53.6824]]]}
,"properties": {"ISO3166-1-Alpha-3": "MDA","country": "Moldova","fill": "#F00","name": "Soroca","area_km2": 817.005,"hist_schema_id": "Elevation0-9000","hist_area_km2": {"0": 0.0282,"25": 0.7222,"50": 27.4147,"75": 27.3076,"100": 34.0733,"125": 56.4234,"150": 112.6469,"175": 188.8553,"200": 153.2352,"225": 115.395,"250": 52.9139,"275": 27.3398,"300": 16.3703,"325": 4.0662,"350": 0.2128}}}