{"type": "Feature","bbox": [27.9497,47.9851,28.5465,48.3271],"geometry": {"type": "MultiPolygon","coordinates": [[[[27.952,48.1955,190.4331],[27.9554,48.1913,196.6624],[27.9892,48.1717,178.09],[28.002,48.1674,214.6126],[28.0384,48.1663,230.1881],[28.0477,48.1617,203.6888],[28.0558,48.1568,176.7714],[28.0611,48.1471,216.2285],[28.0734,48.1329,262.4096],[28.0897,48.1185,304.2715],[28.1069,48.1128,254.4986],[28.1107,48.1087,212.2441],[28.1118,48.0761,181.0724],[28.1101,48.0706,181.5],[28.1061,48.0674,162.1437],[28.0777,48.0616,164.0881],[28.0545,48.0479,151.0241],[28.0493,48.043,169.1349],[28.0463,48.0354,183.435],[28.0458,48.0291,161.8548],[28.0417,48.0231,167.907],[28.0343,48.0193,147.4948],[28.0194,48.015,205.3714],[28.0128,48.0101,220.6712],[28.0153,48.0057,237.9703],[28.0542,47.9992,215.7676],[28.0689,47.9851,161.6443],[28.072,47.9868,173.4958],[28.1123,47.9879,156.7673],[28.1598,47.9944,163.6266],[28.2184,47.9932,342.1641],[28.235,47.9912,342.4488],[28.264,47.9916,229.9908],[28.2729,47.9958,192.7058],[28.283,48.0118,138.4035],[28.2871,48.0151,175.9592],[28.3174,48.0035,302.4513],[28.3617,47.9928,166.6375],[28.3721,47.988,256.41],[28.381,47.9883,284.7892],[28.3947,47.9961,256.9717],[28.4066,48.0002,201.7198],[28.4143,47.9981,235.9422],[28.4265,47.9865,284.308],[28.4321,47.9851,257.4815],[28.4494,47.9854,293.6329],[28.4559,47.9871,284.8896],[28.4666,47.9972,248.0878],[28.467,48.0148,121.1319],[28.4695,48.0213,106.8302],[28.4789,48.034,146.5977],[28.4904,48.0406,155.0723],[28.5129,48.0492,110.3472],[28.5383,48.0615,168.3509],[28.5436,48.0701,161.3598],[28.5465,48.0795,167.896],[28.5449,48.0959,165.5215],[28.5113,48.1078,87.4731],[28.5007,48.1088,47.7941],[28.4993,48.0737,139.0],[28.5024,48.0691,71.5976],[28.5018,48.0646,47.1829],[28.4967,48.0641,43.7704],[28.4839,48.0675,39.7576],[28.4681,48.0736,37.0],[28.4562,48.0804,45.3859],[28.4495,48.0884,46.4631],[28.4336,48.1148,46.1799],[28.4295,48.1251,47.1336],[28.4298,48.1305,45.078],[28.4412,48.1474,56.8284],[28.4415,48.1531,120.3467],[28.434,48.1689,41.1474],[28.43,48.1739,63.3122],[28.4264,48.1758,65.1093],[28.3945,48.1746,49.4561],[28.3812,48.1756,68.1988],[28.3706,48.1629,41.0],[28.3691,48.1476,171.2294],[28.3627,48.1407,125.7116],[28.3542,48.1369,60.0085],[28.3369,48.1332,42.0],[28.3276,48.1331,42.0],[28.3166,48.136,52.2172],[28.3124,48.1395,54.5551],[28.3104,48.1488,56.9202],[28.311,48.1565,49.1295],[28.3145,48.1621,48.8267],[28.3249,48.1688,43.0],[28.3469,48.1786,43.5],[28.3577,48.1851,43.5],[28.3633,48.1918,61.3662],[28.3694,48.2041,64.7419],[28.3717,48.2249,99.6542],[28.3616,48.2438,113.0873],[28.3544,48.2479,116.9689],[28.3463,48.2493,100.7684],[28.3391,48.245,46.5771],[28.333,48.2377,81.8604],[28.3256,48.235,47.3561],[28.3182,48.2364,64.3148],[28.312,48.2398,46.0],[28.2989,48.2389,46.5],[28.2564,48.22,53.0729],[28.2179,48.2087,60.9384],[28.2052,48.2082,67.2664],[28.1957,48.2136,61.6463],[28.1892,48.2229,61.2913],[28.1853,48.2336,55.4925],[28.1886,48.2554,99.9664],[28.1796,48.2587,55.2728],[28.1512,48.2638,77.7593],[28.148,48.2621,50.0],[28.1441,48.2503,63.9242],[28.1337,48.244,50.5],[28.1076,48.2341,66.0683],[28.0971,48.2349,67.85],[28.0921,48.2374,69.9137],[28.0839,48.247,64.1947],[28.0834,48.2534,64.8001],[28.0973,48.285,154.9203],[28.0965,48.3018,167.6925],[28.090699999999998,48.312,180.9868],[28.0779,48.3197,134.9609],[28.0622,48.3253,69.7433],[28.05,48.3271,79.6965],[28.0028,48.3263,56.8933],[28.0096,48.3154,195.8944],[28.0115,48.3037,205.3208],[28.0118,48.2838,258.5009],[28.0183,48.2686,218.2397],[28.0161,48.2406,181.8424],[28.0118,48.2362,193.8675],[28.0009,48.2349,207.8774],[27.987,48.2354,225.8668],[27.9788,48.2327,236.1678],[27.9595,48.221,229.4501],[27.953,48.2125,209.75],[27.9497,48.2052,186.6402],[27.952,48.1955,190.4331]]]]}
,"properties": {"GID_1": "MDA.31_1","GID_0": "MDA","country": "Moldova","province": "Soroca","VARNAME_1": "NA","NL_NAME_1": "NA","TYPE_1": "Raion","ENGTYPE_1": "District","CC_1": "NA","HASC_1": "MD.SO","ISO_1": "MD-SO","name": "Soroca.province","area_km2": 841.7859,"hist_schema_id": "Elevation0-9000","hist_area_km2": {"0": 0.0282,"25": 0.4246,"50": 40.5998,"75": 29.7916,"100": 34.7227,"125": 56.8618,"150": 113.5094,"175": 192.4663,"200": 153.983,"225": 116.1707,"250": 53.0692,"275": 28.7441,"300": 17.2773,"325": 3.9527,"350": 0.1845}}}