{"type":"Feature","properties":{"GID_1":"MDA.23_1","GID_0":"MDA","country":"Moldova","province":"Leova","VARNAME_1":"NA","NL_NAME_1":"NA","TYPE_1":"Raion","ENGTYPE_1":"District","CC_1":"NA","HASC_1":"MD.LE","ISO_1":"MD-LE","name":"Leova.province"},
"geometry":{"type": "MultiPolygon","coordinates": [[[[28.2309,46.3909,32.4479],[28.2362,46.3902,23.2997],[28.2327,46.392,19.6553],[28.2309,46.3909,32.4479]]],
[[[28.5156,46.455,186.2993],[28.5364,46.4562,148.2218],[28.5393,46.4607,166.7811],[28.5413,46.4733,220.7736],[28.549,46.4758,167.3036],[28.5635,46.4762,165.2907],[28.5693,46.48,190.6831],[28.5844,46.4981,165.1863],[28.5873,46.509,202.9897],[28.586,46.5358,175.2236],[28.5875,46.5511,190.2769],[28.5682,46.5623,171.794],[28.5691,46.5659,157.9384],[28.5814,46.5717,177.6147],[28.5868,46.5768,175.5867],[28.5878,46.6078,122.0804],[28.5951,46.6208,153.8434],[28.6012,46.6282,206.9525],[28.6025,46.633,222.3648],[28.6022,46.6363,221.3082],[28.5841,46.6443,159.8138],[28.5802,46.6511,193.0797],[28.5802,46.6611,194.7431],[28.5837,46.6685,178.0662],[28.581,46.6752,196.4786],[28.5791,46.6895,223.709],[28.5791,46.7116,231.457],[28.5773,46.7168,213.1998],[28.5706,46.7183,218.4139],[28.5326,46.717,130.9111],[28.5009,46.704,132.2691],[28.4871,46.6908,181.0794],[28.4838,46.6897,184.4901],[28.478,46.6902,142.9481],[28.4715,46.6934,86.4242],[28.45,46.7079,142.6373],[28.4216,46.7217,167.546],[28.412,46.7238,195.6188],[28.3954,46.7227,232.7932],[28.393,46.7162,244.3051],[28.3917,46.7017,247.7834],[28.3871,46.6978,249.7342],[28.3687,46.6971,209.405],[28.3625,46.6953,162.2493],[28.3602,46.694,147.2804],[28.3596,46.6906,165.0492],[28.3625,46.6854,189.3567],[28.3794,46.675,227.1165],[28.3838,46.668,160.156],[28.3859,46.6581,213.1033],[28.3828,46.654,223.9869],[28.3742,46.6516,206.9767],[28.3737,46.6483,202.5301],[28.3846,46.6327,161.0885],[28.3872,46.6257,207.447],[28.3856,46.6225,173.3823],[28.3661,46.622,144.1472],[28.35,46.6153,158.7065],[28.3269,46.6163,100.7011],[28.3207,46.6116,57.5324],[28.3168,46.6106,66.2456],[28.3053,46.6108,102.9868],[28.3025,46.6116,45.3623],[28.3012,46.6155,29.0629],[28.3061,46.6285,48.4206],[28.3061,46.6345,56.9236],[28.3045,46.6405,29.2683],[28.2993,46.6436,32.2741],[28.2835,46.6436,103.5247],[28.2679,46.6366,99.335],[28.2454,46.6343,24.9993],[28.2406,46.6313,24.6595],[28.2421,46.6283,23.2106],[28.2484,46.6285,21.7498],[28.25,46.6273,20.4812],[28.253,46.6205,21.6313],[28.2506,46.616,21.8123],[28.2539,46.6127,19.8266],[28.2458,46.6074,40.7586],[28.2517,46.6043,20.4261],[28.2437,46.6017,34.3713],[28.2398,46.597,51.0226],[28.2427,46.5932,25.2533],[28.2404,46.589,29.9195],[28.2328,46.5855,19.1028],[28.2427,46.5814,21.2745],[28.2242,46.5797,25.89],[28.2266,46.5715,18.8522],[28.2293,46.5688,19.5011],[28.2268,46.5639,18.766],[28.2344,46.5637,18.5506],[28.2344,46.5578,21.7383],[28.2373,46.5519,21.183],[28.2283,46.554,20.8354],[28.2225,46.5468,31.7498],[28.2246,46.5441,24.5958],[28.2169,46.5382,27.223],[28.2167,46.5366,19.2958],[28.2249,46.5339,22.5563],[28.226,46.5368,21.9296],[28.2287,46.5364,18.9728],[28.227,46.5303,20.9372],[28.2287,46.5296,25.4937],[28.2319,46.5312,18.6979],[28.2317,46.5271,19.1163],[28.2303,46.5237,20.4555],[28.2263,46.5206,18.6444],[28.2192,46.5236,18.6043],[28.2159,46.5225,23.0489],[28.2215,46.5181,23.4309],[28.2245,46.5115,20.5888],[28.2225,46.5107,17.9457],[28.2167,46.5127,19.1398],[28.2107,46.5061,19.4684],[28.2165,46.5032,20.3013],[28.2129,46.4992,26.9053],[28.2181,46.4991,18.4508],[28.2227,46.5034,20.1858],[28.2246,46.5008,19.3407],[28.2249,46.4956,21.0824],[28.2325,46.4951,20.2763],[28.2298,46.4896,19.4768],[28.2336,46.4843,20.3929],[28.2273,46.4815,20.8314],[28.2267,46.4797,19.2971],[28.2369,46.476,17.8764],[28.2407,46.4798,17.3127],[28.244,46.4794,33.7979],[28.248,46.4759,34.085],[28.2464,46.4695,23.1499],[28.2537,46.4677,24.4359],[28.247,46.4639,22.0888],[28.2598,46.4622,19.4595],[28.2591,46.46,19.6355],[28.25,46.4573,17.8788],[28.2416,46.4525,27.1573],[28.2436,46.4477,22.3932],[28.2586,46.4476,17.6825],[28.2625,46.4375,24.7388],[28.2565,46.4334,18.2341],[28.2601,46.427,36.1086],[28.257,46.4233,24.35],[28.2518,46.4209,17.3875],[28.2518,46.416,29.7488],[28.2422,46.4174,16.2463],[28.2321,46.4158,23.1291],[28.2326,46.4078,21.2425],[28.2403,46.407,34.7248],[28.2364,46.4037,21.6387],[28.2291,46.4038,15.6831],[28.2268,46.4023,19.5537],[28.2265,46.3996,22.0274],[28.2316,46.3989,25.1013],[28.2393,46.401,17.3887],[28.2448,46.396,39.8655],[28.2362,46.3902,23.2997],[28.252,46.3888,19.0634],[28.2598,46.3904,33.3461],[28.2702,46.4003,49.9692],[28.2733,46.4089,69.3492],[28.2801,46.4163,76.6719],[28.302,46.417,39.0251],[28.3082,46.4183,22.9307],[28.3147,46.423,31.2075],[28.3192,46.4236,23.8848],[28.3365,46.4229,90.4146],[28.3394,46.4184,155.1121],[28.3388,46.4143,161.4868],[28.3334,46.4083,185.1628],[28.3336,46.402,192.6683],[28.3503,46.3966,160.7183],[28.3625,46.3897,102.0101],[28.3834,46.3888,81.4513],[28.3889,46.39,82.2468],[28.4004,46.3963,151.5987],[28.4087,46.4043,100.7731],[28.4118,46.4124,90.3167],[28.4155,46.4322,161.3727],[28.4202,46.4339,162.5805],[28.4355,46.4352,138.1784],[28.4722,46.4264,175.4323],[28.4757,46.4322,194.3737],[28.5156,46.455,186.2993]]]]}}