{"type": "Feature","id": "1641","bbox": [28.21903,46.38864,28.60247,46.7235],"geometry": {"type": "Polygon","coordinates": [[[28.46868,46.69519,94.3694],[28.4355,46.71679,115.5522],[28.3985,46.7235,244.299],[28.39256,46.71139,228.8265],[28.38703,46.69777,249.7342],[28.37148,46.6971,242.6112],[28.35964,46.69064,165.0492],[28.37959,46.67139,187.1474],[28.37618,46.65214,216.4037],[28.3784,46.6416,215.521],[28.3859,46.62914,183.757],[28.37659,46.62108,167.8454],[28.32554,46.61261,76.0032],[28.30332,46.62018,34.7883],[28.29489,46.64201,86.5407],[28.2628,46.63659,96.5916],[28.24509,46.63145,24.5268],[28.24735,46.62082,19.579],[28.24714,46.60716,40.7586],[28.24053,46.59638,51.0226],[28.2305,46.5839,20.2134],[28.22544,46.56956,22.4037],[28.23412,46.55313,19.4547],[28.22477,46.54874,21.6125],[28.2211,46.54119,19.3479],[28.21903,46.50373,21.3064],[28.2211,46.49577,18.6819],[28.23412,46.47807,18.5185],[28.2381,46.47559,18.5708],[28.24234,46.47652,17.3994],[28.2458,46.47551,23.4319],[28.24714,46.46719,18.6746],[28.24725,46.43618,14.59],[28.24606,46.42786,15.3574],[28.24022,46.42027,17.0928],[28.22606,46.41536,16.7839],[28.23329,46.40177,26.2303],[28.22864,46.39611,15.3425],[28.2268,46.39555,16.2897],[28.22937,46.39334,22.4911],[28.24895,46.38869,17.1732],[28.2674,46.39696,39.0736],[28.28089,46.41205,69.08],[28.30202,46.41699,39.0251],[28.32047,46.42368,24.19],[28.33794,46.42063,93.3235],[28.33716,46.41071,166.5305],[28.3383,46.3997,164.2513],[28.37649,46.38864,79.295],[28.41024,46.4083,127.1012],[28.41489,46.42657,146.5742],[28.42915,46.4351,146.3918],[28.45085,46.43267,109.3463],[28.47214,46.42637,175.4323],[28.53932,46.46391,160.7664],[28.54568,46.47473,212.2312],[28.55979,46.47616,172.8151],[28.57555,46.48595,150.311],[28.58563,46.50259,163.0138],[28.58852,46.5323,151.493],[28.57896,46.55654,200.9503],[28.57343,46.56765,174.8197],[28.58754,46.58165,148.2474],[28.58743,46.59679,136.6448],[28.58971,46.61113,126.8426],[28.59741,46.62181,163.7308],[28.60247,46.63305,222.3648],[28.58619,46.64684,156.5522],[28.58371,46.66852,178.0662],[28.57653,46.70803,194.4728],[28.54279,46.71751,169.258],[28.50408,46.70051,120.7514],[28.46868,46.69519,94.3694]]]}
,"properties": {"ISO3166-1-Alpha-3": "MDA","country": "Moldova","fill": "#F00","name": "Leova","area_km2": 744.3913,"hist_schema_id": "Elevation0-9000","hist_area_km2": {"0": 0.0438,"25": 48.3865,"50": 57.6548,"75": 92.5257,"100": 107.9926,"125": 121.0744,"150": 126.2058,"175": 101.5325,"200": 63.0707,"225": 22.1227,"250": 3.5347,"275": 0.2473}}}