{"type": "Feature","bbox": [29.4066,46.7644,29.522,46.9204],"geometry": {"type": "MultiPolygon","coordinates": [[[[29.4257,46.8212,107.7834],[29.4247,46.8164,83.0074],[29.4177,46.8088,69.3823],[29.4177,46.8042,103.3548],[29.4229,46.7966,95.2931],[29.4229,46.7942,99.2281],[29.4101,46.7919,59.1925],[29.4066,46.7872,37.5816],[29.4066,46.7773,110.2971],[29.42,46.7691,92.473],[29.4399,46.7703,114.4986],[29.4457,46.7691,133.7008],[29.4475,46.765,141.0153],[29.4539,46.7644,136.5144],[29.4574,46.7691,138.7099],[29.465,46.7703,116.6859],[29.4697,46.7732,126.7726],[29.4773,46.7732,56.6742],[29.4873,46.7894,19.436],[29.4967,46.7872,11.4336],[29.5086,46.7918,10.715],[29.5139,46.7957,9.0294],[29.522,46.7972,6.5099],[29.5199,46.8018,7.3098],[29.5152,46.8053,8.3206],[29.5071,46.8065,9.1603],[29.503,46.8088,9.7065],[29.5036,46.8217,8.956],[29.5016,46.8362,11.1598],[29.4944,46.8354,11.6076],[29.4929,46.871,13.6009],[29.4765,46.8783,36.4374],[29.4835,46.8831,5.5],[29.4826,46.8946,31.585],[29.4766,46.9095,24.2758],[29.4766,46.9176,9.4688],[29.4703,46.9204,15.2535],[29.4551,46.9204,9.6605],[29.4235,46.9122,7.0],[29.4235,46.9035,48.1591],[29.4276,46.8976,68.8974],[29.437,46.8935,49.8157],[29.4446,46.8865,83.1235],[29.4469,46.8685,143.3178],[29.4393,46.8618,140.0693],[29.4384,46.8585,151.8405],[29.42,46.8591,159.9243],[29.413,46.8556,160.4064],[29.4113,46.8456,134.7844],[29.4218,46.8281,118.4458],[29.4281,46.8218,103.9302],[29.4257,46.8212,107.7834]]]]}
,"properties": {"GID_1": "MDA.4_1","GID_0": "MDA","country": "Moldova","province": "Bender","VARNAME_1": "NA","NL_NAME_1": "NA","TYPE_1": "Municipiu","ENGTYPE_1": "City","CC_1": "NA","HASC_1": "MD.BD","ISO_1": "MD-BD","name": "Bender.province","area_km2": 85.46029,"hist_schema_id": "Elevation0-9000","hist_area_km2": {"0": 14.19511,"25": 21.51553,"50": 19.40473,"75": 10.51659,"100": 8.99351,"125": 7.00566,"150": 3.77117,"175": 0.058}}}