{"type": "Feature","id": "1650","bbox": [29.44103,46.55313,29.95262,46.96126],"geometry": {"type": "Polygon","coordinates": [[[29.57316,46.93373,63.6475],[29.56748,46.93466,54.7125],[29.55869,46.94574,66.6842],[29.55983,46.95884,69.2367],[29.56063,46.96126,70.0111],[29.55998,46.96124,69.7591],[29.47839,46.95946,64.1806],[29.46179,46.95108,6.5],[29.4617,46.95104,7.9662],[29.47064,46.94163,9.6646],[29.47374,46.92323,6.5],[29.47374,46.89915,9.4939],[29.47616,46.88975,9.598],[29.47162,46.8774,73.0485],[29.44103,46.85928,143.6199],[29.45043,46.82417,63.6532],[29.4695,46.81218,30.8921],[29.48252,46.79291,20.2339],[29.49508,46.79017,11.6413],[29.50288,46.79627,6.9408],[29.51162,46.78717,7.2013],[29.51186,46.78711,7.2013],[29.53048,46.7828,9.1204],[29.53187,46.78417,9.2877],[29.53228,46.78386,9.2877],[29.54164,46.77652,28.4436],[29.55332,46.76709,7.6111],[29.57011,46.72382,145.7044],[29.59512,46.71294,144.2905],[29.61621,46.69865,5.1444],[29.65155,46.69255,3.311],[29.66618,46.67632,12.4662],[29.66684,46.67635,12.4662],[29.68525,46.677,5.4135],[29.69532,46.67591,4.733],[29.69572,46.67567,4.733],[29.69967,46.67322,6.4],[29.70308,46.6649,11.1684],[29.70339,46.6649,11.1684],[29.71114,46.6649,4.5296],[29.72049,46.66831,6.6149],[29.72762,46.67012,26.9524],[29.74871,46.66573,26.3779],[29.74912,46.66543,26.3779],[29.75832,46.65883,27.3027],[29.77542,46.62914,4.0591],[29.76173,46.62473,21.8516],[29.74747,46.61762,22.8044],[29.73522,46.60759,6.2973],[29.72762,46.59437,28.059],[29.72831,46.59431,28.059],[29.74256,46.59323,10.7742],[29.77542,46.58072,5.4564],[29.78643,46.583,2.9766],[29.82317,46.60124,2.4665],[29.82337,46.60087,2.4665],[29.83005,46.58858,3.3711],[29.83986,46.58253,3.4224],[29.83987,46.58253,3.4224],[29.85237,46.58077,6.1957],[29.86725,46.58072,4.6169],[29.86749,46.58042,4.6169],[29.8703,46.57669,3.5763],[29.89066,46.55812,12.5561],[29.89883,46.55313,2.1739],[29.91609,46.55437,1.7987],[29.9381,46.55734,3.5606],[29.94968,46.57886,12.5069],[29.9474,46.58835,2.7173],[29.93495,46.60884,13.9406],[29.93128,46.61917,14.9897],[29.9319,46.63237,17.8079],[29.93541,46.64186,15.5901],[29.94027,46.6508,2.0],[29.9444,46.66248,23.1324],[29.95262,46.72469,38.2815],[29.95112,46.74312,50.825],[29.94668,46.75074,51.6385],[29.93567,46.76516,51.5431],[29.9318,46.77244,59.2889],[29.93045,46.78164,71.9683],[29.93066,46.80309,76.9474],[29.92818,46.80975,63.4995],[29.91743,46.81397,101.1742],[29.90771,46.81094,113.233],[29.89852,46.80665,77.4081],[29.88963,46.80717,70.411],[29.88487,46.81267,75.0687],[29.87691,46.83079,119.3451],[29.87221,46.83771,129.2109],[29.84364,46.85414,134.538],[29.81521,46.85662,100.1497],[29.78576,46.85466,65.8584],[29.75413,46.85802,60.7533],[29.73584,46.86719,61.1857],[29.71248,46.89344,64.8845],[29.69615,46.90468,62.5437],[29.68085,46.90856,62.9524],[29.64809,46.91042,50.9389],[29.63187,46.9144,63.76],[29.62329,46.91954,64.7003],[29.60758,46.93202,64.0831],[29.59848,46.93538,65.3733],[29.57316,46.93373,63.6475]]]}
,"properties": {"ISO3166-1-Alpha-3": "MDA","country": "Moldova","fill": "#FF0","name": "Bender","area_km2": 918.8074,"hist_schema_id": "Elevation0-9000","hist_area_km2": {"0": 256.8401,"25": 258.4898,"50": 333.3216,"75": 47.2793,"100": 11.7402,"125": 7.8524,"150": 3.2841}}}