{"type": "Feature","bbox": [28.084,47.1572,28.5915,47.4452],"geometry": {"type": "MultiPolygon","coordinates": [[[[28.3269,47.1572,107.7871],[28.3342,47.1663,143.8242],[28.3401,47.1705,195.3471],[28.3499,47.1727,241.9965],[28.3678,47.1714,282.5983],[28.3971,47.1719,102.9722],[28.4106,47.1797,227.2874],[28.4215,47.1834,224.031],[28.4399,47.1962,153.3263],[28.4505,47.2056,137.1124],[28.4853,47.2239,217.3449],[28.4856,47.2434,190.1343],[28.4807,47.2545,199.3899],[28.4733,47.2619,257.6266],[28.4583,47.2717,166.0044],[28.4538,47.2771,182.4655],[28.4556,47.2815,232.6291],[28.4612,47.2852,203.1364],[28.4686,47.287,239.4691],[28.4796,47.294,241.0518],[28.4936,47.3058,156.2338],[28.5059,47.3198,228.5794],[28.5185,47.324,274.4991],[28.5261,47.324,251.8623],[28.5507,47.3184,295.546],[28.5608,47.3191,247.5529],[28.5675,47.325,180.9212],[28.5796,47.3319,174.1262],[28.5804,47.3414,239.5681],[28.5915,47.3542,232.3575],[28.590699999999998,47.3623,212.6962],[28.587,47.3645,214.7383],[28.5544,47.3649,226.6733],[28.5335,47.3725,70.8564],[28.5275,47.378,87.7318],[28.5273,47.4003,123.1344],[28.5209,47.4111,152.5164],[28.5207,47.4176,105.6204],[28.5024,47.4338,176.667],[28.4943,47.4451,119.5255],[28.488,47.4452,145.929],[28.4737,47.4397,208.6165],[28.4521,47.4372,137.9106],[28.4392,47.4266,91.0283],[28.4294,47.4244,111.0314],[28.4147,47.4238,171.3816],[28.4024,47.4207,270.5139],[28.3927,47.4136,166.657],[28.3841,47.4162,213.8656],[28.3725,47.4249,159.1672],[28.3689,47.4237,171.619],[28.3593,47.4146,102.6522],[28.3506,47.4115,71.9961],[28.3173,47.4128,96.1419],[28.2942,47.4175,157.8072],[28.2796,47.4297,144.6405],[28.262,47.4393,115.4373],[28.2587,47.4392,123.5629],[28.2511,47.4335,234.2295],[28.235,47.4288,153.4636],[28.2258,47.4196,87.2019],[28.2253,47.3897,183.5623],[28.2237,47.385,124.5506],[28.2184,47.3815,175.8527],[28.204,47.3777,244.9758],[28.1985,47.3736,240.0364],[28.1758,47.3708,170.9316],[28.1625,47.3658,251.5553],[28.1602,47.3637,289.5179],[28.1568,47.3472,205.6938],[28.1517,47.3429,205.8628],[28.1419,47.3391,298.7188],[28.1071,47.3386,255.0692],[28.0968,47.3329,153.772],[28.0921,47.3319,147.7466],[28.0867,47.3279,145.3355],[28.084,47.3197,236.228],[28.0913,47.3123,236.7995],[28.1127,47.3009,135.1627],[28.135,47.2974,187.136],[28.1529,47.2981,135.9161],[28.1565,47.2961,135.6338],[28.1577,47.2936,122.64],[28.1546,47.2878,160.8782],[28.1433,47.2792,297.2971],[28.137,47.278,358.4702],[28.1073,47.2798,373.9484],[28.0988,47.2789,325.024],[28.093,47.2746,287.6247],[28.0915,47.2692,237.6409],[28.091,47.2509,226.0846],[28.0978,47.248,248.2434],[28.1196,47.2305,238.968],[28.1478,47.2041,374.2841],[28.1642,47.1921,371.7516],[28.1884,47.1824,206.4436],[28.2018,47.1799,187.8498],[28.2314,47.1802,266.2817],[28.2389,47.1774,270.8402],[28.2516,47.1677,173.6479],[28.28,47.1593,175.4861],[28.2947,47.1573,211.871],[28.3269,47.1572,107.7871]]]]}
,"properties": {"GID_1": "MDA.7_1","GID_0": "MDA","country": "Moldova","province": "Calarasi","VARNAME_1": "NA","NL_NAME_1": "NA","TYPE_1": "Raion","ENGTYPE_1": "District","CC_1": "NA","HASC_1": "MD.CA","ISO_1": "MD-CL","name": "Calarasi.province","area_km2": 753.7738,"hist_schema_id": "Elevation0-9000","hist_area_km2": {"50": 15.0869,"75": 35.1795,"100": 56.8951,"125": 80.896,"150": 90.9546,"175": 87.5383,"200": 81.9711,"225": 72.3252,"250": 63.3497,"275": 53.8597,"300": 50.1648,"325": 37.0789,"350": 18.5574,"375": 8.4342,"400": 1.4682,"425": 0.0144}}}