{"type": "Feature","id": "1632","bbox": [28.08669,47.15717,28.58795,47.44049],"geometry": {"type": "Polygon","coordinates": [[[28.52072,47.4176,105.6204],[28.49245,47.44049,104.7102],[28.45643,47.4376,188.2343],[28.42114,47.42145,193.0343],[28.38615,47.41525,232.7008],[28.37535,47.41979,137.9017],[28.36616,47.4201,169.9283],[28.33887,47.41246,129.286],[28.3227,47.41215,126.4987],[28.30678,47.41447,172.9297],[28.26513,47.43385,141.7869],[28.2258,47.41935,87.2019],[28.22472,47.39313,167.3918],[28.20699,47.37863,234.4556],[28.18105,47.37323,193.1211],[28.1239,47.34068,372.7369],[28.08669,47.32789,145.3355],[28.11594,47.30151,136.5016],[28.15769,47.29365,122.64],[28.12255,47.2797,310.6356],[28.09103,47.25091,226.0846],[28.14901,47.2073,318.9274],[28.21562,47.18004,197.8714],[28.24379,47.1733,221.1004],[28.27128,47.16198,130.7179],[28.29892,47.15785,219.5441],[28.32693,47.15717,107.7871],[28.34238,47.1704,253.8081],[28.3906,47.17355,110.3849],[28.41602,47.18159,261.0423],[28.46641,47.21353,164.2172],[28.48511,47.22968,266.8272],[28.48067,47.25448,199.3899],[28.46444,47.26699,279.5232],[28.45556,47.28156,232.6291],[28.51566,47.31887,257.4261],[28.56067,47.32236,199.2634],[28.57958,47.33189,174.1262],[28.58795,47.35592,241.0489],[28.53286,47.38031,57.4673],[28.52072,47.4176,105.6204]]]}
,"properties": {"ISO3166-1-Alpha-3": "MDA","country": "Moldova","fill": "#F0F","name": "Calarasi","area_km2": 747.1505,"hist_schema_id": "Elevation0-9000","hist_area_km2": {"50": 15.5175,"75": 35.9685,"100": 56.8521,"125": 80.6518,"150": 90.3093,"175": 87.0641,"200": 80.3306,"225": 71.4623,"250": 61.9976,"275": 53.6288,"300": 49.9335,"325": 36.9054,"350": 17.7509,"375": 7.7565,"400": 1.0072,"425": 0.0144}}}