{"type": "Feature","bbox": [27.8484,47.7093,28.0592,47.8162],"geometry": {"type": "MultiPolygon","coordinates": [[[[27.9646,47.7362,158.7208],[27.9679,47.7402,146.5743],[27.9778,47.7445,136.8399],[27.9858,47.7457,113.0227],[27.9938,47.7426,120.8617],[27.9969,47.7352,127.7856],[28.0,47.7198,229.9373],[28.0111,47.7093,177.3523],[28.0308,47.7093,213.4189],[28.0389,47.7136,229.1177],[28.05,47.7254,190.9083],[28.0592,47.7297,183.6046],[28.0568,47.7383,204.4713],[28.05,47.743899999999996,196.715],[28.0463,47.7519,140.1096],[28.0457,47.7821,89.5584],[28.0438,47.7913,96.0316],[28.0352,47.7957,103.9883],[28.0265,47.7957,110.509],[28.0136,47.7932,104.6604],[28.0019,47.787,102.5194],[27.9926,47.7852,109.6904],[27.9784,47.7852,113.9159],[27.9692,47.7895,142.0974],[27.955,47.8086,210.7887],[27.9528,47.8162,205.7064],[27.947,47.816,202.0746],[27.9186,47.8111,120.5399],[27.8915,47.7889,114.1235],[27.873,47.7852,157.6549],[27.8484,47.7846,154.3236],[27.8505,47.7839,160.2011],[27.8567,47.7759,176.8776],[27.8607,47.7604,155.4117],[27.8602,47.7507,132.8153],[27.8625,47.7503,143.9731],[27.8614,47.7383,123.0504],[27.8625,47.7329,108.6338],[27.8756,47.7329,110.9349],[27.8984,47.7394,146.4626],[27.9169,47.7394,158.9136],[27.9345,47.7461,96.3963],[27.96,47.743899999999996,130.465],[27.9646,47.7362,158.7208]]]]}
,"properties": {"GID_1": "MDA.2_1","GID_0": "MDA","country": "Moldova","province": "Bălţi","VARNAME_1": "NA","NL_NAME_1": "NA","TYPE_1": "Municipiu","ENGTYPE_1": "City","CC_1": "NA","HASC_1": "MD.BT","ISO_1": "NA","name": "Bălţi.province","area_km2": 99.23549,"hist_schema_id": "Elevation0-9000","hist_area_km2": {"100": 43.30632,"125": 16.95987,"150": 14.56433,"175": 10.84506,"200": 7.7845,"225": 4.57749,"250": 0.96973,"275": 0.22818}}}