{"type":"Feature","properties":{"ISO3166-1-Alpha-3":"MDA","country":"Moldova","fill":"#F0F","id":"1618","name":"Bălţi"},
"geometry":{"type": "Polygon","coordinates": [[[27.97677,47.78892,130.8214],[27.9528,47.8162,205.7064],[27.90148,47.79848,112.2531],[27.84841,47.78458,154.3236],[27.85859,47.76941,191.4752],[27.86014,47.75073,132.8153],[27.90422,47.73869,112.0597],[27.96458,47.73623,158.7208],[27.99238,47.73804,154.0979],[28.01114,47.70934,177.3523],[28.02974,47.70959,213.4189],[28.04566,47.71983,184.0073],[28.05486,47.73179,190.3327],[28.05,47.74386,196.715],[28.04452,47.78223,89.5584],[28.01357,47.79321,104.6604],[27.97677,47.78892,130.8214]]]}}