{"type":"Feature","properties":{"ISO3166-1-Alpha-3":"MDA","country":"Moldova","fill":"#000","id":"1622","name":"Sîngerei"},
"geometry":{"type": "Polygon","coordinates": [[[28.13868,47.827,90.9031],[28.13185,47.85005,110.4968],[28.11981,47.85279,108.6723],[28.10865,47.85429,90.2958],[28.10297,47.86483,117.7011],[28.0993,47.87811,122.1732],[28.08483,47.8902,121.1336],[28.0684,47.90111,176.5862],[28.00416,47.8538,144.986],[27.97677,47.85362,120.2287],[27.95099,47.84804,170.4034],[27.9528,47.8162,205.7064],[27.97677,47.78892,130.8214],[28.01357,47.79321,104.6604],[28.04452,47.78223,89.5584],[28.05,47.74386,196.715],[28.05486,47.73179,190.3327],[28.04566,47.71983,184.0073],[28.02974,47.70959,213.4189],[28.01114,47.70934,177.3523],[27.99238,47.73804,154.0979],[27.96458,47.73623,158.7208],[27.94577,47.70748,156.3029],[27.94169,47.676,174.2594],[28.00225,47.67298,133.3927],[28.01708,47.61932,145.6863],[28.01558,47.59973,124.536],[27.99005,47.59379,160.5931],[27.97646,47.58402,161.1195],[27.96473,47.57095,98.8282],[27.93104,47.55431,201.0885],[27.92882,47.53043,196.3075],[27.96039,47.5201,168.4099],[27.98768,47.5202,239.1353],[28.00571,47.50325,183.0666],[27.9977,47.47938,151.0554],[27.97584,47.46305,135.2021],[28.02866,47.45638,147.9836],[28.04788,47.44139,190.6442],[28.06612,47.44447,112.4556],[28.10483,47.4601,288.0121],[28.15134,47.45796,204.5862],[28.16875,47.48255,73.0079],[28.17113,47.5126,135.2798],[28.16059,47.53369,139.7656],[28.17092,47.55379,93.9348],[28.22503,47.57128,242.7418],[28.32052,47.56361,207.7484],[28.3552,47.56862,54.0588],[28.36001,47.57857,65.5357],[28.36383,47.58996,78.5874],[28.37504,47.60164,104.0636],[28.3892,47.60764,231.3118],[28.41266,47.61035,166.347],[28.41669,47.6295,240.9563],[28.4076,47.65802,109.8232],[28.40533,47.68794,182.23],[28.37944,47.70691,96.4553],[28.35127,47.72334,190.7984],[28.27515,47.7328,119.5706],[28.27696,47.75393,130.7107],[28.2905,47.78111,138.3627],[28.25681,47.78592,173.7893],[28.22007,47.78765,218.111],[28.20167,47.80793,173.8347],[28.18312,47.83372,138.0302],[28.15764,47.82814,115.9048],[28.13868,47.827,90.9031]]]}}