{"type": "Feature","bbox": [27.9234,47.4375,28.4182,47.9012],"geometry": {"type": "MultiPolygon","coordinates": [[[[27.9646,47.7362,158.7208],[27.9663,47.7333,171.5019],[27.9612,47.7212,163.8946],[27.9445,47.7085,161.3103],[27.9385,47.6985,159.3621],[27.938,47.686,125.8475],[27.9417,47.676,174.2594],[27.9487,47.6747,194.1344],[27.9997,47.675,134.4973],[28.0047,47.671,134.947],[28.0044,47.6456,112.1179],[28.0064,47.6306,204.7598],[28.0207,47.615,130.5001],[28.0224,47.6073,129.9133],[28.0217,47.6023,165.434],[28.0137,47.5986,109.1014],[27.9857,47.593,145.0919],[27.957,47.5626,132.4019],[27.936,47.5573,249.1493],[27.926,47.5513,224.1543],[27.9234,47.5416,160.3565],[27.9237,47.5343,216.8763],[27.9287,47.5269,219.6881],[27.9367,47.5223,173.1504],[27.9467,47.5199,166.6358],[27.9854,47.5209,255.8756],[27.9944,47.5196,215.4786],[28.0041,47.5089,211.9365],[28.0057,47.5033,183.0666],[28.0054,47.4886,93.2883],[28.0037,47.4836,96.3828],[27.9994,47.4783,145.4696],[27.9897,47.4753,156.5178],[27.9758,47.463,135.2021],[27.9892,47.4601,211.9005],[28.0232,47.4589,157.3453],[28.0434,47.4463,175.6625],[28.0495,47.4395,181.8966],[28.0538,47.4375,135.1126],[28.0621,47.4381,158.7359],[28.0676,47.4479,95.1905],[28.0754,47.4565,157.0465],[28.0795,47.4575,121.3915],[28.0875,47.4534,173.0139],[28.1057,47.4549,203.2418],[28.135,47.4612,187.4558],[28.1514,47.458,204.5862],[28.1624,47.4696,96.9939],[28.1704,47.4869,70.5789],[28.1711,47.5126,135.2798],[28.1584,47.5279,149.808],[28.1586,47.5408,141.6918],[28.1613,47.5471,65.5521],[28.2016,47.5715,128.6684],[28.2226,47.5738,178.08],[28.2433,47.5671,185.0775],[28.2793,47.5658,202.5606],[28.3498,47.5666,99.6544],[28.3552,47.5686,54.0588],[28.3588,47.5746,51.9934],[28.3592,47.5826,80.8714],[28.3782,47.6063,152.9989],[28.4142,47.6076,183.4768],[28.4182,47.6126,161.1887],[28.4182,47.626,221.5085],[28.4122,47.6443,142.1275],[28.4069,47.654,80.8411],[28.4052,47.664,100.1252],[28.4053,47.688,182.23],[28.3977,47.6931,250.5626],[28.3812,47.7122,135.4376],[28.3285,47.7322,256.2446],[28.3193,47.734,227.2142],[28.2751,47.7328,119.5706],[28.2635,47.7346,137.4781],[28.2644,47.7407,151.1144],[28.2719,47.7464,154.4935],[28.2892,47.768,127.2291],[28.293,47.7741,123.7781],[28.2936,47.7799,128.3598],[28.2905,47.7811,138.3627],[28.2661,47.7807,222.1567],[28.2431,47.7868,191.2478],[28.2085,47.7877,187.6136],[28.2054,47.7897,198.363],[28.205,47.8039,161.2302],[28.2032,47.8086,179.0226],[28.1855,47.833,157.1768],[28.1807,47.8344,119.362],[28.1608,47.8327,101.0787],[28.1547,47.8295,94.2213],[28.1467,47.8207,85.6532],[28.1439,47.8209,85.7594],[28.1345,47.8327,88.0163],[28.1319,47.85,110.4968],[28.13,47.8531,131.6183],[28.1258,47.8547,139.7383],[28.1003,47.8543,98.9595],[28.0993,47.8781,122.1732],[28.094,47.884,127.5935],[28.0857,47.8869,117.1884],[28.0683,47.9012,176.5862],[28.0603,47.8976,148.4552],[28.0115,47.8552,160.4532],[27.9826,47.8528,129.1233],[27.9767,47.854,122.4379],[27.9713,47.8588,130.6778],[27.951,47.848,170.4034],[27.9531,47.8142,209.4739],[27.955,47.8086,210.7887],[27.9692,47.7895,142.0974],[27.9784,47.7852,113.9159],[27.9926,47.7852,109.6904],[28.0019,47.787,102.5194],[28.0136,47.7932,104.6604],[28.0265,47.7957,110.509],[28.0352,47.7957,103.9883],[28.0438,47.7913,96.0316],[28.0457,47.7821,89.5584],[28.0463,47.7519,140.1096],[28.05,47.743899999999996,196.715],[28.0568,47.7383,204.4713],[28.0592,47.7297,183.6046],[28.05,47.7254,190.9083],[28.0389,47.7136,229.1177],[28.0308,47.7093,213.4189],[28.0191,47.7087,210.8249],[28.0111,47.7093,177.3523],[28.0,47.7198,229.9373],[27.9969,47.7352,127.7856],[27.9938,47.7426,120.8617],[27.9858,47.7457,113.0227],[27.9778,47.7445,136.8399],[27.9679,47.7402,146.5743],[27.9646,47.7362,158.7208]]]]}
,"properties": {"GID_1": "MDA.29_1","GID_0": "MDA","country": "Moldova","province": "Sîngerei","VARNAME_1": "NA","NL_NAME_1": "NA","TYPE_1": "Raion","ENGTYPE_1": "District","CC_1": "NA","HASC_1": "MD.SI","ISO_1": "NA","name": "Sîngerei.province","area_km2": 986.3183,"hist_schema_id": "Elevation0-9000","hist_area_km2": {"50": 5.6774,"75": 59.0721,"100": 151.318,"125": 199.5096,"150": 206.3001,"175": 154.8885,"200": 95.0315,"225": 57.92,"250": 29.3511,"275": 18.8089,"300": 6.5565,"325": 1.5273,"350": 0.3571}}}