{"type": "Feature","bbox": [28.0637,47.688,28.7764,48.1231],"geometry": {"type": "MultiPolygon","coordinates": [[[[28.0684,47.9011,176.5862],[28.0857,47.8869,117.1884],[28.094,47.884,127.5935],[28.0993,47.8781,122.1732],[28.1003,47.8543,98.9595],[28.1258,47.8547,139.7383],[28.13,47.8531,131.6183],[28.1319,47.85,110.4968],[28.1345,47.8327,88.0163],[28.1439,47.8209,85.7594],[28.1467,47.8207,85.6532],[28.1547,47.8295,94.2213],[28.1608,47.8327,101.0787],[28.1807,47.8344,119.362],[28.1855,47.833,157.1768],[28.2032,47.8086,179.0226],[28.205,47.8039,161.2302],[28.2054,47.7897,198.363],[28.2085,47.7877,187.6136],[28.2431,47.7868,191.2478],[28.2661,47.7807,222.1567],[28.2905,47.7811,138.3627],[28.2936,47.7799,128.3598],[28.293,47.7741,123.7781],[28.2892,47.768,127.2291],[28.2719,47.7464,154.4935],[28.2644,47.7407,151.1144],[28.2635,47.7346,137.4781],[28.2751,47.7328,119.5706],[28.3193,47.734,227.2142],[28.3285,47.7322,256.2446],[28.3812,47.7122,135.4376],[28.3977,47.6931,250.5626],[28.4053,47.688,182.23],[28.4072,47.693,174.8696],[28.4232,47.6987,125.821],[28.4362,47.706,126.4365],[28.4412,47.7063,117.7207],[28.4502,47.7043,111.5726],[28.4665,47.6933,94.6717],[28.4756,47.6913,95.2432],[28.4789,47.6927,95.371],[28.4876,47.7077,58.9809],[28.5086,47.7313,173.7576],[28.5341,47.7556,228.3274],[28.5262,47.7865,256.2696],[28.5215,47.7984,278.3209],[28.5156,47.8046,261.7746],[28.505,47.807,300.9289],[28.4897,47.8059,274.2252],[28.4789,47.8077,260.1593],[28.4641,47.8186,138.3451],[28.4574,47.8194,178.6466],[28.4429,47.8075,151.6528],[28.439,47.8059,144.6651],[28.4279,47.8067,70.1056],[28.4245,47.8088,87.1104],[28.4196,47.8282,112.1847],[28.4204,47.8406,165.567],[28.4276,47.8551,200.3491],[28.4393,47.868,146.7633],[28.4514,47.8789,133.7757],[28.4639,47.8853,206.8161],[28.4737,47.8882,221.8965],[28.478,47.8886,233.9098],[28.4953,47.88,287.8549],[28.5039,47.8817,263.8937],[28.5141,47.8878,316.9616],[28.535,47.894,240.3228],[28.5584,47.8931,272.8289],[28.5707,47.8886,225.3782],[28.5789,47.8829,252.0324],[28.5879,47.8714,201.1219],[28.6311,47.843,208.8084],[28.6405,47.8401,194.3669],[28.6503,47.8401,187.0991],[28.6569,47.843,227.434],[28.6692,47.8581,268.9371],[28.6733,47.8716,244.8596],[28.6708,47.8737,256.9764],[28.654,47.8749,227.6912],[28.6503,47.8786,251.4043],[28.6499,47.8847,283.6174],[28.6553,47.8958,262.5659],[28.6655,47.9069,199.8887],[28.6852,47.9413,236.1839],[28.6954,47.9491,244.2995],[28.7085,47.9523,198.0945],[28.7319,47.9515,155.1172],[28.7495,47.9536,133.4468],[28.7556,47.9572,166.8715],[28.7764,47.9754,150.9272],[28.7539,47.9773,34.2033],[28.7376,47.9846,45.3914],[28.7308,47.9931,43.7045],[28.7213,48.0004,44.8254],[28.7173,48.0066,53.7018],[28.7179,48.0223,180.138],[28.7168,48.0246,170.9954],[28.7089,48.0268,51.089],[28.6678,48.0257,28.0],[28.6103,48.0375,45.9238],[28.6064,48.0359,34.1186],[28.6008,48.0229,48.1539],[28.5867,48.0088,136.4629],[28.5855,48.0032,153.3073],[28.5822,48.0004,113.3002],[28.5754,47.9987,52.0593],[28.5619,47.9998,37.3222],[28.5501,48.0054,37.9004],[28.5444,48.0094,39.5173],[28.5433,48.0195,37.7375],[28.5551,48.0302,40.2504],[28.5591,48.0359,44.5696],[28.5591,48.0415,35.8169],[28.5692,48.0426,40.0691],[28.5788,48.0415,47.3674],[28.5884,48.0432,119.1012],[28.6041,48.0516,152.669],[28.6064,48.0629,41.6208],[28.6148,48.0758,42.6756],[28.6188,48.0786,42.3589],[28.6233,48.0781,42.0571],[28.6255,48.0741,41.1456],[28.6255,48.0696,40.147],[28.6312,48.0663,121.5474],[28.6402,48.0663,165.8933],[28.6481,48.0713,164.5575],[28.6503,48.0781,161.7554],[28.6503,48.0837,161.0124],[28.6469,48.0888,156.4993],[28.6379,48.095,109.503],[28.6115,48.1006,60.5458],[28.5709,48.1175,135.8199],[28.5585,48.1209,136.0586],[28.5411,48.1231,152.753],[28.5247,48.1231,76.8674],[28.5097,48.1175,46.5099],[28.5009,48.111,51.6288],[28.5007,48.1088,47.7941],[28.5113,48.1078,87.4731],[28.5449,48.0959,165.5215],[28.5465,48.0795,167.896],[28.5436,48.0701,161.3598],[28.5383,48.0615,168.3509],[28.5129,48.0492,110.3472],[28.4904,48.0406,155.0723],[28.4789,48.034,146.5977],[28.4695,48.0213,106.8302],[28.467,48.0148,121.1319],[28.4666,47.9972,248.0878],[28.4559,47.9871,284.8896],[28.4381,47.9848,279.2335],[28.4265,47.9865,284.308],[28.4143,47.9981,235.9422],[28.4066,48.0002,201.7198],[28.3947,47.9961,256.9717],[28.381,47.9883,284.7892],[28.3721,47.988,256.41],[28.3617,47.9928,166.6375],[28.3174,48.0035,302.4513],[28.2871,48.0151,175.9592],[28.283,48.0118,138.4035],[28.2729,47.9958,192.7058],[28.264,47.9916,229.9908],[28.235,47.9912,342.4488],[28.2184,47.9932,342.1641],[28.1598,47.9944,163.6266],[28.1123,47.9879,156.7673],[28.072,47.9868,173.4958],[28.0667,47.9839,165.0036],[28.0646,47.9782,161.6591],[28.0637,47.9607,128.6074],[28.0649,47.9542,151.4545],[28.0706,47.9485,192.9967],[28.0741,47.9381,178.539],[28.0845,47.928,150.7198],[28.0833,47.9215,142.0136],[28.0753,47.9129,154.2712],[28.0684,47.9011,176.5862]]]]}
,"properties": {"GID_1": "MDA.18_1","GID_0": "MDA","country": "Moldova","province": "Floreşti","VARNAME_1": "NA","NL_NAME_1": "NA","TYPE_1": "Raion","ENGTYPE_1": "District","CC_1": "NA","HASC_1": "MD.FL","ISO_1": "NA","name": "Floreşti.province","area_km2": 1106.9834,"hist_schema_id": "Elevation0-9000","hist_area_km2": {"25": 14.0075,"50": 42.2632,"75": 34.8969,"100": 102.694,"125": 174.6134,"150": 205.7619,"175": 158.5012,"200": 105.3565,"225": 76.2156,"250": 65.9186,"275": 60.6358,"300": 50.644,"325": 14.4673,"350": 1.0076}}}