{"type":"Feature","properties":{"ISO3166-1-Alpha-3":"MDA","country":"Moldova","fill":"#00F","id":"1635","name":"Floreşti"},
"geometry":{"type": "Polygon","coordinates": [[[28.36972,47.98893,243.9394],[28.32233,48.00201,309.3229],[28.30476,48.0102,172.5345],[28.28714,48.01505,175.9592],[28.27965,48.00606,154.9829],[28.27288,47.99578,192.7058],[28.24079,47.99079,325.8192],[28.20751,47.99314,322.8993],[28.13754,47.99314,123.7968],[28.06886,47.98508,161.6443],[28.06478,47.96134,141.0991],[28.07413,47.93811,178.539],[28.08059,47.93092,162.2794],[28.08333,47.92147,142.0136],[28.07672,47.91155,150.7086],[28.0684,47.90111,176.5862],[28.08483,47.8902,121.1336],[28.0993,47.87811,122.1732],[28.10297,47.86483,117.7011],[28.10865,47.85429,90.2958],[28.11981,47.85279,108.6723],[28.13185,47.85005,110.4968],[28.13868,47.827,90.9031],[28.15764,47.82814,115.9048],[28.18312,47.83372,138.0302],[28.20167,47.80793,173.8347],[28.22007,47.78765,218.111],[28.25681,47.78592,173.7893],[28.2905,47.78111,138.3627],[28.27696,47.75393,130.7107],[28.27515,47.7328,119.5706],[28.35127,47.72334,190.7984],[28.37944,47.70691,96.4553],[28.40533,47.68794,182.23],[28.42129,47.69988,114.3423],[28.44119,47.70634,117.7207],[28.45845,47.69773,102.9995],[28.47555,47.69135,95.2432],[28.50496,47.72032,133.4285],[28.5341,47.75559,228.3274],[28.51943,47.79378,246.1272],[28.48429,47.80682,285.7805],[28.46956,47.81522,169.706],[28.45468,47.81757,185.1587],[28.44724,47.8107,168.9021],[28.43902,47.80592,144.6651],[28.42744,47.84615,167.5204],[28.47798,47.88855,233.9098],[28.49617,47.91547,319.7488],[28.50553,47.95873,209.003],[28.49648,47.98782,206.2967],[28.46661,47.99717,248.0878],[28.43726,47.98684,283.8863],[28.40863,48.00007,210.1992],[28.38915,47.99288,299.5778],[28.36972,47.98893,243.9394]]]}}