{"type":"Feature","properties":{"ISO3166-1-Alpha-3":"MDA","country":"Moldova","fill":"#F0F","id":"1651","name":"Ştefan Voda"},
"geometry":{"type": "Polygon","coordinates": [[[29.66618,46.67632,12.4662],[29.65155,46.69255,3.311],[29.61621,46.69865,5.1444],[29.59512,46.71294,144.2905],[29.57011,46.72382,145.7044],[29.57817,46.69457,121.0297],[29.57332,46.6663,100.0014],[29.55864,46.66284,142.2454],[29.54221,46.66263,148.7805],[29.53115,46.64609,132.2864],[29.51807,46.62982,115.9504],[29.50118,46.63193,155.0583],[29.48376,46.63545,67.1072],[29.45544,46.62299,151.3721],[29.42986,46.60584,156.521],[29.42805,46.59189,199.7296],[29.42836,46.57752,168.749],[29.41674,46.55923,167.6953],[29.42108,46.54067,124.6306],[29.44351,46.52137,81.656],[29.45384,46.49665,80.7418],[29.45663,46.48476,110.8442],[29.45672,46.48437,110.8442],[29.45761,46.48471,110.8442],[29.48087,46.48205,141.5706],[29.48645,46.47587,136.1059],[29.4882,46.46936,106.2485],[29.48624,46.46249,84.5086],[29.48087,46.45551,62.7713],[29.47529,46.44755,104.4892],[29.47332,46.4398,87.4735],[29.47508,46.43226,61.5026],[29.48087,46.42515,78.7681],[29.49606,46.42081,56.6095],[29.52748,46.41665,81.1904],[29.54143,46.41303,119.4651],[29.55564,46.4042,140.4929],[29.56944,46.38229,119.1384],[29.58298,46.36965,85.4834],[29.59859,46.36306,86.0223],[29.61564,46.36182,58.9223],[29.63207,46.36606,73.9961],[29.64551,46.37559,121.1637],[29.65295,46.3919,141.8591],[29.64799,46.41639,146.9931],[29.6544,46.4227,149.7648],[29.68271,46.42293,90.1819],[29.70287,46.42833,134.049],[29.71382,46.44306,153.4292],[29.71413,46.47117,157.0214],[29.72695,46.4558,152.5224],[29.77956,46.4211,137.2693],[29.80033,46.39836,130.6876],[29.80508,46.38999,122.0463],[29.80674,46.38089,108.2895],[29.80617,46.36156,120.7297],[29.80819,46.35469,117.816],[29.82813,46.33939,94.0676],[29.84777,46.34146,60.9651],[29.88467,46.3642,121.3203],[29.90255,46.37118,128.8925],[29.91867,46.37366,127.6369],[30.03727,46.36893,109.453],[30.08114,46.3742,17.4796],[30.10719,46.3919,0.8066],[30.13158,46.42283,2.1324],[30.11824,46.42869,11.3885],[30.10202,46.43073,4.2243],[30.08693,46.42887,1.4329],[30.07701,46.42283,10.8977],[30.06,46.4368,17.8126],[30.01406,46.46202,-0.5],[30.02171,46.47065,8.8025],[30.00941,46.48807,2.3698],[30.00285,46.49422,9.2109],[29.99494,46.49853,6.2255],[29.98926,46.49869,11.9525],[29.97706,46.49318,0.6122],[29.97055,46.49174,0.742],[29.96704,46.49386,5.9655],[29.96208,46.50344,16.438],[29.96022,46.50595,18.0134],[29.91609,46.51882,2.0586],[29.90193,46.53083,5.4347],[29.89883,46.55313,2.1739],[29.89066,46.55812,12.5561],[29.8703,46.57669,3.5763],[29.86749,46.58042,4.6169],[29.86725,46.58072,4.6169],[29.85237,46.58077,6.1957],[29.83987,46.58253,3.4224],[29.83986,46.58253,3.4224],[29.83005,46.58858,3.3711],[29.82337,46.60087,2.4665],[29.82317,46.60124,2.4665],[29.78643,46.583,2.9766],[29.77542,46.58072,5.4564],[29.74256,46.59323,10.7742],[29.72831,46.59431,28.059],[29.72762,46.59437,28.059],[29.73522,46.60759,6.2973],[29.74747,46.61762,22.8044],[29.76173,46.62473,21.8516],[29.77542,46.62914,4.0591],[29.75832,46.65883,27.3027],[29.74912,46.66543,26.3779],[29.74871,46.66573,26.3779],[29.72762,46.67012,26.9524],[29.72049,46.66831,6.6149],[29.71114,46.6649,4.5296],[29.70339,46.6649,11.1684],[29.70308,46.6649,11.1684],[29.69967,46.67322,6.4],[29.69572,46.67567,4.733],[29.69532,46.67591,4.733],[29.68525,46.677,5.4135],[29.66684,46.67635,12.4662],[29.66618,46.67632,12.4662]]]}}