{"type":"Feature","properties":{"featurecla":"River","scalerank":6,"rivernum":231,"dissolve":"231River","name":"Dniester4","name_alt":null,"note":null,"min_zoom":5.0,"strokeweig":0.2,"name_en":"Dniester","min_label":6.0},
"geometry":{"type": "LineString","coordinates": [[30.130957031250006,46.423114324994117,2.1324],[30.138671875,46.41828034061912,17.2824],[30.1455078125,46.41828034061912,2.1017],[30.15234375,46.422381903119117,0.6042],[30.158935546875,46.42987702030662,3.19],[30.167578125,46.42536041874412,1.9494],[30.17822265625,46.430780340619116,1.515],[30.190332031250023,46.439227606244117,0.0],[30.203320312500011,46.44354889530662,1.411],[30.219335937500006,46.442010809369116,1.6433],[30.236083984375,46.436883856244116,0.7696],[30.249267578125,46.42731354374412,1.2237],[30.254492187500006,46.41254303593162,1.5014],[30.25732421875,46.394159246869116,0.7189],[30.264062500000023,46.38605377811912,0.9913],[30.273046875,46.38019440311912,0.4764],[30.282470703125,46.36847565311912,1.1539],[30.288281250000011,46.352167059369116,1.2741],[30.2890625,46.336053778119116,1.7895],[30.283105468750023,46.324090887494116,0.8951],[30.268798828125,46.32001373905662,1.3913]]}}