{"type": "Feature","bbox": [29.4147,46.3624,30.1637,46.7238],"geometry": {"type": "MultiPolygon","coordinates": [[[[29.4539,46.4967,80.7418],[29.488,46.4809,152.4815],[29.5066,46.4674,144.4641],[29.5089,46.4649,122.4249],[29.5075,46.4575,132.4799],[29.5025,46.4518,113.857],[29.4986,46.4436,110.6488],[29.5054,46.4344,102.9381],[29.5285,46.4142,84.6852],[29.5368,46.4124,108.321],[29.5499,46.4122,144.1677],[29.5605,46.4087,119.989],[29.5786,46.3811,86.9619],[29.5934,46.3643,74.6358],[29.6065,46.3624,50.3162],[29.6804,46.3635,69.1887],[29.701,46.3706,126.122],[29.7,46.3747,119.6106],[29.6953,46.3781,115.8508],[29.6871,46.3799,78.1357],[29.6824,46.3841,74.7595],[29.678,46.3925,74.4471],[29.6742,46.4165,86.5694],[29.6727,46.4388,142.5166],[29.6741,46.4437,140.1752],[29.6814,46.4469,137.9796],[29.6896,46.4426,103.4279],[29.6952,46.4351,100.013],[29.6999,46.4333,110.391],[29.7084,46.4348,148.2106],[29.737,46.4343,140.138],[29.7446,46.4448,133.0789],[29.7462,46.4547,113.6634],[29.7417,46.4631,115.1967],[29.7419,46.468,95.1791],[29.747,46.4737,121.8945],[29.7542,46.4752,132.2896],[29.7671,46.47,145.3374],[29.7753,46.4649,154.7851],[29.7882,46.4605,152.7745],[29.7964,46.4554,150.3849],[29.7936,46.4464,146.874],[29.7932,46.4365,146.1014],[29.7977,46.4298,144.4721],[29.8184,46.412,139.0189],[29.8163,46.3914,131.6598],[29.8209,46.3864,127.3377],[29.8291,46.3821,121.6179],[29.8398,46.381,113.17],[29.8515,46.3775,82.1046],[29.8608,46.3715,89.8911],[29.8855,46.3644,121.3203],[29.8941,46.3684,128.8864],[29.8957,46.3782,131.5658],[29.908,46.3862,130.572],[29.9469,46.4028,126.0101],[29.9611,46.4,131.3532],[30.0104,46.3824,119.0504],[30.0236,46.3854,117.2769],[30.0359,46.3934,107.3773],[30.0518,46.4005,57.5106],[30.0746,46.4033,21.472],[30.0875,46.3989,13.5795],[30.0931,46.3913,5.1491],[30.1012,46.387,1.0216],[30.1172,46.3974,0.3763],[30.1487,46.4057,0.9986],[30.1572,46.4186,-0.2862],[30.1561,46.4199,-0.3652],[30.1637,46.4276,2.1301],[30.1597,46.4302,2.7548],[30.1551,46.4302,1.5987],[30.1427,46.4192,2.0996],[30.134,46.4189,13.594],[30.126,46.4299,1.9874],[30.1047,46.4373,2.2981],[30.0823,46.4366,3.1869],[30.078,46.4323,2.3974],[30.062,46.4326,3.298],[30.0586,46.4359,17.8126],[30.06,46.4443,8.2638],[30.057,46.4459,3.0613],[30.0376,46.4483,3.3408],[30.0219,46.4576,-0.5],[30.0096,46.4579,0.3626],[30.0009,46.4646,2.9808],[30.0226,46.4676,13.7209],[30.0289,46.4713,0.9233],[30.0259,46.4746,2.1536],[30.0129,46.4753,2.6361],[30.0062,46.4736,1.2409],[30.0022,46.4753,2.7675],[30.0032,46.48,0.6223],[30.0166,46.484,3.1724],[30.0102,46.4873,2.3698],[30.0032,46.4873,3.083],[29.9962,46.4896,3.2536],[30.0,46.4966,2.8573],[29.9942,46.5047,8.5666],[29.9885,46.5057,9.9571],[29.9849,46.504,11.6877],[29.9802,46.4947,0.8133],[29.9712,46.497,9.5394],[29.9588,46.4947,1.5],[29.9675,46.507,9.0003],[29.9722,46.5097,3.3072],[29.9692,46.5137,3.9508],[29.9609,46.511,11.9971],[29.9462,46.5013,1.59],[29.9365,46.5037,1.6574],[29.9285,46.5153,8.6479],[29.9178,46.5173,0.85],[29.8938,46.5437,4.1],[29.8944,46.5531,10.725],[29.8961,46.5561,5.4767],[29.9105,46.5597,2.2572],[29.9428,46.5581,4.7368],[29.9473,46.5602,3.7554],[29.9149,46.5774,5.6436],[29.89,46.5879,1.8923],[29.8732,46.6007,1.8289],[29.8405,46.6162,2.8356],[29.8076,46.6157,3.5356],[29.7889,46.6114,0.8894],[29.7717,46.6043,1.284],[29.76,46.6043,2.6694],[29.7525,46.6073,4.1104],[29.7471,46.611,9.4345],[29.7456,46.6151,9.687],[29.7442,46.627,19.3046],[29.7459,46.6338,6.0038],[29.7507,46.6396,4.3266],[29.7771,46.6561,4.1323],[29.7832,46.6631,4.804],[29.7825,46.6672,3.6363],[29.7733,46.6748,3.3702],[29.759,46.69,7.7853],[29.7505,46.691,8.1768],[29.7066,46.6895,4.7523],[29.6615,46.6954,4.3561],[29.6195,46.6972,5.647],[29.6129,46.7001,4.6783],[29.6044,46.7105,102.6393],[29.5928,46.7188,139.1506],[29.5701,46.7238,145.7044],[29.5756,46.7062,148.4646],[29.5775,46.6929,111.464],[29.5764,46.6722,26.3488],[29.5695,46.6609,140.7179],[29.5533,46.664,139.6787],[29.5422,46.6626,148.7805],[29.5391,46.66,140.029],[29.5302,46.6423,99.5262],[29.5181,46.6298,115.9504],[29.5109,46.6297,144.1122],[29.4949,46.6349,131.1072],[29.4838,46.6355,67.1072],[29.4655,46.6238,191.3973],[29.4436,46.6144,172.9265],[29.4258,46.6029,195.5453],[29.4246,46.5965,201.3531],[29.43,46.585,191.0955],[29.4295,46.5805,183.6491],[29.4272,46.5746,142.424],[29.4163,46.5621,143.3331],[29.4147,46.5485,140.5806],[29.416,46.5444,122.2941],[29.4261,46.537,99.3285],[29.4548,46.5069,72.5806],[29.4555,46.5026,77.1936],[29.4539,46.4967,80.7418]]]]}
,"properties": {"GID_1": "MDA.32_1","GID_0": "MDA","country": "Moldova","province": "ŞtefanVoda","VARNAME_1": "NA","NL_NAME_1": "NA","TYPE_1": "Raion","ENGTYPE_1": "District","CC_1": "NA","HASC_1": "MD.SV","ISO_1": "NA","name": "Ştefan_Voda.province","area_km2": 1101.7224,"hist_schema_id": "Elevation0-9000","hist_area_km2": {"0": 207.1516,"25": 46.4182,"50": 44.1697,"75": 85.1737,"100": 127.1264,"125": 199.9467,"150": 250.5726,"175": 126.4494,"200": 14.7141}}}