{"type":"Feature","properties":{"id":128755.0,"fillOpacity":1,"fill":"#F0F","name":"Stânca-Costești Dam","title":"Stânca-Costești Dam","lge_id":null,"pfafstette":18735.0,"lke_type":"N","altitude":82,"objectid":79875,"scalerank":11,"featurecla":"Lake","note":"Stânca-Costești Dam between Romania and Moldova","funkyname":0,"min_zoom":6.7,"min_label":7.7},
"geometry":{"type": "Polygon","coordinates": [[[27.262705925396233,47.908392645306577,120.5922],[27.262705925396233,47.908392645306577,120.5922],[27.261241081646233,47.912359930462827,129.8665],[27.249034050396233,47.893805242962827,107.2481],[27.238169792583733,47.881659246869077,103.3831],[27.225352409771233,47.888067938275327,99.2252],[27.222422722271233,47.901129461712827,95.9944],[27.211192253521233,47.914801336712827,104.5193],[27.187510612896233,47.918036199994077,101.5044],[27.189463737896233,47.937567449994077,100.4297],[27.187510612896233,47.949286199994077,107.9018],[27.173106316021233,47.964972235150327,110.167],[27.181651237896233,47.972723699994077,124.6825],[27.175791862896233,47.988348699994077,144.7387],[27.161875847271233,47.997565008587827,86.5],[27.143199089458733,47.987127996869077,96.6045],[27.146494987896233,47.970770574994077,92.3433],[27.140635612896233,47.957098699994077,94.045],[27.149180534771233,47.932989813275327,94.7352],[27.154307487896233,47.912176824994077,89.0884],[27.171519401958733,47.902777410931577,116.8445],[27.186534050396233,47.894415594525327,105.4701],[27.194346550396233,47.868292547650327,86.5],[27.205088737896233,47.847052313275327,86.5],[27.232432487896233,47.857489324994077,86.5],[27.248789909771233,47.866095282025327,86.5],[27.256358269146233,47.886236883587827,92.8529],[27.262705925396233,47.908392645306577,120.5922]]]}}