{"type": "Feature","id": "1617","bbox": [27.1607,47.75068,27.9528,48.12042],"geometry": {"type": "Polygon","coordinates": [[[27.68826,48.05464,176.3139],[27.64682,48.07177,187.3733],[27.60444,48.07851,147.8158],[27.57907,48.10564,221.8958],[27.54615,48.12042,198.7279],[27.54724,48.09603,175.9743],[27.55628,48.07045,163.7664],[27.55726,48.06068,212.3221],[27.47717,48.02105,178.2506],[27.43794,48.01154,241.7177],[27.41572,48.01146,219.9961],[27.39464,48.01288,208.0661],[27.37738,48.00348,194.3167],[27.3519,48.01162,135.6962],[27.33387,48.02994,145.2726],[27.30395,48.0241,165.1435],[27.27795,48.00312,158.8192],[27.2625,47.97418,168.5628],[27.24199,47.95211,121.2962],[27.21444,47.94467,136.0277],[27.18612,47.94268,106.5263],[27.17827,47.9421,86.5],[27.17827,47.93793,98.9254],[27.1607,47.92173,86.5],[27.17155,47.91263,86.5],[27.19418,47.90405,86.5],[27.21237,47.88951,86.5],[27.21155,47.88501,86.5],[27.2132,47.85413,86.5],[27.21237,47.84793,86.5],[27.22281,47.84266,86.5],[27.23491,47.84021,73.7804],[27.24581,47.83659,73.4128],[27.25341,47.82809,68.3545],[27.2192,47.81378,64.3611],[27.23108,47.80708,67.3773],[27.24488,47.79259,67.3747],[27.2562,47.77755,69.8378],[27.26085,47.76908,65.0761],[27.26467,47.76455,63.4647],[27.28245,47.75569,74.4128],[27.28751,47.75233,78.5143],[27.28811,47.75068,75.5084],[27.29914,47.75409,83.2202],[27.31712,47.76256,105.5643],[27.33371,47.77279,91.8599],[27.34245,47.79101,124.1387],[27.34772,47.81047,110.3018],[27.3812,47.83796,113.7634],[27.42167,47.84463,211.6801],[27.45541,47.84282,174.0641],[27.48352,47.86452,198.8341],[27.52755,47.86736,185.8364],[27.57334,47.85974,167.9803],[27.6648,47.82406,158.7492],[27.69886,47.82636,131.1068],[27.72816,47.83791,137.1424],[27.76268,47.83636,205.7654],[27.8158,47.79465,107.2734],[27.84841,47.78458,154.3236],[27.90148,47.79848,112.2531],[27.9528,47.8162,205.7064],[27.95099,47.84804,170.4034],[27.92169,47.85323,194.6681],[27.91285,47.88075,189.2132],[27.90959,47.8992,166.3791],[27.88866,47.91002,166.3617],[27.82536,47.9634,178.2944],[27.79544,47.96219,186.7618],[27.77172,47.9409,174.2713],[27.73927,47.92906,125.2611],[27.70315,47.94245,158.7058],[27.6847,47.95271,156.213],[27.67209,47.96888,184.6256],[27.67545,47.97774,145.3219],[27.67984,47.98456,147.6707],[27.6787,47.99534,180.6902],[27.67328,48.00493,142.6728],[27.67529,48.01345,140.8448],[27.68351,48.02038,192.3707],[27.68826,48.05464,176.3139]]]}
,"properties": {"ISO3166-1-Alpha-3": "MDA","country": "Moldova","fill": "#F00","name": "Rîşcani","area_km2": 1058.1934,"hist_schema_id": "Elevation0-9000","hist_area_km2": {"50": 0.9403,"75": 31.6046,"100": 61.9912,"125": 100.0606,"150": 190.8397,"175": 302.8501,"200": 256.7068,"225": 97.8377,"250": 13.8117,"275": 1.5508}}}