{"type": "Feature","bbox": [27.1524,47.7541,27.9528,48.1207],"geometry": {"type": "MultiPolygon","coordinates": [[[[27.9528,47.8162,205.7064],[27.951,47.848,170.4034],[27.9377,47.8468,213.778],[27.9235,47.8498,184.544],[27.9182,47.8531,184.6034],[27.9104,47.8643,185.8754],[27.9129,47.8808,189.2132],[27.9157,47.8893,180.1239],[27.9155,47.8958,191.3128],[27.9131,47.8997,193.3109],[27.8925,47.9089,162.7709],[27.8777,47.9133,152.4926],[27.8697,47.9223,146.0726],[27.8592,47.9415,199.5732],[27.8505,47.9515,194.1517],[27.8393,47.9574,190.9001],[27.8193,47.9655,182.0246],[27.8045,47.9678,177.4129],[27.7858,47.956,148.4218],[27.7687,47.9379,156.8573],[27.7651,47.931,149.2888],[27.7478,47.927,112.4577],[27.7256,47.9321,145.2504],[27.6896,47.9489,159.5286],[27.678,47.9595,169.53],[27.6725,47.9669,197.8382],[27.6717,47.9709,175.7039],[27.6717,47.9758,163.2379],[27.6798,47.9846,147.6707],[27.6804,47.988,170.3021],[27.678,47.999,157.392],[27.6717,48.0067,151.4809],[27.6721,48.0108,155.6458],[27.6885,48.0264,213.5459],[27.684,48.0347,214.954],[27.6842,48.0398,206.4561],[27.6903,48.0467,162.5694],[27.6899,48.0518,140.2688],[27.681,48.0651,179.1683],[27.6726,48.071,190.1762],[27.6647,48.0734,207.1476],[27.6103,48.0742,145.5],[27.6071,48.0754,150.287],[27.5771,48.1097,219.0858],[27.5498,48.1207,212.1841],[27.5465,48.1207,198.7279],[27.5435,48.1183,184.7636],[27.5423,48.1134,213.0852],[27.5563,48.0704,183.0733],[27.5622,48.0633,187.3495],[27.562,48.0607,197.1832],[27.5477,48.0554,209.0311],[27.5357,48.0472,184.0014],[27.5184,48.0415,196.9063],[27.5077,48.0334,185.5781],[27.4967,48.0285,196.7219],[27.4379,48.0115,241.7177],[27.4174,48.0073,234.4682],[27.3974,48.0132,208.3328],[27.3919,48.0126,198.5796],[27.3872,48.0114,179.4909],[27.3774,48.0035,194.3167],[27.3715,48.0017,175.9892],[27.364,48.0017,172.1066],[27.3518,48.0057,131.118],[27.3338,48.0299,145.2726],[27.3298,48.0324,160.8604],[27.3239,48.0326,160.4765],[27.3052,48.0236,166.4823],[27.2865,48.0111,222.4522],[27.2749,48.0003,145.658],[27.2672,47.9871,210.1573],[27.2621,47.9747,168.5628],[27.2631,47.9617,97.5808],[27.2601,47.958,127.7123],[27.2534,47.9547,135.0225],[27.242,47.9521,121.2962],[27.2089,47.9467,131.489],[27.204,47.9435,116.7567],[27.1861,47.9427,106.5263],[27.1841,47.9394,99.9129],[27.1743,47.942,86.5],[27.1524,47.9215,86.5],[27.2015,47.9021,86.5],[27.2106,47.8496,86.5],[27.2315,47.8388,74.4792],[27.2459,47.8377,76.8658],[27.2498,47.8343,79.3149],[27.2487,47.8306,66.5679],[27.236,47.8252,70.6549],[27.2321,47.8258,67.3397],[27.2286,47.8307,70.1327],[27.2244,47.8319,67.2801],[27.2175,47.8259,67.8617],[27.2169,47.8195,71.554],[27.2236,47.8148,66.488],[27.2385,47.8173,70.0197],[27.2432,47.8158,65.3571],[27.2426,47.8124,63.275],[27.2324,47.8065,68.0788],[27.2327,47.7998,68.0908],[27.2349,47.7978,68.009],[27.2406,47.7982,63.6296],[27.2514,47.794,67.2018],[27.2506,47.7883,71.6085],[27.256,47.7844,64.0247],[27.2543,47.7808,72.1174],[27.2554,47.7789,79.5619],[27.2644,47.7814,65.7067],[27.2681,47.7804,64.4404],[27.2678,47.772,65.0049],[27.2695,47.7682,65.5254],[27.266,47.7638,63.4647],[27.2667,47.7609,65.8947],[27.2696,47.7606,66.0801],[27.281,47.7647,70.3896],[27.2856,47.7592,72.4249],[27.3001,47.76,103.1253],[27.2992,47.7541,83.2202],[27.3215,47.7668,94.3477],[27.3291,47.769,81.4829],[27.3384,47.7766,120.5857],[27.3428,47.7823,89.6885],[27.345,47.8067,122.1398],[27.3503,47.8142,110.3792],[27.3619,47.8204,116.9044],[27.376,47.8328,135.9018],[27.3911,47.8422,118.1886],[27.4035,47.8479,193.3939],[27.4102,47.8492,213.3696],[27.4354,47.8382,154.9075],[27.451,47.8355,173.7348],[27.4625,47.8435,171.8742],[27.4795,47.8623,197.3149],[27.4875,47.8667,197.0984],[27.5021,47.8667,165.8691],[27.5212,47.8636,153.6309],[27.5527,47.8632,157.5453],[27.5846,47.8579,197.1283],[27.6165,47.8455,199.993],[27.6457,47.83,183.5361],[27.6763,47.8211,186.9569],[27.702,47.8224,166.111],[27.7073,47.826,125.5427],[27.7104,47.8313,116.093],[27.7251,47.8375,144.7966],[27.7534,47.8397,142.5581],[27.7747,47.8326,187.2088],[27.7827,47.8251,173.4716],[27.8004,47.8012,105.0479],[27.8088,47.7967,100.5],[27.8257,47.7923,143.7889],[27.8345,47.7874,185.8557],[27.8484,47.7846,154.3236],[27.873,47.7852,157.6549],[27.8915,47.7889,114.1235],[27.9186,47.8111,120.5399],[27.9528,47.8162,205.7064]]]]}
,"properties": {"GID_1": "MDA.28_1","GID_0": "MDA","country": "Moldova","province": "Rîşcani","VARNAME_1": "NA","NL_NAME_1": "NA","TYPE_1": "Raion","ENGTYPE_1": "District","CC_1": "NA","HASC_1": "MD.RS","ISO_1": "NA","name": "Rîşcani.province","area_km2": 1060.9988,"hist_schema_id": "Elevation0-9000","hist_area_km2": {"50": 0.2564,"75": 33.6333,"100": 63.1023,"125": 99.3815,"150": 189.7063,"175": 304.2672,"200": 257.2829,"225": 98.0772,"250": 13.7408,"275": 1.5508}}}