{"type":"Feature","properties":{"ISO3166-1-Alpha-3":"MDA","country":"Moldova","fill":"#00F","id":"1616","name":"Ocniţa"},
"geometry":{"type": "Polygon","coordinates": [[[27.62703,48.45126,93.7631],[27.60687,48.45782,81.871],[27.60481,48.48412,73.5268],[27.583,48.48603,78.6506],[27.55706,48.47435,211.6127],[27.54517,48.47237,78.0465],[27.5039,48.47237,101.1446],[27.50383,48.47237,101.1446],[27.48089,48.45141,236.2287],[27.42022,48.41715,247.9709],[27.40347,48.41149,265.1053],[27.38983,48.415,275.2006],[27.36141,48.43281,238.7504],[27.34219,48.43611,261.3423],[27.30601,48.42366,284.6209],[27.25193,48.37831,252.9463],[27.25361,48.37519,249.7143],[27.26974,48.33118,248.9091],[27.31154,48.30289,228.4999],[27.40337,48.24747,196.2203],[27.50993,48.23729,241.6317],[27.52326,48.25468,239.3423],[27.54502,48.29573,209.9259],[27.56341,48.31385,235.4306],[27.57509,48.33948,261.8197],[27.59163,48.35669,259.8344],[27.65385,48.34847,235.3576],[27.70289,48.35643,232.8002],[27.80846,48.35023,208.9429],[27.86143,48.36764,245.6577],[27.88525,48.37839,80.243],[27.88537,48.37844,80.243],[27.86484,48.39891,147.5747],[27.84986,48.40963,81.4173],[27.78526,48.44157,101.3222],[27.75177,48.45198,77.364],[27.62703,48.45126,93.7631]]]}}