{"type": "Feature","bbox": [27.2526,48.234,27.8872,48.4902],"geometry": {"type": "MultiPolygon","coordinates": [[[[27.3115,48.3029,228.4999],[27.3383,48.2794,255.1924],[27.3659,48.2622,237.7802],[27.3966,48.2451,214.3554],[27.4244,48.2359,171.6279],[27.4448,48.234,217.9038],[27.5099,48.2373,241.6317],[27.5171,48.2468,247.1436],[27.5227,48.2594,234.4314],[27.5271,48.2653,242.3438],[27.5331,48.2698,210.0192],[27.5371,48.2909,222.5027],[27.5634,48.3138,235.4306],[27.5738,48.3279,199.695],[27.5779,48.3409,266.5634],[27.579,48.3512,203.0273],[27.586,48.356,252.1432],[27.5973,48.3573,232.6147],[27.6084,48.3521,217.7389],[27.6273,48.3488,195.5105],[27.6721,48.3488,194.6114],[27.6899,48.3533,241.3322],[27.7062,48.3618,256.0329],[27.7284,48.3629,216.5228],[27.7573,48.3529,217.7154],[27.7776,48.3481,206.5623],[27.8065,48.3481,192.0958],[27.8261,48.3499,225.6895],[27.8365,48.354,240.1559],[27.8435,48.3592,262.5094],[27.8802,48.3777,59.6005],[27.8872,48.3905,213.9403],[27.8795,48.4043,201.3667],[27.8727,48.4098,120.4111],[27.8533,48.4172,101.5149],[27.8281,48.4216,68.3745],[27.8077,48.4399,71.6876],[27.7946,48.4485,70.7614],[27.7741,48.456,78.1032],[27.7636,48.4586,74.1096],[27.7471,48.4584,59.5],[27.7252,48.4547,60.0],[27.6826,48.4435,70.577],[27.6539,48.4462,88.0143],[27.6424,48.4486,94.2829],[27.6071,48.4617,84.9778],[27.5996,48.4672,89.4847],[27.6005,48.4768,136.5422],[27.604,48.4868,64.587],[27.6033,48.4902,63.375],[27.5884,48.4893,74.6761],[27.5797,48.4846,80.5525],[27.5661,48.4738,199.8848],[27.5471,48.4675,207.8057],[27.5116,48.46,201.8496],[27.4971,48.4536,235.0884],[27.4716,48.4489,260.7626],[27.4642,48.4234,233.8853],[27.4552,48.4191,250.1699],[27.4168,48.4204,244.3812],[27.3813,48.4106,281.155],[27.377,48.4151,279.0588],[27.3731,48.4298,274.4538],[27.3592,48.4461,269.6152],[27.3495,48.4521,287.9868],[27.334,48.4486,278.7834],[27.3239,48.4414,266.9355],[27.3156,48.421,267.9957],[27.2971,48.3934,251.1696],[27.2848,48.3841,256.8326],[27.2536,48.3752,249.7143],[27.2526,48.3677,252.5482],[27.2543,48.3501,230.0172],[27.2572,48.3434,206.0948],[27.272,48.3298,258.7224],[27.3115,48.3029,228.4999]]]]}
,"properties": {"GID_1": "MDA.25_1","GID_0": "MDA","country": "Moldova","province": "Ocniţa","VARNAME_1": "NA","NL_NAME_1": "NA","TYPE_1": "Raion","ENGTYPE_1": "District","CC_1": "NA","HASC_1": "MD.OC","ISO_1": "NA","name": "Ocniţa.province","area_km2": 655.5149,"hist_schema_id": "Elevation0-9000","hist_area_km2": {"50": 5.0924,"75": 18.649,"100": 7.8909,"125": 8.0323,"150": 7.4138,"175": 17.6214,"200": 82.7435,"225": 188.2141,"250": 240.1689,"275": 78.6472,"300": 1.0415}}}