{"type":"Feature","properties":{"ISO3166-1-Alpha-3":"MDA","country":"Moldova","fill":"#F0F","id":"1652","name":"Camenca"},
"geometry":{"type": "Polygon","coordinates": [[[28.86209,48.0005,181.1632],[28.85569,48.00792,205.7717],[28.83925,48.01828,177.136],[28.83253,48.02482,197.0489],[28.83078,48.03087,207.5055],[28.82757,48.05702,198.0392],[28.81155,48.08291,227.1657],[28.80918,48.08978,212.4116],[28.80835,48.09657,217.4257],[28.80592,48.10381,227.4709],[28.79925,48.11179,241.4853],[28.77125,48.12445,161.7406],[28.73507,48.12869,154.6411],[28.66562,48.12934,138.5733],[28.57364,48.15497,172.1256],[28.5416,48.15595,155.6832],[28.51932,48.14913,112.3394],[28.50111,48.11289,49.566],[28.50108,48.11283,49.566],[28.49979,48.10891,47.7941],[28.50072,48.10877,47.7941],[28.54341,48.08797,170.3186],[28.51907,48.05226,86.0318],[28.48134,48.03324,139.3539],[28.46661,47.99717,248.0878],[28.49648,47.98782,206.2967],[28.50553,47.95873,209.003],[28.49617,47.91547,319.7488],[28.47798,47.88855,233.9098],[28.50398,47.88333,271.8252],[28.53054,47.89294,260.4157],[28.56919,47.8871,225.3782],[28.60077,47.86302,217.3592],[28.63704,47.84214,218.7486],[28.66919,47.85811,268.9371],[28.65684,47.87716,251.4072],[28.65792,47.89865,242.8646],[28.68324,47.93392,249.9077],[28.7204,47.95273,170.3477],[28.73828,47.95299,140.2077],[28.75559,47.95723,166.8715],[28.77026,47.97077,166.8508],[28.776,47.9741,150.9272],[28.78449,47.98252,40.271],[28.78479,47.98281,37.0878],[28.78513,47.98259,37.0878],[28.81285,47.96539,58.4165],[28.83026,47.94105,49.8711],[28.82887,47.91708,46.5843],[28.84092,47.91055,130.0859],[28.86096,47.89971,60.6279],[28.94214,47.88323,26.5],[28.9362,47.8915,97.7335],[28.92995,47.8947,75.8658],[28.93108,47.92568,198.1779],[28.93609,47.94216,218.0001],[28.9148,47.95315,196.0811],[28.88256,47.97676,201.2721],[28.86209,48.0005,181.1632]]]}}