{"type":"Feature","properties":{"ISO3166-1-Alpha-3":"MDA","country":"Moldova","fill":"#00F","id":"1644","name":"Rezina"},
"geometry":{"type": "Polygon","coordinates": [[[29.02674,47.52948,56.0852],[29.02467,47.53307,41.3624],[29.02126,47.55025,29.9614],[29.02064,47.57105,70.609],[29.01568,47.58206,36.7901],[28.99294,47.60474,28.316],[28.98648,47.62226,30.7063],[28.98901,47.62714,32.1841],[28.99351,47.63893,27.2475],[28.99542,47.65092,26.5],[28.99025,47.65639,89.0676],[28.98798,47.66076,95.6502],[28.98028,47.68743,26.5],[28.97558,47.74344,29.3939],[28.98028,47.76561,26.5],[29.01754,47.8269,31.6673],[29.01811,47.85354,29.3152],[28.9806,47.87529,27.7899],[28.98028,47.87548,26.5],[28.94214,47.88323,26.5],[28.94226,47.88306,26.5],[28.95537,47.86493,192.1366],[28.96302,47.84173,161.3452],[28.94596,47.84618,172.1135],[28.92829,47.84935,202.1946],[28.91641,47.8392,180.5784],[28.91181,47.82429,244.6555],[28.84148,47.83207,220.7041],[28.82401,47.81501,223.3734],[28.83967,47.81078,216.9997],[28.84034,47.80199,227.354],[28.81538,47.79548,264.8604],[28.79161,47.78649,255.8096],[28.76639,47.73554,238.0148],[28.69296,47.74484,294.8098],[28.63704,47.71704,262.4501],[28.6112,47.6666,258.7936],[28.66733,47.64531,98.0691],[28.68061,47.63544,142.3713],[28.68996,47.62009,225.052],[28.71849,47.60459,172.888],[28.71084,47.58226,109.4933],[28.70929,47.55462,234.4391],[28.72898,47.5541,137.545],[28.74804,47.55061,64.7165],[28.7683,47.53707,153.864],[28.793,47.53302,270.0488],[28.82122,47.54082,181.3302],[28.86096,47.57524,291.5926],[28.88561,47.57823,279.9149],[28.8978,47.58717,224.7446],[28.90488,47.59906,224.4841],[28.92984,47.59446,156.0842],[28.95496,47.57984,257.9601],[28.98782,47.54519,217.8173],[29.02674,47.52948,56.0852]]]}}