{"type":"Feature","properties":{"ISO3166-1-Alpha-3":"MDA","country":"Moldova","fill":"#F00","id":"1645","name":"Rezina"},
"geometry":{"type": "Polygon","coordinates": [[[29.13719,47.48401,149.311],[29.13066,47.49294,152.7072],[29.1306,47.49305,152.7072],[29.1305,47.4931,152.7072],[29.1304,47.4932,151.1677],[29.11743,47.53333,158.7026],[29.1305,47.55963,152.5661],[29.15618,47.58278,138.2576],[29.18207,47.61322,150.2799],[29.19241,47.65092,120.2935],[29.19148,47.68626,139.7829],[29.19696,47.7175,190.7256],[29.22667,47.74324,208.2867],[29.23861,47.756,146.5791],[29.23473,47.7668,193.2299],[29.22197,47.77481,178.5588],[29.18745,47.78321,115.7914],[29.17784,47.78972,124.7692],[29.17773,47.8007,143.9263],[29.18672,47.81822,139.8156],[29.19892,47.82948,136.8496],[29.21742,47.84289,99.4598],[29.23277,47.85708,123.9337],[29.23602,47.87072,136.4425],[29.226,47.87558,197.565],[29.18662,47.88364,239.1502],[29.17257,47.89101,216.3954],[29.16461,47.9056,229.6175],[29.15582,47.93987,149.3483],[29.14797,47.95537,217.4357],[29.13629,47.96818,250.5965],[29.12399,47.97599,260.2956],[29.11004,47.97966,242.9282],[29.09273,47.98017,243.2125],[29.06105,47.96976,190.2238],[29.01723,47.93108,202.3652],[28.98085,47.92638,100.6528],[28.95036,47.9348,203.8956],[28.93609,47.94216,218.0001],[28.93108,47.92568,198.1779],[28.92995,47.8947,75.8658],[28.9362,47.8915,97.7335],[28.94214,47.88323,26.5],[28.98028,47.87548,26.5],[28.9806,47.87529,27.7899],[29.01811,47.85354,29.3152],[29.01754,47.8269,31.6673],[28.98028,47.76561,26.5],[28.97558,47.74344,29.3939],[28.98028,47.68743,26.5],[28.98798,47.66076,95.6502],[28.99025,47.65639,89.0676],[28.99542,47.65092,26.5],[28.99351,47.63893,27.2475],[28.98901,47.62714,32.1841],[28.98648,47.62226,30.7063],[28.99294,47.60474,28.316],[29.01568,47.58206,36.7901],[29.02064,47.57105,70.609],[29.02126,47.55025,29.9614],[29.02467,47.53307,41.3624],[29.02674,47.52948,56.0852],[29.03304,47.51865,32.7916],[29.04859,47.5062,26.5],[29.0489,47.50607,26.5],[29.09278,47.48739,26.5],[29.09298,47.48722,26.5],[29.10384,47.47824,26.5],[29.10797,47.46943,35.5374],[29.10829,47.46936,35.5374],[29.12683,47.46563,90.2384],[29.13603,47.47938,143.0778],[29.13712,47.48372,148.7983],[29.13719,47.48401,149.311]]]}}