{"type":"Feature","properties":{"GID_1":"MDA.27_1","GID_0":"MDA","country":"Moldova","province":"Rezina","VARNAME_1":"NA","NL_NAME_1":"NA","TYPE_1":"Raion","ENGTYPE_1":"District","CC_1":"NA","HASC_1":"MD.RZ","ISO_1":"MD-RE","name":"Rezina.province"},
"geometry":{"type": "MultiPolygon","coordinates": [[[[29.0291,47.5295,61.5999],[29.0288,47.5474,85.9349],[29.0321,47.5527,115.6937],[29.0366,47.5685,154.5874],[29.0361,47.5775,145.7277],[29.0293,47.587,88.703],[29.0079,47.6017,61.2001],[28.9972,47.6129,73.6457],[28.9927,47.6208,89.7575],[28.9955,47.6377,64.5446],[29.0028,47.6433,147.6149],[29.0051,47.649,167.1371],[29.004,47.6563,154.3981],[28.9921,47.6788,90.2032],[28.991,47.689,133.954],[28.9865,47.703,160.8886],[28.9769,47.7199,82.3642],[28.9769,47.7273,101.0136],[28.9797,47.7346,82.7381],[28.991,47.747,120.4],[28.9933,47.7537,38.2153],[28.9921,47.7678,38.4445],[28.9955,47.7774,37.1614],[28.9955,47.7869,33.3071],[28.9995,47.7982,34.3576],[29.0062,47.8095,31.2383],[29.0192,47.8185,101.9269],[29.0254,47.8337,61.3466],[29.0332,47.8438,159.0098],[29.0327,47.8511,35.3298],[29.0259,47.859,156.9717],[29.0141,47.8669,72.3586],[28.9995,47.8737,56.5364],[28.9797,47.8804,34.0455],[28.968,47.8817,42.1566],[28.9596,47.8855,114.8451],[28.9414,47.8889,152.776],[28.9362,47.8915,97.7335],[28.9341,47.8884,48.5851],[28.9344,47.8848,31.3632],[28.9549,47.8676,175.7527],[28.9643,47.8577,174.2477],[28.967,47.8505,173.5195],[28.967,47.8458,145.933],[28.9654,47.8422,162.6586],[28.9607,47.8413,152.9247],[28.954,47.8422,157.0697],[28.9416,47.848,182.457],[28.9283,47.8494,202.1946],[28.9225,47.8477,207.3149],[28.915,47.8413,180.756],[28.913,47.8264,240.2481],[28.9106,47.8222,238.906],[28.905,47.8208,221.3372],[28.8848,47.8217,195.8306],[28.8398,47.838,234.9303],[28.8176,47.8374,169.4203],[28.8079,47.8335,162.1463],[28.8038,47.8247,136.397],[28.8071,47.8203,141.9937],[28.8425,47.8108,225.7339],[28.8453,47.8084,214.6325],[28.8436,47.8034,212.0105],[28.7916,47.7865,255.8096],[28.7791,47.7774,250.3988],[28.7764,47.771,238.8217],[28.7766,47.766,249.5567],[28.7805,47.7599,273.3869],[28.78,47.7497,206.2262],[28.7786,47.7441,182.8938],[28.7747,47.7386,213.0713],[28.7564,47.7339,242.381],[28.7454,47.725,297.634],[28.7376,47.727,238.1588],[28.7282,47.7342,229.6054],[28.7174,47.7394,262.4887],[28.6885,47.7476,284.0057],[28.6699,47.7515,251.5177],[28.6516,47.749,315.2629],[28.6464,47.744,314.5548],[28.6403,47.7304,310.2449],[28.6375,47.7174,278.8239],[28.6109,47.6969,291.3657],[28.6062,47.6889,274.6833],[28.6065,47.6667,263.082],[28.6123,47.6579,190.9298],[28.6253,47.6493,155.4693],[28.6353,47.6463,115.7137],[28.6705,47.6452,94.5395],[28.6788,47.6399,147.9775],[28.682,47.6315,197.2437],[28.6972,47.6123,195.9384],[28.7069,47.6082,144.1986],[28.7141,47.6074,157.1328],[28.7185,47.6046,172.888],[28.7191,47.5999,163.3746],[28.7077,47.5869,116.9592],[28.7063,47.5775,116.4094],[28.7036,47.5714,202.3844],[28.7093,47.5546,234.4391],[28.7398,47.5531,81.7068],[28.748,47.5506,64.7165],[28.7676,47.5335,141.8573],[28.7866,47.5321,223.3131],[28.7994,47.534,251.9813],[28.8348,47.5452,221.0824],[28.8515,47.5778,250.6664],[28.8584,47.581,288.0979],[28.8646,47.5812,291.9865],[28.8856,47.5782,279.9149],[28.895,47.5792,255.7469],[28.8993,47.5824,265.9731],[28.9033,47.5978,216.3489],[28.9065,47.6004,224.406],[28.9151,47.6008,184.2562],[28.945,47.5835,257.2756],[28.9715,47.5733,207.4624],[28.9775,47.5688,185.9974],[28.9801,47.5626,204.4611],[28.9809,47.5521,217.3093],[28.9877,47.5401,233.1379],[28.9944,47.5348,211.842],[29.0138,47.5277,114.4549],[29.0291,47.5295,61.5999]]]]}}