{"type":"Feature","properties":{"GID_1":"MDA.12_1","GID_0":"MDA","country":"Moldova","province":"Criuleni","VARNAME_1":"NA","NL_NAME_1":"NA","TYPE_1":"Raion","ENGTYPE_1":"District","CC_1":"NA","HASC_1":"MD.CR","ISO_1":"MD-CR","name":"Criuleni.province"},
"geometry":{"type": "MultiPolygon","coordinates": [[[[29.2976,47.1379,21.4783],[29.2988,47.1378,21.4783],[29.2945,47.15,19.7482],[29.2722,47.159,54.4887],[29.2577,47.1627,13.3594],[29.2079,47.1674,15.5795],[29.2005,47.1734,73.2526],[29.1911,47.1738,88.9531],[29.188,47.1701,72.1647],[29.188,47.1623,27.7309],[29.1897,47.1539,15.0761],[29.1961,47.1455,13.0443],[29.1968,47.1368,29.1971],[29.197,47.1228,65.4363],[29.1925,47.1155,81.1588],[29.1822,47.1147,15.7218],[29.1826,47.1218,15.9458],[29.1793,47.1199,16.5714],[29.1584,47.1203,16.4772],[29.1497,47.1183,16.799],[29.143,47.0977,30.9564],[29.1379,47.0914,16.1576],[29.1329,47.0873,17.6568],[29.1302,47.0872,11.4138],[29.1287,47.0771,12.351],[29.1115,47.0599,131.2229],[29.0867,47.0561,149.0947],[29.0332,47.058,87.5325],[28.9874,47.0542,129.1164],[28.9835,47.0498,114.7232],[28.9828,47.04,169.0083],[28.9765,47.0214,87.7155],[28.9744,47.0103,179.8295],[28.9882,47.0099,74.0573],[29.0013,47.0062,142.9466],[29.008,47.0076,143.5868],[29.0181,47.0224,181.6165],[29.0279,47.0305,93.7664],[29.0424,47.0382,169.4834],[29.0565,47.0432,72.5007],[29.0726,47.0422,49.0125],[29.0831,47.0395,40.6648],[29.0974,47.0313,88.8806],[29.1051,47.0111,134.1718],[29.1058,46.9916,175.8841],[29.1152,46.9869,172.8187],[29.134,46.9869,173.2464],[29.1435,46.9896,166.0671],[29.1623,46.9983,165.2632],[29.1711,47.0007,164.0949],[29.1818,47.0003,143.8385],[29.1926,46.996,166.3554],[29.2104,46.9818,157.9453],[29.2239,46.9771,78.5439],[29.2461,46.9765,129.903],[29.2521,46.9805,143.2437],[29.2548,46.9899,91.9713],[29.2548,47.0003,140.6359],[29.2505,47.0094,162.0752],[29.2488,47.0377,165.0967],[29.2493,47.0853,96.7787],[29.256,47.1206,93.6077],[29.2698,47.1317,12.5979],[29.2839,47.1327,12.5296],[29.2976,47.1379,21.4783]]],
[[[29.0712,47.1212,30.3102],[29.0879,47.1272,9.0],[29.1005,47.1361,17.4617],[29.1064,47.1501,11.1681],[29.1255,47.1582,16.784],[29.1336,47.1582,20.0622],[29.152,47.1663,20.0871],[29.1564,47.1707,18.5474],[29.1601,47.1825,11.4857],[29.1704,47.1891,10.8701],[29.1896,47.209,108.4553],[29.1896,47.2156,99.3368],[29.1852,47.2208,43.0512],[29.1793,47.2215,26.5829],[29.1749,47.2259,18.8142],[29.1688,47.2354,17.1429],[29.1727,47.2327,24.9683],[29.1712,47.239,27.0299],[29.0668,47.239,20.0019],[29.0596,47.2561,56.3391],[29.0611,47.2618,21.9282],[29.0497,47.2675,37.4901],[29.034,47.2675,18.8716],[29.0169,47.2804,99.6886],[28.9912,47.306,88.2755],[28.986,47.3092,23.0939],[28.9736,47.306399999999996,50.3179],[28.9551,47.3052,163.5041],[28.948,47.3003,187.2966],[28.9339,47.2946,184.2164],[28.9138,47.2796,222.3126],[28.8854,47.2638,207.9637],[28.8778,47.2616,225.1927],[28.8613,47.2604,244.0002],[28.8414,47.2668,267.5076],[28.8222,47.2665,256.1461],[28.8183,47.2637,269.046],[28.8102,47.2546,250.519],[28.8018,47.2388,207.7669],[28.8018,47.2342,193.2306],[28.8083,47.2181,189.1226],[28.8068,47.2031,193.1416],[28.8033,47.1992,190.7966],[28.7977,47.1987,139.4928],[28.7899,47.2026,137.7455],[28.7766,47.1526,131.2577],[28.7763,47.1495,184.2695],[28.8041,47.144,149.2484],[28.827,47.1325,120.5068],[28.848,47.1306,131.4486],[28.8748,47.1535,129.2505],[28.8996,47.1516,108.3484],[28.9129,47.1402,103.8664],[28.9168,47.123,101.7602],[28.9244,47.1039,154.8926],[28.9836,47.1039,173.1544],[29.0218,47.1058,72.557],[29.0638,47.1172,20.2347],[29.0712,47.1212,30.3102]]]]}}