{"type": "Feature","id": "1634","bbox": [28.77874,46.97631,29.29225,47.33313],"geometry": {"type": "Polygon","coordinates": [[[29.11014,47.2336,78.8501],[29.07366,47.24632,93.3858],[29.07665,47.26983,45.5962],[29.07113,47.29585,139.7473],[29.02167,47.33313,169.3273],[28.98653,47.30952,24.5477],[28.94431,47.29877,201.5927],[28.90643,47.27582,235.7353],[28.8655,47.2605,232.2567],[28.82701,47.26476,269.7944],[28.80184,47.23882,207.7669],[28.80603,47.2104,167.3318],[28.7899,47.20255,137.7455],[28.77874,47.1688,83.8503],[28.78473,47.13857,210.348],[28.8191,47.1211,201.9166],[28.84251,47.09529,98.4837],[28.86747,47.07232,139.6541],[28.9039,47.07054,165.6438],[28.94927,47.0269,147.2387],[28.95987,47.04044,156.6666],[28.96736,47.05945,93.0067],[28.98209,47.04323,161.0771],[28.97444,47.01036,179.8295],[28.99154,47.00773,82.11],[29.00808,47.00757,143.5868],[29.02792,47.03046,93.7664],[29.0566,47.04248,72.5007],[29.08678,47.03741,60.7136],[29.11521,46.9869,172.8187],[29.14828,46.99124,161.4927],[29.18182,47.00034,143.8385],[29.20977,46.98618,118.429],[29.24037,46.97631,101.5412],[29.25447,46.99475,119.9208],[29.24931,47.02349,132.4581],[29.24889,47.06452,80.5594],[29.25354,47.10519,101.2044],[29.26972,47.12891,12.0299],[29.29225,47.13578,19.1209],[29.29088,47.14019,22.7453],[29.2908,47.14043,8.0],[29.27793,47.14245,13.7876],[29.26437,47.14808,23.4821],[29.26388,47.14829,14.6959],[29.24986,47.15827,32.1814],[29.24951,47.15852,32.4825],[29.23654,47.16244,11.8438],[29.22672,47.14927,8.4748],[29.22081,47.14927,14.2537],[29.22052,47.14927,14.2537],[29.21277,47.15796,14.9406],[29.21262,47.15813,14.9051],[29.20026,47.16312,11.0914],[29.1876,47.16286,27.7309],[29.17892,47.15611,16.2416],[29.1797,47.14534,15.5703],[29.1876,47.1348,11.3069],[29.19375,47.12384,34.6512],[29.18915,47.11175,45.9228],[29.17913,47.10953,16.1249],[29.16673,47.11268,38.4297],[29.15608,47.11361,17.0061],[29.14786,47.09656,16.3587],[29.13004,47.08178,8.5],[29.1243,47.07418,14.0461],[29.1189,47.07797,33.084],[29.09868,47.09215,16.2751],[29.09851,47.09227,16.2751],[29.08441,47.09888,16.4427],[29.06962,47.10142,12.6483],[29.06906,47.10152,12.6483],[29.07836,47.11687,17.3015],[29.09417,47.1349,10.9562],[29.11195,47.14989,9.6966],[29.1444,47.16291,9.0],[29.16316,47.1919,22.2199],[29.17892,47.19707,49.058],[29.16326,47.23081,9.5],[29.15097,47.24482,11.8406],[29.11014,47.2336,78.8501]]]}
,"properties": {"ISO3166-1-Alpha-3": "MDA","country": "Moldova","fill": "#00F","name": "Criuleni","area_km2": 803.5957,"hist_schema_id": "Elevation0-9000","hist_area_km2": {"0": 5.6823,"25": 80.1386,"50": 45.1596,"75": 59.1335,"100": 129.7651,"125": 154.5443,"150": 131.4923,"175": 119.2305,"200": 49.4492,"225": 21.4151,"250": 6.6496,"275": 0.9355}}}