{"type":"Feature","properties":{"GID_1":"MDA.5_1","GID_0":"MDA","country":"Moldova","province":"Briceni","VARNAME_1":"NA","NL_NAME_1":"NA","TYPE_1":"Raion","ENGTYPE_1":"District","CC_1":"NA","HASC_1":"MD.BR","ISO_1":"MD-BR","name":"Briceni.province"},
"geometry":{"type": "MultiPolygon","coordinates": [[[[27.3115,48.3029,228.4999],[27.272,48.3298,258.7224],[27.2572,48.3434,206.0948],[27.2543,48.3501,230.0172],[27.2526,48.3677,252.5482],[27.2536,48.3752,249.7143],[27.2427,48.3729,242.0257],[27.2295,48.3745,244.5494],[27.2059,48.3953,259.1646],[27.1972,48.3962,271.7232],[27.175,48.3884,262.2449],[27.1506,48.3828,260.8547],[27.1341,48.3837,243.124],[27.1244,48.3875,230.0878],[27.1126,48.3994,277.6344],[27.0941,48.4091,235.9925],[27.0834,48.4224,260.7968],[27.0761,48.4371,252.7523],[27.0718,48.4394,243.2496],[27.0462,48.4308,298.137],[27.0384,48.4265,293.3287],[27.0372,48.4229,276.6178],[27.049,48.4103,272.8451],[27.0554,48.4,276.239],[27.0519,48.3927,269.0613],[27.0231,48.3842,259.9714],[27.0164,48.3784,282.0641],[27.0118,48.3704,267.7666],[27.0029,48.3654,277.2674],[26.9831,48.3634,257.8163],[26.9589,48.3651,270.1383],[26.9283,48.3705,207.0993],[26.9055,48.3825,247.6812],[26.8969,48.3935,245.3981],[26.8929,48.4133,255.8811],[26.8887,48.4222,250.6593],[26.8811,48.4259,250.2604],[26.8723,48.4253,254.1615],[26.8479,48.4196,286.5718],[26.8248,48.4169,237.2931],[26.8017,48.4164,250.4023],[26.7873,48.4128,194.3254],[26.7717,48.4049,216.5246],[26.7563,48.4013,212.3314],[26.7497,48.4021,214.1685],[26.7355,48.4081,247.2727],[26.7245,48.4097,242.2244],[26.7168,48.4075,216.0335],[26.7189,48.4016,229.7324],[26.7265,48.395,209.553],[26.7895,48.3542,190.8316],[26.8037,48.3482,206.3701],[26.8201,48.3488,246.3345],[26.8288,48.3407,229.8845],[26.8281,48.3055,249.4779],[26.8202,48.2932,249.0428],[26.7916,48.2912,141.6311],[26.7859,48.2795,181.1713],[26.7792,48.2737,165.4797],[26.7727,48.2775,175.1549],[26.758,48.312,218.5654],[26.7526,48.3186,181.954],[26.734,48.3224,139.1089],[26.7156,48.3358,188.4014],[26.6994,48.352,242.2159],[26.695,48.3528,238.5714],[26.6905,48.3477,222.9077],[26.6893,48.3389,203.8184],[26.6836,48.3316,179.8489],[26.6824,48.3258,178.0254],[26.6855,48.3126,171.6436],[26.6832,48.3082,138.0815],[26.6788,48.3067,164.8674],[26.6745,48.3082,173.1895],[26.6658,48.3149,188.3805],[26.6603,48.3171,198.5987],[26.657,48.3164,232.7056],[26.6537,48.3135,229.7948],[26.6457,48.2916,190.6855],[26.6401,48.2851,167.2584],[26.6259,48.2774,136.4465],[26.6213,48.2604,116.287],[26.6312,48.2574,116.7219],[26.6337,48.2616,114.4236],[26.6381,48.2621,116.3873],[26.6449,48.2574,119.9196],[26.6458,48.2534,109.2577],[26.6473,48.2527,114.2284],[26.6557,48.2553,114.4683],[26.6585,48.2587,121.0753],[26.6592,48.2626,129.3484],[26.6628,48.2645,111.0665],[26.6683,48.2612,115.3315],[26.6643,48.2523,119.0953],[26.6663,48.2478,119.1215],[26.6695,48.2469,121.1806],[26.6856,48.2498,115.5655],[26.6886,48.253,110.4641],[26.6936,48.2546,112.229],[26.6979,48.2639,110.0978],[26.7036,48.2655,112.2472],[26.7061,48.2636,109.0029],[26.7101,48.2532,108.0448],[26.7228,48.2466,108.7571],[26.7283,48.246,108.3013],[26.732,48.2478,110.1519],[26.7333,48.2511,106.4263],[26.728,48.257,117.3854],[26.7323,48.2585,114.7672],[26.7443,48.2543,110.9019],[26.7352,48.2466,112.983],[26.7367,48.2454,111.8852],[26.7549,48.2485,106.3775],[26.7602,48.2474,113.7993],[26.7678,48.2485,107.8656],[26.7832,48.2434,106.0378],[26.7869,48.2445,106.7445],[26.7866,48.2485,103.5],[26.788,48.2502,107.183],[26.7987,48.25,108.5054],[26.8098,48.2547,105.0389],[26.8177,48.2489,106.1328],[26.8177,48.2464,111.0884],[26.8282,48.2445,147.4807],[26.8311,48.2356,112.5707],[26.8307,48.2305,113.2532],[26.8332,48.2269,105.3013],[26.8427,48.2282,140.3895],[26.8498,48.2339,114.5307],[26.8534,48.2343,142.8709],[26.858,48.2305,129.6277],[26.8624,48.2183,102.6146],[26.8753,48.2111,104.5815],[26.8858,48.2026,110.0478],[26.89,48.2011,101.0175],[26.9104,48.2016,130.0996],[26.9104,48.1994,124.6346],[26.9049,48.1949,113.1288],[26.8956,48.1939,99.7537],[26.8941,48.192,108.2538],[26.8957,48.188,101.4273],[26.9051,48.181,102.5298],[26.9105,48.1801,103.7004],[26.9225,48.1824,136.8996],[26.9207,48.1884,135.0307],[26.9148,48.1972,101.552],[26.9166,48.1992,102.9072],[26.9327,48.2,96.021],[26.9416,48.1978,117.3919],[26.9465,48.1947,97.8754],[26.9509,48.1893,111.0134],[26.9513,48.1847,136.708],[26.9473,48.1796,129.8202],[26.9343,48.1709,94.0442],[26.9341,48.1677,98.9355],[26.9369,48.1642,97.6324],[26.9477,48.1605,97.2895],[26.9627,48.1619,93.9025],[26.9766,48.1611,115.4186],[26.9872,48.1571,130.2549],[26.9933,48.15,134.1037],[26.9899,48.146,95.8801],[26.9817,48.1439,96.1226],[26.9695,48.1475,96.1791],[26.9601,48.1526,106.3293],[26.9565,48.152,96.174],[26.953,48.1497,92.9774],[26.9526,48.1447,93.0457],[26.9568,48.1362,96.9525],[26.9605,48.1338,98.3151],[26.9695,48.1297,95.5812],[26.9876,48.1286,91.4993],[26.9989,48.1228,96.7447],[27.0035,48.1221,93.44],[27.0106,48.1268,105.9009],[27.019,48.1374,91.4476],[27.0264,48.1387,89.3932],[27.0308,48.1356,94.9334],[27.0249,48.128,88.4201],[27.0252,48.125,92.61],[27.0305,48.1242,91.642],[27.0387,48.1307,92.9724],[27.0411,48.1293,89.0084],[27.0399,48.1264,113.2697],[27.0574,48.1266,156.5974],[27.0569,48.1223,138.8326],[27.074,48.1243,142.8762],[27.0862,48.1528,239.4444],[27.0947,48.1631,156.6074],[27.1095,48.1691,160.9058],[27.1217,48.1805,233.6501],[27.1221,48.239,196.0003],[27.1264,48.2433,215.7866],[27.1593,48.2596,223.5823],[27.1693,48.2581,217.5155],[27.1808,48.2537,193.8968],[27.1826,48.2389,199.6528],[27.1852,48.2344,220.2735],[27.1952,48.2277,197.3302],[27.2048,48.2237,189.034],[27.2141,48.2218,175.5366],[27.2234,48.2222,199.538],[27.2363,48.227,220.3253],[27.243,48.2318,242.663],[27.2578,48.2337,244.4633],[27.2848,48.2337,232.5448],[27.293,48.2392,256.9645],[27.3011,48.2492,217.2252],[27.303,48.2548,216.9427],[27.3018,48.2711,244.1688],[27.2996,48.2755,248.0208],[27.293,48.2774,251.8944],[27.2896,48.2818,236.005],[27.29,48.2911,224.0525],[27.293,48.2948,216.5953],[27.2989,48.2981,235.7112],[27.3041,48.2988,229.02],[27.3115,48.3029,228.4999]]]]}}