{"type": "Feature","id": "1613","bbox": [26.61789,48.12141,27.31154,48.39968],"geometry": {"type": "Polygon","coordinates": [[[27.20855,48.36062,254.6157],[27.17579,48.3618,227.9047],[27.06882,48.38888,263.3922],[27.04804,48.39767,270.4934],[27.0374,48.39968,276.0718],[27.02634,48.3971,267.1335],[27.02541,48.38986,254.8374],[27.028199999999998,48.38139,278.6474],[27.02779,48.37477,273.8295],[27.02851,48.3708,275.15],[27.03182,48.36524,279.2154],[27.03306,48.3602,278.5219],[27.02768,48.35775,277.2672],[27.01559,48.3594,271.4384],[27.00464,48.35875,284.8888],[26.99781,48.36155,275.4151],[26.99058,48.36237,264.6437],[26.98107,48.35568,255.7067],[26.94324,48.35126,234.4384],[26.90872,48.36524,236.5806],[26.87596,48.384,224.3368],[26.84278,48.39374,242.6323],[26.83193,48.39136,229.2592],[26.82842,48.38514,240.3148],[26.82563,48.37777,213.4735],[26.81695,48.37173,228.8441],[26.81007,48.37188,232.0034],[26.79359,48.37627,195.3321],[26.78806,48.37596,191.4768],[26.77752,48.36617,197.5924],[26.77819,48.3572,227.224],[26.78408,48.34516,193.3389],[26.78935,48.32594,173.9882],[26.79007,48.30705,155.4475],[26.78573,48.29411,174.904],[26.77437,48.28718,198.3447],[26.75457,48.28615,125.6783],[26.73592,48.29183,165.2967],[26.72362,48.30258,195.7031],[26.71297,48.31491,228.4373],[26.69943,48.32511,247.9163],[26.6798,48.33018,174.617],[26.67401,48.3217,150.5876],[26.6691,48.30881,193.7862],[26.63608,48.29488,196.7368],[26.62512,48.28289,134.8164],[26.61861,48.26718,134.8786],[26.61789,48.25897,116.8433],[26.66574,48.27421,138.6739],[26.68853,48.27483,134.6693],[26.71148,48.26132,112.1243],[26.72238,48.25977,110.682],[26.73313,48.27075,115.7264],[26.74403,48.25558,109.2647],[26.76372,48.25274,112.6534],[26.80491,48.25827,123.7104],[26.82191,48.25253,150.0336],[26.84475,48.23331,107.1205],[26.8555,48.23783,155.5797],[26.89767,48.20897,108.1823],[26.90397,48.20145,105.0674],[26.908,48.18453,120.641],[26.91772,48.18796,101.5529],[26.92908,48.19905,95.7326],[26.93813,48.20481,145.9464],[26.95058,48.19752,152.8901],[26.95565,48.186,139.4688],[26.96309,48.17538,114.8351],[26.99761,48.16657,154.8057],[26.99761,48.15794,147.9298],[26.98624,48.15042,97.7202],[26.9666,48.14959,100.1209],[26.9666,48.14337,122.2234],[26.99399,48.13241,124.5598],[27.0127,48.12812,97.7409],[27.0251,48.13505,92.529],[27.03368,48.13239,92.8042],[27.04277,48.1273,98.2796],[27.04804,48.12223,137.0183],[27.04795,48.12141,117.5085],[27.05688,48.12228,138.8326],[27.07983,48.13613,186.6322],[27.09471,48.16313,156.6074],[27.11605,48.18094,228.8925],[27.1221,48.20941,194.2568],[27.12577,48.23894,197.4142],[27.15005,48.2555,267.551],[27.17388,48.25323,204.4584],[27.18525,48.23442,220.2735],[27.21382,48.22359,179.5701],[27.24297,48.23184,242.663],[27.27547,48.23354,241.1466],[27.3011,48.24923,217.2252],[27.29397,48.2817,240.9316],[27.31154,48.30289,228.4999],[27.26974,48.33118,248.9091],[27.25361,48.37519,249.7143],[27.25193,48.37831,252.9463],[27.24648,48.37374,240.6194],[27.20855,48.36062,254.6157]]]}
,"properties": {"ISO3166-1-Alpha-3": "MDA","country": "Moldova","fill": "#F0F","name": "Briceni","area_km2": 748.3761,"hist_schema_id": "Elevation0-9000","hist_area_km2": {"100": 13.5483,"125": 25.9473,"150": 67.1168,"175": 99.2147,"200": 161.2799,"225": 194.0332,"250": 145.6444,"275": 41.2252,"300": 0.3664}}}