{"type":"Feature","properties":{"featurecla":"River","scalerank":7,"rivernum":554,"dissolve":"554River","name":"Prut2","name_alt":null,"note":null,"min_zoom":6.0,"strokeweig":0.25,"name_en":"Prut","min_label":7.0},
"geometry":{"type": "LineString","coordinates": [[26.460693359375,48.23065827030662,125.4306],[26.5869140625,48.24957916874412,120.3479],[26.665283203125,48.27448151249412,138.6739],[26.688085937500006,48.275018621869116,134.6693],[26.711035156250006,48.26154205936912,112.1243],[26.721923828125,48.260028387494117,110.682],[26.732519531250006,48.271014715619117,115.7264],[26.74365234375,48.255877996869117,109.2647],[26.76318359375,48.25299713749412,112.6534],[26.804443359375,48.25861237186912,123.7104],[26.8212890625,48.252801824994116,133.7867],[26.84423828125,48.233514715619116,111.1119],[26.85498046875,48.23810455936912,155.5797],[26.897216796875,48.20917389530662,108.1823],[26.903417968750006,48.201678778119117,107.0914],[26.907470703125,48.18475983280662,120.641],[26.917089843750006,48.188251043744117,101.5529],[26.928466796875,48.19928619999412,94.5934],[26.937597656250006,48.205096746869117,145.9464],[26.950097656250023,48.197772528119117,152.8901],[26.955175781250006,48.18622467655662,142.8469],[26.962646484375,48.17560455936912,118.6226],[26.9970703125,48.16681549686912,154.8057],[26.9970703125,48.158221746869117,147.9298],[26.985595703125,48.15070221561912,97.7202],[26.966064453125,48.14984772343162,100.1209],[26.966064453125,48.14362213749412,122.2234],[26.993359375000011,48.132684637494116,124.5598],[27.01220703125,48.12836334843162,97.7409],[27.024511718750006,48.13532135624412,92.529],[27.033203125,48.13263580936912,92.8656],[27.042236328125,48.127557684369116,98.2796],[27.047460937500006,48.12250397343162,129.5949],[27.046875,48.11676666874412,141.8802],[27.036230468750006,48.10761139530662,109.6484],[27.033789062500006,48.10199616093162,96.0044],[27.041113281250006,48.077508856244116,94.8137],[27.058691406250006,48.05829498905662,117.8081],[27.082763671875,48.043963934369117,90.2126],[27.10888671875,48.03375885624412,110.6777],[27.10888671875,48.02631256718162,123.9204],[27.08837890625,48.02008698124412,104.8248],[27.089453125,48.01593659061912,86.5],[27.0908203125,48.012079168744116,86.5],[27.0927734375,48.00873444218162,87.1584],[27.09521484375,48.005877996869117,86.5],[27.120996093750023,48.013446356244117,89.1934],[27.134033203125,48.00067780155662,97.8327],[27.143164062500006,47.98712799686912,96.6045],[27.15673828125,47.992206121869117,86.5],[27.168359375000023,47.983270574994116,114.8546],[27.169189453125,47.973993231244116,113.7869],[27.162353515625,47.96527741093162,100.7409],[27.150488281250006,47.95807526249412,86.5],[27.171484375,47.94672272343162,88.3479],[27.177734375,47.94440338749412,86.5],[27.177734375,47.93817780155662,98.9254],[27.16015625,47.921991278119116,86.5],[27.171142578125,47.912860418744117,86.5],[27.19375,47.904315496869117,86.5],[27.2119140625,47.889764715619116,86.5],[27.211035156250006,47.885272528119117,86.5],[27.212792968750023,47.854364324994116,86.5],[27.2119140625,47.84821198124412,86.5],[27.222265625,47.842889715619116,86.5],[27.234375,47.840448309369116,80.6906],[27.245361328125,47.83685944218162,68.3638],[27.2529296875,47.82831452030662,68.3545],[27.21875,47.81403229374412,67.2407],[27.230566406250006,47.80731842655662,77.5702],[27.244384765625,47.792840887494116,67.3747],[27.255615234375,47.77777741093162,69.8879],[27.260351562500006,47.76935455936912,65.0761],[27.26416015625,47.764764715619116,63.4647],[27.281835937500006,47.75592682499412,74.4128],[27.287011718750023,47.752557684369116,78.5143],[27.29052734375,47.742694403119117,64.8896],[27.2890625,47.73200104374412,70.9907],[27.29443359375,47.72467682499412,62.534],[27.29443359375,47.71845123905662,66.5285],[27.271484375,47.715204168744116,65.6746],[27.280664062500023,47.693231512494116,66.1198],[27.303466796875,47.66681549686912,73.0552],[27.36865234375,47.608514715619116,73.0135],[27.396582031250006,47.589374090619117,59.6546],[27.427832031250006,47.58124420780662,61.8029],[27.435302734375,47.560174871869116,70.021],[27.4384765625,47.553973699994117,70.7591],[27.439697265625,47.55036041874412,55.499],[27.439550781250006,47.54120514530662,56.8239],[27.441503906250006,47.536883856244117,56.2419],[27.445556640625,47.53510162968162,50.9452],[27.456298828125,47.53412506718162,50.4322],[27.458886718750023,47.53351471561912,70.7796],[27.466210937500023,47.506610418744117,62.3339],[27.47265625,47.49201080936912,65.5747],[27.483154296875,47.485711981244116,51.865],[27.491943359375,47.48480866093162,50.6284],[27.496972656250023,47.482684637494117,59.7518],[27.5009765625,47.48016998905662,59.2243],[27.506738281250023,47.47821686405662,50.8735],[27.532470703125,47.477655340619116,50.2639],[27.534082031250023,47.47821686405662,48.6962],[27.547558593750011,47.47455475468162,49.9381],[27.562597656250006,47.468622137494116,50.1799],[27.575439453125,47.46063873905662,50.0166],[27.58251953125,47.450946356244117,179.0002],[27.574316406250006,47.446551824994117,77.2466],[27.56875,47.43878815311912,165.7785],[27.56494140625,47.42853424686912,47.6504],[27.56201171875,47.41681549686912,46.8218],[27.579833984375,47.406268621869117,53.305],[27.57177734375,47.37543366093162,51.693],[27.5859375,47.36896393436912,54.163],[27.599511718750023,47.360956121869116,47.9349],[27.623437500000023,47.32172272343162,55.6438],[27.636474609375,47.30695221561912,40.0313],[27.644238281250011,47.30426666874412,40.6731],[27.671142578125,47.30011627811912,41.3874],[27.681884765625,47.29547760624412,45.1095],[27.689453125,47.29108307499412,42.7994],[27.697363281250006,47.28778717655662,41.6957],[27.722265625,47.283563543744116,38.3174],[27.732812500000023,47.275897528119117,38.758],[27.753173828125,47.25165436405662,43.1173],[27.751953125,47.23920319218162,44.3118],[27.762451171875,47.226581121869117,37.9944],[27.787841796875,47.20453522343162,37.2992],[27.799902343750006,47.17719147343162,37.8322],[27.801513671875,47.17658112186912,38.0822],[27.804296875,47.16876862186912,38.4465],[27.807226562500006,47.16266510624412,37.6283],[27.805419921875,47.158465887494117,43.4246],[27.794042968750006,47.156122137494116,36.1884],[27.805908203125,47.14484284061912,49.4225],[27.849365234375,47.128778387494116,38.5017],[27.849365234375,47.12201569218162,49.7199],[27.84326171875,47.114618231244116,42.3321],[27.847753906250006,47.11163971561912,36.4799],[27.857177734375,47.10956452030662,51.2073],[27.866455078125,47.10492584843162,33.2176],[27.897070312500006,47.08161041874412,33.6473],[27.925390625,47.068963934369116,31.5231],[27.937890625000023,47.06134674686912,32.3187],[27.938085937500006,47.04682037968162,29.7364],[27.962646484375,47.04364655155662,33.2291],[27.9859375,47.033465887494117,30.7175],[28.0078125,47.02655670780662,33.866],[28.027441406250006,47.033221746869117,63.8461],[28.036523437500023,47.016717840619116,26.4146],[28.068603515625,46.988788153119117,28.1113],[28.082128906250006,46.97174713749412,28.1206],[28.101806640625,46.93537018436912,35.6956],[28.10498046875,46.91791412968162,29.6943],[28.096435546875,46.90289948124412,26.8961],[28.113183593750023,46.895038153119117,26.0181],[28.113867187500006,46.88361237186912,25.2665],[28.112695312500023,46.87164948124412,25.917],[28.123632812500006,46.86188385624412,24.6477],[28.123632812500006,46.85443756718162,27.3954],[28.12109375,46.83454010624412,24.1558],[28.137304687500006,46.80646393436912,34.2093],[28.177734375,46.75885651249412,26.5285],[28.177441406250011,46.74005768436912,20.5131],[28.233496093750006,46.66266510624412,21.0135],[28.24365234375,46.635614324994116,21.6977],[28.246826171875,46.621112371869117,19.579],[28.24658203125,46.607440496869117,40.7586],[28.239990234375,46.59662506718162,51.0226],[28.22998046875,46.584100653119116,20.2134],[28.224853515625,46.56976959843162,18.6557],[28.233496093750006,46.55341217655662,19.4547],[28.22421875,46.548944403119116,18.1887],[28.220605468750023,46.54144928593162,19.4376],[28.218505859375,46.50397369999412,17.7929],[28.220605468750023,46.49603912968162,18.2614],[28.233496093750006,46.47833893436912,18.5185],[28.237548828125,46.475848699994117,18.5708],[28.241943359375,46.47675202030662,17.3994],[28.245361328125,46.475848699994117,17.6428],[28.24658203125,46.46747467655662,18.6746],[28.246679687500006,46.43646881718162,14.59],[28.245507812500023,46.428094793744116,15.203],[28.239648437500023,46.42059967655662,17.1135],[28.225488281250023,46.41559479374412,16.7855],[28.232666015625,46.40204498905662,27.0597],[28.228125,46.39630768436912,15.3425],[28.219140625000023,46.39362213749412,36.4273],[28.21240234375,46.38898346561912,15.3438],[28.206640625,46.358417059369117,15.6395],[28.201904296875,46.35419342655662,18.1108]]}}